"id","cod_SIMS","nombre","domicilio","localidad","telefono","email","internacion","dependencia","regimen","cod_municipio","municipio","departamento","nodo","lat","lon"
755,"06300214","Centro Asistencial Casa De Gobierno","3 de Febrero 2649","Santa Fe","042-21081",,"No","Provincial","No definido",0147,"Santa Fe","La Capital","Santa Fe","-31.65793","-60.71062"
704,"04901783","Centro Asistencial Nueva Fe","Barrio Nueva Fe","Reconquista",,,"No","Municipal","Provincial- Decreto Nacional 939",0112,"Reconquista","General Obligado","Reconquista","-29.1744","-59.65738"
1328,"06309874","Centro De Atención Ambulatoria Programada","Bv. Dr. Zavalla 3361","Santa Fe","(0342) 4572375 int 305",,"No","Provincial","Provincial- Decreto Nacional 939",0147,"Santa Fe","La Capital","Santa Fe","-31.63476","-60.71703"
838,"08417574","Centro De Especialidades Medicas Ambulatorias (CEMAR)","San Luís 2020","Rosario","0341 4802600",,"No","Municipal","Municipal/Comunal",0210,"Rosario","Rosario","Rosario","-32.94675","-60.6515"
1253,"06309820","Centro De Tratamiento Ambulatorio-Adicciones Casa Del Sol","Av. Freyre 2070","Santa Fe","0342-4573918",,"No","Provincial","Provincial- Decreto Nacional 939",0147,"Santa Fe","La Capital","Santa Fe","-31.649507119232","-60.719870758138"
785,"08400712","Centro Regional De Hemoterapia","Lavalle 356","Rosario","0341-4804888","centrodesangre@rosario.gov.ar","No","Provincial","Provincial- Decreto Nacional 939",0210,"Rosario","Rosario","Rosario","-32.934166666667","-60.676472222222"
218,"08404259","Centro Regional De Salud Mental Dr. Agudo Ávila","Suipacha 667","Rosario","0341-4724640/55/90","agudoavila@hotmail.com","Si","Provincial","Descentralizado - Ley Prov. 10608",0210,"Rosario","Rosario","Rosario","-32.940111111111","-60.663777777778"
844,"08418249","CIC 20 de Junio","Regimiento 11 Nº 1593","Villa Gobernador Gálvez","0341-4983413",,"No","Provincial","Provincial- Decreto Nacional 939",0217,"Villa Gobernador Gálvez","Rosario","Rosario","-33.02417","-60.60408"
707,"04901810","CIC Barrio América","Roca y Calle 63","Reconquista","03482-15614262","cic1@reconquista.gov.ar","No","Municipal","Provincial- Decreto Nacional 939",0112,"Reconquista","General Obligado","Reconquista","-29.16737","-59.64666"
846,"09800561","CIC Bo. Lujan","Islas Malvinas 2084","Romang","03482-15406680",,"No","Provincial","Provincial- Decreto Nacional 939",3715,"Romang","San Javier","Reconquista","-29.50795","-59.75669"
850,"13300785","CIC Calchaquí","A. P. Justo y Salta","Calchaquí","03483-15431523","calchaqui@gmail.com","No","Provincial","Provincial- Decreto Nacional 939",0329,"Calchaquí","Vera","Reconquista","-29.89328","-60.29037"
689,"06309395","CIC Callejón Roca","Callejón Roca 2300","Santa Fe","0342-4579140 centrex 9140","cicroca@outlook.com.ar","No","Provincial","SAMCo. Ley Provincial 63/12",0147,"Santa Fe","La Capital","Santa Fe","-31.578450000","-60.684216670"
848,"11901539","CIC Capitán Bermúdez","Laprida y Ayacucho","Capitán Bermúdez","0341-4782129-4913921","cicbermudez@netcoop.com.ar","No","Provincial","Provincial- Decreto Nacional 939",0266,"Capitán Bermúdez","San Lorenzo","Rosario","-32.80211","-60.72663"
568,"03500484","CIC Cayastá","Álvaro Gil s/n","Cayastá","03405/493011, centrex: 6226","samcocayasta09@yahoo.com.ar","No","Provincial","Provincial- Decreto Nacional 939",2539,"Cayastá","Garay","Santa Fe","-31.20182","-60.16358"
708,"04901819","CIC Florencia","San Roque 638","Florencia","03482-491105",,"No","Municipal","Provincial- Decreto Nacional 939",2798,"Florencia","General Obligado","Reconquista","-28.03798","-59.21541"
1273,"03500549","CIC Las Malvinas","RP 1 S Teófilo Madrejón Km 39","Santa Rosa De Calchines","0342-154355895","samco_santarosa@hotmail.com","No","Provincial","Provincial- Decreto Nacional 939",2567,"Santa Rosa de Calchines","Garay","Santa Fe","-31.39664","-60.32213"
692,"06309391","CIC Loyola Sur","J. Civils 6539","Santa Fe","0342-4579262 ctx 9262",,"No","Provincial","Provincial- Decreto Nacional 939",0147,"Santa Fe","La Capital","Santa Fe","-31.578433788166","-60.738854082981"
1254,"04902351","CIC Malabrigo","General Obligado 1111","Malabrigo","03482-445857","cicmalabrigo_salud@yahoo.com.ar","No","Provincial","Dep. de SAMCo.",0105,"Malabrigo","General Obligado","Reconquista","-29.35143","-59.97576"
373,"09800234","CIC San Javier - Fonavi","Hipólito Irigoyen y Gral. López","San Javier","03405-424611",,"No","Provincial","Provincial- Decreto Nacional 939",0238,"San Javier","San Javier","Santa Fe","-30.57883","-59.93681"
840,"06307536","CIC Sauce Viejo","Córdoba y Uruguay","Sauce Viejo","0342-4950212",,"No","Municipal","Municipal/Comunal",3029,"Sauce Viejo","La Capital","Santa Fe","-31.77448","-60.83664"
617,"02801162","CIC Villa Constitución Dr. Ramón Carrillo","Almafuerte y Calle Pbca Nº 3","Villa Constitución","03400-430010",,"No","Municipal","No definido",0056,"Villa Constitución","Constitución","Rosario","-33.22942","-60.3485"
735,"04901981","CIC Villa Ocampo","Güemes entre Pedro Giachino y San Vicent","Villa Ocampo","03482-469320","cicvillaocampo@gmail.com","No","Municipal","Municipal/Comunal",0119,"Villa Ocampo","General Obligado","Reconquista","-28.48311","-59.37152"
43,"05600133","Colonia Psiquiátrica Dr. Abelardo Freyre","RP 11 S - Km. 357","Oliveros","03476/498039 centrex 6406","coloniaoliveros@ihotmail.com","Si","Provincial","Descentralizado - Ley Prov. 10608",2917,"Oliveros","Iriondo","Rosario","-32.533426","-60.868861"
602,"11900581","CS 1 De Julio","Luis Borghi 52","San Lorenzo",,,"No","Municipal","Municipal/Comunal",0301,"San Lorenzo","San Lorenzo","Rosario","-32.75642","-60.72693"
1342,"02102783","CS 10 2 De Abril","Cortazza y M. Cetta","Rafaela",,,"No","Provincial","Provincial- Decreto Nacional 939",0042,"Rafaela","Castellanos","Rafaela","-31.27357","-61.47046"
571,"02800352","CS 17 De Octubre","Sivori 1005","Villa Constitución","03461-15354692","17deoctubre.centrodesalud@gmail.com","No","Municipal","Municipal/Comunal",0056,"Villa Constitución","Constitución","Rosario","-33.254290592783","-60.306403791704"
210,"08403363","CS 17 De Octubre","Corrientes 146","Villa Gobernador Gálvez","0341/4983428",,"No","Provincial","Provincial- Decreto Nacional 939",0217,"Villa Gobernador Gálvez","Rosario","Rosario","-33.00975","-60.60625"
601,"11900572","CS 2 De Abril","Sorrequieta 165 y calle 4","San Lorenzo",,,"No","Municipal","Municipal/Comunal",0301,"San Lorenzo","San Lorenzo","Rosario","-32.77772816743","-60.724090597639"
736,"11201054","CS 24 De Setiembre","Bv. Pellegrini y Reconquista","San Justo",,,"No","Municipal","Municipal/Comunal",0259,"San Justo","San Justo","Santa Fe","-30.79489","-60.58681"
49,"05600290","CS 25 De Mayo","Audano 653","Cañada De Gómez","03471-421715","cs25demayocdg@hotmail.com","No","Provincial","Provincial- Decreto Nacional 939",0126,"Cañada de Gómez","Iriondo","Rosario","-32.815569637928","-61.384075549015"
1298,"08423154","CS 7 De Abril","Urquiza 2906","Rosario","0341-4392600","cs7a@hotmail.com.ar","No","Nacional","Municipal/Comunal",0210,"Rosario","Rosario","Rosario","-32.938527777778","-60.662027777778"
515,"04200018","CS Aarón Castellanos","M Castellano de Anchorena s/n","Aarón Castellanos (Est. Castellanos)","03382 498028","aaronsalud@hotmail.com","No","Provincial","Provincial- Decreto Nacional 939",2574,"Aarón Castellanos (Est. Castellanos)","General López","Venado Tuerto","-34.33225","-62.37519"
122,"06309364","CS Abasto","Diagonal Avipones 12500","Santa Fe","0342- 4579133 ctx 9133",,"No","Provincial","Provincial- Decreto Nacional 939",0147,"Santa Fe","La Capital","Santa Fe","-31.561066670","-60.742316670"
1317,"06309856","CS Adelina Este","Diagonal 12 y 71","Sauce Viejo","0342 - 155119981","csadelinaeste@hotmail.com.ar","No","Municipal","Municipal/Comunal",3029,"Sauce Viejo","La Capital","Santa Fe","-31.701566667","-60.762866667"
93,"06301504","CS Adelina Oeste","Los Paraísos y Corrientes","Sauce Viejo","( 0342) 499-6210","adelinaoeste@hotmail.com","No","Municipal","Municipal/Comunal",3029,"Sauce Viejo","La Capital","Santa Fe","-31.694950000","-60.788316667"
238,"09100453","CS Aguara Grande","Zona urbana","Aguará Grande","03408-42272218(casa part.)",,"No","Provincial","Provincial- Decreto Nacional 939",3477,"Aguará Grande","San Cristóbal","Rafaela","-30.1167","-60.8833"
178,"08401662","CS Albarellos","Comercio 235","Albarellos","03402/494034","comalbarellos@coopvgg.com.ar","No","Municipal","SAMCo. Ley Provincial 63/12",3358,"Albarellos","Rosario","Rosario","-33.23804","-60.63846"
116,"06302357","CS Alberdi","A. Casanello 1515","Santa Fe","0342-4579102 ctx 9102",,"No","Provincial","Provincial- Decreto Nacional 939",0147,"Santa Fe","La Capital","Santa Fe","-31.611621281289","-60.683605284182"
410,"01400334","CS Alberdi","Washington 2903","Casilda","03464-423047",,"No","Municipal","Municipal/Comunal",0028,"Casilda","Caseros","Rosario","-33.040662978363","-61.177710177462"
315,"11900190","CS Aldao","Lisandro de La Torre 200","Aldao","03476-482037/6409","adrianasgrosso@hotmail.com","No","Provincial","Provincial- Decreto Nacional 939",3981,"Aldao","San Lorenzo","Rosario","-32.70581","-60.81527"
895,"08418636","CS Alfonsina Storni","Bermúdez 6390","Rosario","0341-4729677","centroalfonsinastorni@hotmail.com","No","Provincial","Provincial- Decreto Nacional 939",0210,"Rosario","Rosario","Rosario","-33.010667","-60.642222"
421,"06301814","CS Alicia Moreau De Justo","J.Civil y Valdez (Libertad)","Santo Tomé","(0342) 475-3463",,"No","Provincial","Provincial- Decreto Nacional 939",0154,"Santo Tomé","La Capital","Santa Fe","-31.654116667","-60.832483333"
685,"08400429","CS Alicia Moreau De Justo","Calle 1333 NRO 3040","Rosario","(0341) 4226162",,"No","Municipal","Municipal/Comunal",0210,"Rosario","Rosario","Rosario","-32.885111","-60.726417"
54,"06300010","CS Alto Verde","Manzana 2 Alto Verde","Santa Fe","0342-4571978 ctx 1978","gerardoroldan@yahoo.com.ar","No","Provincial","Provincial- Decreto Nacional 939",0147,"Santa Fe","La Capital","Santa Fe","-31.65937","-60.69986"
120,"06309288","CS Altos De Nogueras","Lamadrid 10590","Santa Fe","0342-4800311 (ctrex 4311)",,"No","Provincial","Provincial- Decreto Nacional 939",0147,"Santa Fe","La Capital","Santa Fe","-31.566366670","-60.704783330"
115,"06301997","CS Altos Del Valle","Los Azucenas 10350","Santa Fe","0342-4579217 ctx 9217",,"No","Provincial","Provincial- Decreto Nacional 939",0147,"Santa Fe","La Capital","Santa Fe","-31.573196554249","-60.684542581215"
544,"04200735","CS Amenábar","Pellegrini 840","Amenábar","03382/492071 centrex 6126","samcoamenabar@hotmail.com","No","Municipal","SAMCo. Ley Provincial 63/12",2581,"Amenábar","General López","Venado Tuerto","-34.13501","-62.42302"
376,"05600010","CS Andino","Pellegrini 911","Pueblo Andino","03476/496257","samcoandino@hotmail.com","No","Municipal","SAMCo. Ley Provincial 63/12",2924,"Pueblo Andino","Iriondo","Rosario","-32.67171","-60.88001"
539,"04200476","CS Ángel Bulgheroni","Santiago del Estero 52","Rufino","03382/428007",,"No","Provincial","Dep. de SAMCo.",0070,"Rufino","General López","Venado Tuerto","-34.25715","-62.70992"
118,"06302381","CS Ángel Gallardo","Dr. Ángel Gallardo 1700","Ángel Gallardo","0342-4904860 Centrex 4460",,"No","Provincial","Provincial- Decreto Nacional 939",0063,"Firmat","La Capital","Santa Fe","-31.554316667","-60.679183333"
444,"02100237","CS Angélica","Lisandro de la Torre 137","Angélica","03492/487534","samcoangelica@hotmail.com","No","Municipal","SAMCo. Ley Provincial 63/12",2112,"Angélica","Castellanos","Rafaela","-31.550129619658","-61.543330621364"
165,"08400038","CS Arminda","Belgrano 647","Arminda","03469 - 493075","comunaarminda@ri.com.ar","No","Municipal","SAMCo. Ley Provincial 63/12",3379,"Arminda","Rosario","Rosario","-33.26364","-60.96625"
263,"10500015","CS Arocena","Dr. Rovere 372","Arocena","03466/495138",,"No","Provincial","SAMCo. Ley Provincial 63/12",3722,"Arocena","San Jerónimo","Santa Fe","-32.07786","-60.97612"
55,"06300028","CS Arroyo Aguiar","Av. San Martín 46","Arroyo Aguiar","0342/4572544, centrex: 2544","enfermeriaarroyoaguiar@hotmail.com","No","Municipal","SAMCo. Ley Provincial 63/12",2952,"Arroyo Aguiar","La Capital","Santa Fe","-31.430016667","-60.667683333"
16,"04900401","CS Arroyo Ceibal","Zona urbana","Arroyo Ceibal","03482/497141",,"No","Provincial","Provincial- Decreto Nacional 939",2763,"Arroyo Ceibal","General Obligado","Reconquista","-28.72353","-59.47872"
413,"04200727","CS Asistencia Publica Municipal","Brown 478","Venado Tuerto","03462-436374","mvtsalud@yahoo.com.ar","No","Municipal","Municipal/Comunal",0077,"Venado Tuerto","General López","Venado Tuerto","-33.738705828346","-61.967743274015"
646,"08404372","CS Asistencial A La Comunidad","Esmeralda 2363","Rosario","0341-4808582",,"No","Provincial","Municipal/Comunal",0210,"Rosario","Rosario","Rosario","-32.967861111111","-60.626083333333"
445,"02100245","CS Ataliva","Dorrego 3100","Ataliva","03493/491057",,"No","Municipal","SAMCo. Ley Provincial 63/12",2119,"Ataliva","Castellanos","Rafaela","-30.99554","-61.43575"
365,"02100679","CS Aurelia","Aurelia entre Sgo.del Estero y Avda. Bs.","Aurelia","03492-488032",,"No","Provincial","Provincial- Decreto Nacional 939",2126,"Aurelia","Castellanos","Rafaela","-31.42066","-61.42443"
556,"04900109","CS Avellaneda","Calle 16 340","Avellaneda","03482/481952","samcoavd@trcnet.com.ar","No","Provincial","SAMCo. Ley Provincial 63/12",0091,"Avellaneda","General Obligado","Reconquista","-29.116043103023","-59.655858746057"
382,"06309389","CS Baradero Sarsotti","Calle Principal s/n","Santa Fe","(0342)4589428 ctx 9428",,"No","Provincial","Provincial- Decreto Nacional 939",0147,"Santa Fe","La Capital","Santa Fe","-31.66942","-60.73506"
594,"11900505","CS Barrio 3 De Febrero","Peatonal 2795","San Lorenzo",,,"No","Municipal","Municipal/Comunal",0301,"San Lorenzo","San Lorenzo","Rosario","-32.73151","-60.74843"
484,"02100946","CS Barrio Acapulco y Vera Cruz","Calle 2 esq. 5 ","Frontera",,"samcoacapulco@hotmail.com","No","Provincial","Provincial- Decreto Nacional 939",0035,"Frontera","Castellanos","Rafaela","-31.42071","-62.06029"
112,"06301873","CS Barrio Acería","Matheu 6250","Santa Fe","0342 - 4579101",,"No","Provincial","Provincial- Decreto Nacional 939",0147,"Santa Fe","La Capital","Santa Fe","-31.598284649082","-60.668916584328"
397,"04900702","CS Barrio Almafuerte","Almafuerte 475","Reconquista","03482/4614260",,"No","Municipal","Provincial- Decreto Nacional 939",0112,"Reconquista","General Obligado","Reconquista","-29.138177638605","-59.641225662084"
411,"01400342","CS Barrio Barracas","General Bartolomé Mitre 1165","Casilda","03464-427934","dispensariobarracas_yapeyu@hotmail.com","No","Municipal","Municipal/Comunal",0028,"Casilda","Caseros","Rosario","-33.054234099167","-61.162785445019"
62,"06300095","CS Barrio Barranquitas Oeste","Artigas 4100","Santa Fe","0342/4572505, centrex: 2505","csbarranquitasoeste@santafe.gov.ar","No","Provincial","Provincial- Decreto Nacional 939",0147,"Santa Fe","La Capital","Santa Fe","-31.620402102265","-60.719818917699"
33,"04900711","CS Barrio Belgrano","Calle 126 Esq. 115","Avellaneda","03482-552033",,"No","Provincial","Dep. de SAMCo.",0091,"Avellaneda","General Obligado","Reconquista","-29.1171","-59.68149"
111,"06301865","CS Barrio Cabal","Pje. Leiva 6859","Santa Fe","0342-4579263 centrex 9263",,"No","Provincial","Provincial- Decreto Nacional 939",0147,"Santa Fe","La Capital","Santa Fe","-31.605190834199","-60.691291889611"
282,"10500449","CS Barrio Caima","25 de Mayo s/n","Caima","0342/4900028",,"No","Municipal","Provincial- Decreto Nacional 939",3764,"Desvío Arijón","San Jerónimo","Santa Fe","-31.83314","-60.87194"
389,"06309392","CS Barrio Candioti","Bv. Gálvez 1563 (ex Hosp. de niños)","Santa Fe","0342-4572873- Centrex 2873","csbcandioti@hotmail.com.ar","No","Provincial","Provincial- Decreto Nacional 939",0147,"Santa Fe","La Capital","Santa Fe","-31.638063143896","-60.691865117825"
593,"11900491","CS Barrio Capitán Bermúdez","Silverio Córdoba 1660","San Lorenzo",,,"No","Municipal","Municipal/Comunal",0301,"San Lorenzo","San Lorenzo","Rosario","-32.734623706172","-60.745134857992"
386,"06309373","CS Barrio Chalet","Mariano Cabal 3951","Santa Fe","0342-4589420 ctx 9420","cschalet@hotmail.com.ar","No","Provincial","Provincial- Decreto Nacional 939",0147,"Santa Fe","La Capital","Santa Fe","-31.661765283739","-60.728937163794"
26,"04900583","CS Barrio Chapero","Roca 2023","Reconquista","03482-438450","capschaperocentro@yahoo.com.ar","No","Provincial","Provincial- Decreto Nacional 939",0112,"Reconquista","General Obligado","Reconquista","-29.15834879307","-59.645661215704"
665,"11900734","CS Barrio Copello","Uruguay 232","Capitán Bermúdez","0341-491-0317",,"No","Municipal","Municipal/Comunal",0266,"Capitán Bermúdez","San Lorenzo","Rosario","-32.823034269089","-60.72678393591"
18,"04900435","CS Barrio El Ombusal Ema Beatriz Cabral","Brown y Chacabuco","Reconquista","0348438434 ctx 9894",,"No","Provincial","Provincial- Decreto Nacional 939",0112,"Reconquista","General Obligado","Reconquista","-29.15241","-59.641"
108,"06301806","CS Barrio El Pozo","Mna. 19, al lado de la Comisaría","Santa Fe","0342-4577008 Centrex 7008",,"No","Municipal","SAMCo. Ley Provincial 63/12",0147,"Santa Fe","La Capital","Santa Fe","-31.635550000","-60.658983330"
669,"11900751","CS Barrio Fátima","Iguazú 1817","Puerto General San Martín","03476-429422",,"No","Municipal","Municipal/Comunal",0287,"Puerto General San Martín","San Lorenzo","Rosario","-32.70688","-60.74497"
903,"11201502","CS Barrio Fátima","Independencia y Calle 72","San Justo","03400-15515707","capsfatimasanjustosf@hotmail.com","No","Provincial","Dep. de SAMCo.",0259,"San Justo","San Justo","Santa Fe","-30.78751","-60.60707"
473,"02100784","CS Barrio Francucci","Calle 54 270","Frontera","03564 438853",,"No","Municipal","Dep. de SAMCo.",0035,"Frontera","Castellanos","Rafaela","-31.422667026284","-62.06016010099"
886,"04902035","CS Barrio Itatí","Calle 8 Entre Calle 3 y 5 Barrio Itatí","Las Toscas","03482 - 15446773","mrdeltin@hotmail.com","No","Municipal","Provincial- Decreto Nacional 939",0098,"Las Toscas","General Obligado","Reconquista","-28.36244","-59.25985"
29,"04900613","CS Barrio Itatí","RP 40 S y Calle 68","Reconquista","03482-15678546",,"No","Provincial","Provincial- Decreto Nacional 939",0112,"Reconquista","General Obligado","Reconquista","-29.15257","-59.67724"
228,"09100241","CS Barrio Juan XXIII","Bv. 25 de Mayo y Estanislao López","San Cristóbal",,,"No","Municipal","Dep. de SAMCo.",0231,"San Cristóbal","San Cristóbal","Rafaela","-30.31611","-61.24391"
4,"04900257","CS Barrio La Cortada","Constituyente y P. Diez","Reconquista","03482- 487168",,"No","Provincial","Provincial- Decreto Nacional 939",0112,"Reconquista","General Obligado","Reconquista","-29.14531","-59.63624"
30,"04900621","CS Barrio La Loma","Bo. Zulema Calle 105","Reconquista","03482-678502",,"No","Provincial","Provincial- Decreto Nacional 939",0112,"Reconquista","General Obligado","Reconquista","-29.18032","-59.66748"
667,"11900726","CS Barrio La Posta","13 de Marzo y Villaguay","Capitán Bermúdez","0341-4912751",,"No","Municipal","Municipal/Comunal",0266,"Capitán Bermúdez","San Lorenzo","Rosario","-32.81786","-60.71281"
603,"11900599","CS Barrio Las Quintas","Oroño s/n","San Lorenzo",,,"No","Municipal","Municipal/Comunal",0301,"San Lorenzo","San Lorenzo","Rosario","-32.72784","-60.76268"
595,"11900513","CS Barrio Leandro N Alem","9 de Julio 1243","San Lorenzo",,,"No","Municipal","Municipal/Comunal",0301,"San Lorenzo","San Lorenzo","Rosario","-32.737366000159","-60.740852552632"
605,"11900289","CS Barrio Los Pinos","Bermejo y Eva Perón","Carcarañá","0341-4943051","dptoinfo@arnet.com.ar","No","Municipal","Municipal/Comunal",0273,"Carcarañá","San Lorenzo","Rosario","-32.85028","-61.15748"
107,"06301792","CS Barrio Los Troncos","Troncoso 8183 Bº Los Troncos","Santa Fe","0342-4579292 ctx 9292",,"No","Provincial","Provincial- Decreto Nacional 939",0147,"Santa Fe","La Capital","Santa Fe","-31.581992956547","-60.744977856174"
1302,"03500557","CS Barrio Malabrigo","Los Andes y San Martín","Helvecia","03405/470164,centrex:6220",,"No","Provincial","Provincial- Decreto Nacional 939",2553,"Helvecia","Garay","Santa Fe","-31.09629","-60.08483"
664,"11900602","CS Barrio Mariano Moreno","Iriondo y 25 de Mayo","San Lorenzo",,,"No","Municipal","Municipal/Comunal",0301,"San Lorenzo","San Lorenzo","Rosario","-32.75402","-60.74128"
67,"06300206","CS Barrio Mendoza Oeste","Mendoza 4519","Santa Fe","0342-4573367 Centrex 3367","csmendozaoeste@santafe.gov.ar","No","Provincial","Provincial- Decreto Nacional 939",0147,"Santa Fe","La Capital","Santa Fe","-31.642796755966","-60.732153420907"
52,"05600401","CS Barrio Mercantil","Poleti 1299","Cañada De Gómez",,"centrosaludmercantil@yahoo.com.ar","No","Provincial","Provincial- Decreto Nacional 939",0126,"Cañada de Gómez","Iriondo","Rosario","-32.80847937755","-61.398076237776"
683,"02800441","CS Barrio Mitre","Colombia y Venezuela","Pavón",,,"No","Municipal","Municipal/Comunal",2490,"Pavón","Constitución","Rosario","-33.24234","-60.40559"
583,"08403643","CS Barrio Mortelari","Pasaje 4 y Alberdi","Villa Gobernador Gálvez","0341-4928802","josebartolucci@hotmail.com","No","Municipal","Municipal/Comunal",0217,"Villa Gobernador Gálvez","Rosario","Rosario","-33.03698","-60.62189"
677,"04201812","CS Barrio Nadal","Zona urbana","Firmat",,,"No","Municipal","Municipal/Comunal",0063,"Firmat","General López","Venado Tuerto","-33.4453","-61.49185"
1312,"07002430","CS Barrio Norte","Entre Ríos 1690","Pilar","03404 -471221","capsbnorte@hotmail.com","No","Provincial","Provincial- Decreto Nacional 939",3155,"Pilar","Las Colonias","Santa Fe","-31.43417","-61.25526"
19,"04900443","CS Barrio Norte","Olessio Nº 25","Reconquista",,,"No","Provincial","Provincial- Decreto Nacional 939",0112,"Reconquista","General Obligado","Reconquista","-29.136571938992","-59.648814038382"
592,"11900483","CS Barrio Norte San Francisco De Asís","C. Alvelo 3780","San Lorenzo","0341-155884789",,"No","Municipal","Municipal/Comunal",0301,"San Lorenzo","San Lorenzo","Rosario","-32.723652155416","-60.739081900654"
375,"09800226","CS Barrio Obrero","Calle 6 Nº 1680","Romang","3482-496009",,"No","Provincial","Dep. de SAMCo.",3715,"Romang","San Javier","Reconquista","-29.50697","-59.74235"
48,"05600281","CS Barrio Parque","Córdoba 23","Cañada De Gómez",,,"No","Provincial","Provincial- Decreto Nacional 939",0126,"Cañada de Gómez","Iriondo","Rosario","-32.818777675913","-61.410136091098"
407,"06309370","CS Barrio Parque","Crucero Belgrano y 12 de Octubre","Recreo","0342-154297725","capsbarrioparque@municipio-recreo.gov.ar","No","Municipal","Municipal/Comunal",0144,"Recreo","La Capital","Santa Fe","-31.528533333","-60.727016667"
235,"09100381","CS Barrio Pellegrini","Bv. Rivadavia 1850","San Cristóbal",,,"No","Municipal","Dep. de SAMCo.",0231,"San Cristóbal","San Cristóbal","Rafaela","-30.299748105203","-61.244686386654"
679,"06309383","CS Barrio Peyrano","B° Peirano s/n","Laguna Paiva",,,"No","Municipal","Municipal/Comunal",0140,"Laguna Paiva","La Capital","Santa Fe","-31.281383333","-60.650316667"
44,"02800476","CS Barrio Raviolo","Cabildo 92","Villa Constitución","Lamar/Samco Villa Constitucion","no","No","Provincial","SAMCo. Ley Provincial 63/12",0056,"Villa Constitución","Constitución","Rosario","-33.23041642784","-60.350883602144"
297,"11200163","CS Barrio Reyes","9 de Julio 2518","San Justo","03498-15460745",,"No","Provincial","Dep. de SAMCo.",0259,"San Justo","San Justo","Santa Fe","-30.788588786524","-60.592713856981"
420,"04201413","CS Barrio Rivadavia","26 de Abril","Venado Tuerto","03462-423743",,"No","Municipal","Municipal/Comunal",0077,"Venado Tuerto","General López","Venado Tuerto","-33.748361","-61.985472"
255,"09800129","CS Barrio San Antonio","Vicente Zaspe s/n","San Javier","03405-427040/15619039",,"No","Provincial","Provincial- Decreto Nacional 939",0238,"San Javier","San Javier","Santa Fe","-30.57102","-59.93132"
245,"09100534","CS Barrio San José","Los Lapachos s/n","San Cristóbal",,,"No","Municipal","Dep. de SAMCo.",0231,"San Cristóbal","San Cristóbal","Rafaela","-30.31381","-61.22363"
377,"02101276","CS Barrio San Roque","Calle 94 575","Frontera","03564- 311005 centrex 7645","csanroquefrontera@hotmail.com","No","Provincial","Dep. de SAMCo.",0035,"Frontera","Castellanos","Rafaela","-31.456519201551","-62.048688193571"
898,"04902234","CS Barrio Sur","Chacabuco y J. Bautista Alberdi","Villa Ocampo","03482-469725","capsbarriosur@vocampo.com.ar","No","Provincial","Dep. de SAMCo.",0119,"Villa Ocampo","General Obligado","Reconquista","-28.49525","-59.35177"
91,"06301482","CS Barrio Talleres","Bv. Mitre 3156","Laguna Paiva",,,"No","Provincial","Dep. de SAMCo.",0140,"Laguna Paiva","La Capital","Santa Fe","-31.294250000","-60.654883333"
179,"08401701","CS Barrio Talleres","Sáenz Peña 452","Villa Gobernador Gálvez","0341-4983412",,"No","Provincial","Provincial- Decreto Nacional 939",0217,"Villa Gobernador Gálvez","Rosario","Rosario","-33.017667","-60.612639"
647,"08404364","CS Barrio Toba","Mario Antonio Cisneros 6055","Rosario","0341/4805620",,"No","Municipal","Municipal/Comunal",0210,"Rosario","Rosario","Rosario","-32.98001","-60.70127"
572,"02800409","CS Barrio Troilo","Bo. Troilo","Villa Constitución","03461-15354697","marianamigliavaca@hotmail.com","No","Municipal","Municipal/Comunal",0056,"Villa Constitución","Constitución","Rosario","-33.24589","-60.3267"
148,"07000613","CS Barrio Unidos","Perú 709","Esperanza","03496-428610 centrex 4370",,"No","Provincial","Dep. de SAMCo.",0161,"Esperanza","Las Colonias","Santa Fe","-31.452341249113","-60.904691502125"
96,"06301628","CS Barrio Villa Hipódromo","Blas Parera 5110","Santa Fe","0342 - 4579279 ctx 9279","capshipodromo@yahoo.com.ar","No","Provincial","Provincial- Decreto Nacional 939",0147,"Santa Fe","La Capital","Santa Fe","-31.616861010288","-60.717817478091"
463,"02100601","CS Barrio Villani","Calle 100 7","Frontera","03564 311001",,"No","Municipal","Dep. de SAMCo.",0035,"Frontera","Castellanos","Rafaela","-31.440485297532","-62.069079055912"
398,"04900761","CS Barrio Virgen De Guadalupe","M 10 B° Guadalupe","Reconquista","03482-15551426",,"No","Provincial","Provincial- Decreto Nacional 939",0112,"Reconquista","General Obligado","Reconquista","-29.16134","-59.67913"
82,"06300532","CS Barrio Yapeyu","Av. 12 de Octubre 9711","Santa Fe","0342-4579138","capsyapeyu@hotmail.com","No","Provincial","Provincial- Decreto Nacional 939",0147,"Santa Fe","La Capital","Santa Fe","-31.567342141014","-60.73902700813"
22,"04900532","CS Barros Pazos","Zona rural","Barros Pazos","03482-15614256",,"No","Provincial","Provincial- Decreto Nacional 939",0112,"Reconquista","General Obligado","Reconquista","-29.18951","-59.73052"
597,"11900530","CS Bartolomé Mitre","Carugatti y Rivadavia","San Lorenzo","03476-432916",,"No","Municipal","Municipal/Comunal",0301,"San Lorenzo","San Lorenzo","Rosario","-32.74855","-60.75437"
465,"02100695","CS Bauer Y Sigel","Santa Fe s/n","Bauer Y Sigel","03492/489084 (Com.)",,"No","Provincial","Provincial- Decreto Nacional 939",2133,"Bauer y Sigel","Castellanos","Rafaela","-31.2715","-61.94344"
670,"11900769","CS Beaudrix","Brown y Gálvez","Roldán","0341-4962888","gaby_acquaroli@hotmail.com","No","Municipal","Municipal/Comunal",0294,"Roldán","San Lorenzo","Rosario","-32.8936","-60.90715"
691,"00700661","CS Belgrano","Calle 25 y Pasaje 2","Las Parejas",,,"No","Municipal","Municipal/Comunal",0014,"Las Parejas","Belgrano","Rosario","-32.68111","-61.53224"
464,"02100687","CS Bella Italia","Santa Fe 31","Bella Italia","03492-497009-497077-497740","comunadebellaitalia@arnet.com.ar","No","Municipal","Municipal/Comunal",2140,"Bella Italia","Castellanos","Rafaela","-31.28294","-61.40986"
11,"04900354","CS Berna","11 de Noviembre s/n","Berna","03482-15551536","gastonmendoza87@hotmail.com","No","Provincial","Provincial- Decreto Nacional 939",2770,"Berna","General Obligado","Reconquista","-29.27327","-59.84589"
155,"07700038","CS Bety Griselda Flores","Manuel Díaz y Adolfo Medina","Gato Colorado",,"panchomingo07@yahoo.com.ar","No","Municipal","SAMCo. Ley Provincial 63/12",3288,"Gato Colorado","9 De Julio","Rafaela","-28.02275","-61.18754"
260,"09800170","CS Bo. El Triangulo Dr. Mario Baroni","Bo. El triangulo","San Javier","0342-154064661",,"No","Provincial","Provincial- Decreto Nacional 939",0238,"San Javier","San Javier","Santa Fe","-30.57463","-59.92452"
600,"11900564","CS Bouchard Luis Leloir","Gurel 850","San Lorenzo",,,"No","Municipal","Municipal/Comunal",0301,"San Lorenzo","San Lorenzo","Rosario","-32.775859048798","-60.731123918611"
369,"02800433","CS Brisas Del Paraná","Barrio Unión","Villa Constitución","03461-15354693",,"No","Municipal","Dep. de SAMCo.",0056,"Villa Constitución","Constitución","Rosario","-33.23377","-60.31472"
1257,"06309811","CS Cabal","Zona urbana","Cabal","03498-15444831 (medico)","juanfernandovossler@gmail.com","No","Provincial","Provincial- Decreto Nacional 939",2966,"Cabal","La Capital","Santa Fe","-31.098833333","-60.747100000"
106,"06301784","CS Cabaña Leiva","E. J. Rosas 10300 Esq. P. Espinoza 5800","Santa Fe","0342-4579219 centrex 9219",,"No","Provincial","Provincial- Decreto Nacional 939",0147,"Santa Fe","La Capital","Santa Fe","-31.564764967795","-60.725800519325"
248,"09800021","CS Cacique Aracaiquin","Cacique Ariacaiquin (zona rural)","Cacique Ariacaiquín","0342-154064661",,"No","Provincial","Dep. de SAMCo.",3694,"Cacique Ariacaiquín","San Javier","Santa Fe","-30.65572","-60.2301"
542,"04200514","CS Cafferata","Belgrano 834","Cafferata",,,"No","Provincial","Provincial- Decreto Nacional 939",2588,"Cafferata","General López","Venado Tuerto","-33.43912","-62.08516"
56,"06300036","CS Campo Andino","Julio B Orono s/n","Campo Andino","03497/494751 centrex 7871",,"No","Provincial","Provincial- Decreto Nacional 939",2973,"Campo Andino","La Capital","Santa Fe","-31.239366667","-60.530116667"
511,"03500051","CS Campo Del Medio","Campo del Medio","Campo Del Medio","03405-470154(casa)",,"No","Provincial","Dep. de SAMCo.",2553,"Helvecia","Garay","Santa Fe","-31.15497","-60.13863"
14,"04900389","CS Campo Hardy","RN 11 s/n","Campo Hardy","03482/499125 ctx 6459",,"No","Municipal","SAMCo. Ley Provincial 63/12",2798,"Florencia","General Obligado","Reconquista","-28.14556","-59.26142"
80,"06300516","CS Candioti","Belgrano s/n","Candioti",,,"No","Provincial","Provincial- Decreto Nacional 939",2980,"Candioti","La Capital","Santa Fe","-31.401916667","-60.748933333"
546,"04201022","CS Cañada De Ucle","Rivadavia 891","Cañada Del Ucle","03465/4923932",,"No","Municipal","SAMCo. Ley Provincial 63/12",2595,"Cañada del Ucle","General López","Venado Tuerto","-33.40842","-61.61126"
351,"13300190","CS Cañada Ombú","Zona urbana","Cañada Ombú","03482-490720",,"No","Provincial","Provincial- Decreto Nacional 939",4142,"Cañada Ombú","Vera","Reconquista","-28.30881","-59.98123"
490,"02800034","CS Cañada Rica","R. Guiraldes 78","Cañada Rica","03460/499121","samcocdarica@hotmail.com","No","Municipal","SAMCo. Ley Provincial 63/12",2427,"Cañada Rica","Constitución","Rosario","-33.51716","-60.61232"
99,"06301709","CS Capilla San José","San José 7040","Santa Fe","0342/4579220- centrex: 9220",,"No","Provincial","Provincial- Decreto Nacional 939",0147,"Santa Fe","La Capital","Santa Fe","-31.599863420371","-60.709522318898"
239,"09100461","CS Capivara","RP 13 S","Capivara","03408-429977-Cabina publica",,"No","Provincial","SAMCo. Ley Provincial 63/12",3498,"Capivara","San Cristóbal","Rafaela","-30.46079595707","-61.273991249316"
547,"04201057","CS Carlos Casado","San Juan 971","Firmat","03465-425488",,"No","Provincial","Dep. de SAMCo.",0063,"Firmat","General López","Venado Tuerto","-33.45919","-61.48162"
516,"04200026","CS Carmen","San Martín 350","Carmen","03462/493012, centrex: 6299","samcocarmen@hotmail.com","No","Municipal","SAMCo. Ley Provincial 63/12",2602,"Carmen","General López","Venado Tuerto","-33.73281","-61.75829"
517,"04200034","CS Carreras","Aldao 246","Carreras","03465/490305","samco_carreras@hotmail.com","No","Municipal","SAMCo. Ley Provincial 63/12",2609,"Carreras","General López","Venado Tuerto","-33.59724","-61.30992"
36,"05600044","CS Carrizales","Centenario 503","Carrizales (Est. Clarke)","03476/497145","samcocarrizales@hotmail.com","No","Provincial","SAMCo. Ley Provincial 63/12",2889,"Carrizales (Est. Clarke)","Iriondo","Rosario","-32.50848","-61.02783"
281,"10500414","CS Casalegno","Zona urbana","Casalegno","03466/490001",,"No","Municipal","SAMCo. Ley Provincial 63/12",3750,"Casalegno","San Jerónimo","Santa Fe","-32.26262","-61.12535"
611,"08401671","CS Casiano Casas","Casiano Casas 970","Rosario","0341-4806631",,"No","Municipal","Municipal/Comunal",0210,"Rosario","Rosario","Rosario","-32.905972","-60.697278"
672,"11900742","CS Catalina Salomón","Sarmiento 1142","Puerto General San Martín","03476-429622",,"No","Municipal","Municipal/Comunal",0287,"Puerto General San Martín","San Lorenzo","Rosario","-32.7136","-60.73809"
379,"07000761","CS Cavour","9 de Julio s/n","Cavour","03496-495024","comunadecavour@yahoo.com.ar","No","Provincial","Provincial- Decreto Nacional 939",3036,"Cavour","Las Colonias","Santa Fe","-31.36534","-61.01633"
285,"11200015","CS Cayastacito","Zona urbana","Cayastacito","03497-486071 Centrex8651",,"No","Municipal","SAMCo. Ley Provincial 63/12",3869,"Cayastacito","San Justo","Santa Fe","-31.11249","-60.57926"
135,"07000451","CS Ceferino Namuncurá","Santiago del Estero 216 B Los Troncos","Esperanza","03496-422729",,"No","Provincial","Dep. de SAMCo.",0161,"Esperanza","Las Colonias","Santa Fe","-31.459858338025","-60.935772812827"
619,"08404291","CS Ceferino Namuncurá","José Ingenieros 8590","Rosario","0341-4807842",,"No","Municipal","Municipal/Comunal",0210,"Rosario","Rosario","Rosario","-32.918083333333","-60.748833333333"
32,"04900656","CS Ceferino Vicentin","Calle 305 85","Avellaneda",,,"No","Provincial","Dep. de SAMCo.",0091,"Avellaneda","General Obligado","Reconquista","-29.108685771812","-59.662521472457"
404,"06301296","CS Centenario","Rivadavia 1190","Sauce Viejo","0342-4950065","centrodesaludcentenario@hotmail.com.ar","No","Municipal","Municipal/Comunal",3029,"Sauce Viejo","La Capital","Santa Fe","-31.771583333","-60.837033333"
265,"10500058","CS Centeno","Bv. Fdo. Centeno 1124","Centeno","03401/498733","samcocenteno@hotmail.com","No","Municipal","SAMCo. Ley Provincial 63/12",3757,"Centeno","San Jerónimo","Rosario","-32.296","-61.4085"
491,"02800042","CS Cepeda","C. Colazo 185","Cepeda","03460/491195","comuna_cepeda@hotmail.com","No","Municipal","SAMCo. Ley Provincial 63/12",2434,"Cepeda","Constitución","Rosario","-33.39679","-60.62438"
518,"04200042","CS Chapuy","Av. La Plata 226","Chapuy","03462/494023, centrex: 6300",,"No","Municipal","SAMCo. Ley Provincial 63/12",2616,"Chapuy","General López","Venado Tuerto","-33.79746","-61.74548"
545,"04200751","CS Christophersen","Calle B s/n","Christophersen","03462/485001, centrex: 6297",,"No","Municipal","Dep. de SAMCo.",2630,"Christophersen","General López","Venado Tuerto","-34.18488","-62.02548"
109,"04201421","CS Ciudad Nueva","Amincton 535","Venado Tuerto",,,"No","Municipal","Municipal/Comunal",0077,"Venado Tuerto","General López","Venado Tuerto","-33.737883852475","-61.946408223138"
37,"05600052","CS Clason","25 de Diciembre s/n","Classon","03471/499036","comunaclason@arnet.com.ar","No","Municipal","SAMCo. Ley Provincial 63/12",2896,"Classon","Iriondo","Rosario","-32.46069","-61.29127"
686,"04201561","CS Club Belgrano","B. Bianco 10","Rufino",,,"No","Municipal","Municipal/Comunal",0070,"Rufino","General López","Venado Tuerto","-34.25861","-62.71302"
57,"06300044","CS Colastiné","Las Guindas 6800 Km. 3 Ruta Prov 1","Colastiné","0342-4574927, centrex: 4927","centrocomunitatio@live.com.ar","No","Provincial","Provincial- Decreto Nacional 939",0063,"Firmat","La Capital","Santa Fe","-31.623566667","-60.603100000"
674,"06301440","CS Colastiné Sur","Colastiné Sur s/n - En la Parroquia","Colastiné",,,"No","Provincial","Provincial- Decreto Nacional 939",0063,"Firmat","La Capital","Santa Fe","-31.663600000","-60.605800000"
356,"13300238","CS Colmena","Zona urbana","Colmena","03482-490303",,"No","Provincial","Provincial- Decreto Nacional 939",4170,"Intiyaco","Vera","Reconquista","-28.75969","-60.09346"
256,"09800137","CS Colonia  Yatai","Zona rural","Colonia Yatay"," Minuti Brenda 03405-15455931",,"No","Provincial","Dep. de SAMCo.",0238,"San Javier","San Javier","Santa Fe","-30.20805","-59.94625"
467,"02100717","CS Colonia Aldao","Moreno 280","Colonia Aldao"," 03493-497325",,"No","Provincial","Provincial- Decreto Nacional 939",2147,"Colonia Aldao","Castellanos","Rafaela","-30.98016","-61.74383"
393,"02101306","CS Colonia Bicha","Corrientes s/n","Colonia Bicha","03493-492710","comunabicha@cooptacural.com.ar","No","Provincial","Provincial- Decreto Nacional 939",2154,"Colonia Bicha","Castellanos","Rafaela","-30.85426","-61.84951"
370,"09100631","CS Colonia Bossi","Zona urbana","Colonia Bossi"," 03409-420480- Comuna",,"No","Provincial","Provincial- Decreto Nacional 939",3512,"Colonia Bossi","San Cristóbal","Rafaela","-30.66738","-61.78846"
296,"11200155","CS Colonia Dolores","Zona rural","Colonia Dolores",,,"No","Provincial","Provincial- Decreto Nacional 939",3876,"Colonia Dolores","San Justo","Santa Fe","-30.3811","-60.32978"
252,"09800081","CS Colonia Duran","Zona rural","Colonia Durán",,,"No","Provincial","Provincial- Decreto Nacional 939",3701,"Colonia Durán","San Javier","Reconquista","-29.56101","-59.92733"
890,"11200686","CS Colonia Esther","Zona rural","Colonia Esther","03498-15444831 (medico)","juanfernandovossler@gmail.com","No","Provincial","Provincial- Decreto Nacional 939",3883,"Colonia Esther","San Justo","Santa Fe","-31.04097","-60.64395"
374,"09800099","CS Colonia Francesa","Zona rural","Colonia Francesa","03405-15619039",,"No","Provincial","Dep. de SAMCo.",0238,"San Javier","San Javier","Santa Fe","-30.65103","-59.96852"
258,"09800153","CS Colonia La Criolla","Zona rural","La Criolla","03405-15480282",,"No","Provincial","Provincial- Decreto Nacional 939",0238,"San Javier","San Javier","Santa Fe","-30.22545","-60.36127"
469,"02100741","CS Colonia Margarita","San Martín 265","Colonia Margarita"," 03492-495308",,"No","Provincial","Provincial- Decreto Nacional 939",2189,"Colonia Margarita","Castellanos","Rafaela","-31.6866","-61.64743"
512,"03500069","CS Colonia Norte","Zona rural","Helvecia","03405-470160",,"No","Provincial","Provincial- Decreto Nacional 939",2553,"Helvecia","Garay","Santa Fe","-31.05656","-60.09043"
678,"07000893","CS Colonia Nueva","Sgo. Copes s/n","Humboldt",,,"No","Municipal","Municipal/Comunal",3099,"Humboldt","Las Colonias","Santa Fe","-31.36157","-61.14486"
229,"09100313","CS Colonia Rosa","Juan Geordano entre Sta. Fe y Centenario","Colonia Rosa","03562/465066","no tienen","No","Municipal","SAMCo. Ley Provincial 63/12",3519,"Colonia Rosa","San Cristóbal","Rafaela","-30.30036","-61.9816"
262,"03500196","CS Colonia San Joaquín","Zona rural","Colonia San Joaquín","03405/424525Samco Masias",,"No","Provincial","Provincial- Decreto Nacional 939",2546,"Colonia Mascías","Garay","Santa Fe","-30.75477","-59.99754"
298,"11200252","CS Colonia Silva","Zona urbana","Colonia Silva","03498/480591","samcosilva@outlook.com","No","Provincial","SAMCo. Ley Provincial 63/12",3960,"Silva","San Justo","Santa Fe","-30.44769","-60.42961"
253,"09800102","CS Colonia Teresa","Zona rural","Colonia Teresa","Enferm ( 03405-15430202)",,"No","Provincial","Dep. de SAMCo.",0000,"Colonia Teresa","San Javier","Santa Fe","-30.25294","-59.96969"
587,"08403694","CS Comunal De Piñero","Sara Pacheco y 9 de Julio","Piñero (Est. Erasto)","03402-461151","comunadepiniero@arnet.com.ar","No","Municipal","Municipal/Comunal",3421,"Piñero (Est. Erasto)","Rosario","Rosario","-33.10835","-60.79531"
843,"08418240","CS Comunitario Oeste David Estafieri","Av. Perón 4540 - Barrio Bella Vista","Rosario","(0341) 480-5647",,"No","Provincial","Provincial- Decreto Nacional 939",0210,"Rosario","Rosario","Rosario","-32.958277777778","-60.690388888889"
240,"09100470","CS Constanza","Zona urbana","Constanza","03409/420208",,"No","Municipal","SAMCo. Ley Provincial 63/12",3526,"Constanza","San Cristóbal","Rafaela","-30.66233","-61.32259"
76,"06300460","CS Constituyentes (Ex Villa Laura)","Calle 6 s/n","Villa Laura (Est. Constituyentes)","0342 4579087","constituyentes9087@yahoo.com","No","Provincial","Provincial- Decreto Nacional 939",2952,"Arroyo Aguiar","La Capital","Santa Fe","-31.371600000","-60.662650000"
396,"02100989","CS Consultorio Periférico Móvil",,"Rafaela",,,"No","Municipal","Municipal/Comunal",0042,"Rafaela","Castellanos","Rafaela","-31.24825","-61.51885"
185,"08402430","CS Coronel Domínguez","Coronel Domínguez 370","Coronel Domínguez","03402/493138","dominguezsalud@hotmail.com","No","Provincial","Provincial- Decreto Nacional 939",3470,"Coronel Domínguez","Rosario","Rosario","-33.18448","-60.72137"
39,"05600095","CS Correa","Rivadavia 1366","Correa","03471/492251 centrex 6395","samcocorrea@hotmail.com","No","Municipal","SAMCo. Ley Provincial 63/12",2903,"Correa","Iriondo","Rosario","-32.85015515004","-61.255500702818"
676,"08405244","CS Costa Paraná","Costa Río Paraná","Fighiera","03402/470746","comunadefighiera@connet.com.ar","No","Municipal","Municipal/Comunal",3400,"Fighiera","Rosario","Rosario","-33.17257","-60.43975"
70,"06300249","CS Cristo Obrero Villa Del Parque","Padre Catena 4389- V. Parque","Santa Fe","0342/4574894, centrex: 4894","csvilladelparque@santafe.gov.ar","No","Provincial","Provincial- Decreto Nacional 939",0147,"Santa Fe","La Capital","Santa Fe","-31.631776473726","-60.722590586927"
151,"07000826","CS Cululú","Zona urbana","Cululú",,,"No","Provincial","Dep. de SAMCo.",3050,"Cululú","Las Colonias","Santa Fe","-31.20544","-60.93025"
832,"08417511","CS Débora Ferrandini","Provincias Unidas bis 151","Rosario","0341-4807680 (int) 377",,"No","Municipal","Municipal/Comunal",0210,"Rosario","Rosario","Rosario","-32.929916666667","-60.713027777778"
113,"06301890","CS Demetrio Gómez","Manzana 13 Alto Verde","Santa Fe","0342-4571942 ctx 1942",,"No","Provincial","Provincial- Decreto Nacional 939",0147,"Santa Fe","La Capital","Santa Fe","-31.66745","-60.69959"
278,"10500244","CS Desvió Arijón","Avda. José Arijón s/n","Desvío Arijón","0342-4910565","samcodesvioarijon@hotmail.com.ar","No","Municipal","SAMCo. Ley Provincial 63/12",3764,"Desvío Arijón","San Jerónimo","Santa Fe","-31.83226","-60.8734"
520,"04200069","CS Diego De Alvear","Mendiluce y España","Diego De Alvear","03382/493256",,"No","Municipal","SAMCo. Ley Provincial 63/12",2637,"Diego de Alvear","General López","Venado Tuerto","-34.37049","-62.12895"
609,"11900459","CS Don Segundo Pillado","General Paz 258","Capitán Bermúdez","0341-4913996",,"No","Municipal","Municipal/Comunal",0266,"Capitán Bermúdez","San Lorenzo","Rosario","-32.831969927256","-60.716822796694"
95,"06301521","CS Doña Margarita Barrio Areneras","Pje. Bouchard 1055","Sauce Viejo","0342-155119974","csmargarita@hotmail.com.ar","No","Municipal","Municipal/Comunal",3029,"Sauce Viejo","La Capital","Santa Fe","-31.743800000","-60.818416667"
731,"08408203","CS Dr. Abel E. Faust","Maipú 767","Funes","0341-4936555",,"No","Municipal","Municipal/Comunal",0189,"Funes","Rosario","Rosario","-32.91367","-60.79794"
574,"08400071","CS Dr. Bernardo Houssay","Sarmiento y Angelone","Funes","0341-4936010","funesalud@yahoo.com","No","Municipal","Municipal/Comunal",0189,"Funes","Rosario","Rosario","-32.91888","-60.8116"
480,"02100890","CS Dr. Carlos Franzini","25 de Mayo 603","Tacural","03493-492452","centrosaludtacural@gmail.com","No","Provincial","Provincial- Decreto Nacional 939",2371,"Tacural","Castellanos","Rafaela","-30.84474","-61.59133"
551,"04201341","CS Dr. Domingo Cera","Domingo Cera 1220","Firmat","03465-421899",,"No","Provincial","Dep. de SAMCo.",0063,"Firmat","General López","Venado Tuerto","-33.47283","-61.48805"
470,"02100750","CS Dr. Domingo Preiti","9 de Julio s/n","Egusquiza","03492- 484510",,"No","Municipal","SAMCo. Ley Provincial 63/12",2210,"Egusquiza","Castellanos","Rafaela","-31.09594","-61.6288"
307,"11900084","CS Dr. Eduardo Gerbaix","Lucia Miranda 335","Timbúes","03476/495057 centex 6413","comunatimbues@gmail.com","No","Provincial","SAMCo. Ley Provincial 63/12",4030,"Timbúes","San Lorenzo","Rosario","-32.66615","-60.79536"
566,"08414176","CS Dr. Ernesto Che Guevara","Calle 1709 (27 de feb. y Circunvalación)","Rosario","0341-4727507",,"No","Provincial","Provincial- Decreto Nacional 939",0210,"Rosario","Rosario","Rosario","-32.96092","-60.72161"
576,"08404577","CS Dr. Esteban Laureano Maradona","Maiztegui 2498","Funes","0341-4936012",,"No","Municipal","Municipal/Comunal",0189,"Funes","Rosario","Rosario","-32.91905","-60.86188"
1256,"11902528","CS Dr. Esteban Laureano Maradona","San Martín y Eva Perón","San Lorenzo",,,"No","Municipal","Municipal/Comunal",0301,"San Lorenzo","San Lorenzo","Rosario","-32.7272","-60.73272"
136,"07000460","CS Dr. Esteban Maradona","Simón Iriondo 5888","Esperanza","03496-422574 centrex 4254",,"No","Provincial","Dep. de SAMCo.",0161,"Esperanza","Las Colonias","Santa Fe","-31.417244718872","-60.920520771944"
631,"08404275","CS Dr. Esteban Maradona","Cochabamba 5103","Rosario","0341/4807847",,"No","Municipal","Municipal/Comunal",0210,"Rosario","Rosario","Rosario","-32.949277777778","-60.693388888889"
894,"12601277","CS Dr. Fernando O Degano","Córdoba 1002","El Trébol",,,"No","Municipal","Municipal/Comunal",0308,"El Trébol","San Martín","Rosario","-32.20661","-61.70055"
1304,"09101873","CS Dr. Isaac Warchavsky","Centenario s/n Bo. Pueblo Nuevo","San Guillermo","03562-468185",,"No","Provincial","Provincial- Decreto Nacional 939",3645,"San Guillermo","San Cristóbal","Santa Fe","-30.35329","-61.89633"
6,"04900290","CS Dr. Jorge Caniza","Calle Nº 5 al lado de la Comisaria","Tacuarendí","03482/492311","capstacuarendi@hotmail.com","No","Provincial","Provincial- Decreto Nacional 939",2861,"Tacuarendí","General Obligado","Reconquista","-28.41351","-59.25939"
519,"04200051","CS Dr. Jorge Semorile","San Martín 560","Chovet","03465/493710 Ctrex 8610","centrodesaludchovet@hotmail.com","No","Municipal","SAMCo. Ley Provincial 63/12",2623,"Chovet","General López","Venado Tuerto","-33.59969","-61.60734"
395,"02101411","CS Dr. José Costa","Aarón Castellanos 204","Coronel Fraga","03492-481088","adrianamagnoli@yahoo.com.ar","No","Provincial","SAMCo. Ley Provincial 63/12",2203,"Coronel Fraga","Castellanos","Rafaela","-31.1744","-61.9177"
152,"07000842","CS Dr. Orlando Alassia","Av. Centenario s/n","Elisa","03498-499430","centrosalud_elisa@hotmail.com","No","Provincial","Provincial- Decreto Nacional 939",3057,"Elisa","Las Colonias","Santa Fe","-30.69462","-61.05038"
269,"10500112","CS Dr. Raúl Renedo","San Jerónimo 566","Bernardo De Irigoyen (Est. Irigoyen)","03466/494125,centrex:6349","samcobernardo@cosmol.com.ar","No","Municipal","SAMCo. Ley Provincial 63/12",3736,"Bernardo de Irigoyen (Est. Irigoyen)","San Jerónimo","Santa Fe","-32.16953","-61.15769"
441,"01400148","CS Dr. René Favaloro","RP 33 S Nº 458","Villada","03465/491072, centrex: 6325",,"No","Municipal","SAMCo. Ley Provincial 63/12",2105,"Villada","Caseros","Venado Tuerto","-33.34934","-61.44486"
577,"08400364","CS Dr. Roque Pérez","Rivadavia 1135","Pérez","0341/4951209",,"No","Municipal","Municipal/Comunal",0203,"Pérez","Rosario","Rosario","-32.99787","-60.76854"
817,"08405131","CS Dr. Salvador Mazza","Grandoli Floduardo 3498","Rosario","0341-4806636","c.s.salvadormazza@gmail.com","No","Municipal","Municipal/Comunal",0210,"Rosario","Rosario","Rosario","-32.887138888889","-60.734166666667"
615,"08403231","CS Dr. Víctor Cue","Juan José Paso 2490","Rosario","0341/4388990",,"No","Municipal","Municipal/Comunal",0210,"Rosario","Rosario","Rosario","-32.919805555556","-60.699194444444"
416,"04201219","CS Dr. Vidalle","Sarmiento 802","Murphy","03462 - 441977","centrovidalle_murphy@yahoo.com.ar","No","Municipal","Municipal/Comunal",2707,"Murphy","General López","Venado Tuerto","-33.63816","-61.85204"
621,"08402014","CS Dr. David Staffieri","Presidente Perón 4540","Rosario","0341/4805647",,"No","Municipal","Municipal/Comunal",0210,"Rosario","Rosario","Rosario","-32.958277777778","-60.690388888889"
552,"04201359","CS Dr. Julio Maiztegui","Solís y 1º de Mayo","Firmat",,,"No","Provincial","Dep. de SAMCo.",0063,"Firmat","General López","Venado Tuerto","-33.4683","-61.48535"
529,"04200221","CS Dra. Carmen Castilla Murphy","Córdoba 211","Murphy","03462/441972- 441254","samcomurphy@enredes.com.ar","No","Municipal","SAMCo. Ley Provincial 63/12",2707,"Murphy","General López","Venado Tuerto","-33.64636","-61.85996"
89,"06301466","CS Dra. Griselda Merati","J. B. Justo y Las Heras","Laguna Paiva",,,"No","Provincial","Dep. de SAMCo.",0140,"Laguna Paiva","La Capital","Santa Fe","-31.301683333","-60.671500000"
17,"04900427","CS El Araza","Adolfo Díaz y Valentín Niemig","El Arazá",,,"No","Provincial","Provincial- Decreto Nacional 939",2777,"El Arazá","General Obligado","Reconquista","-29.13292","-59.94775"
705,"04901792","CS El Carmen","RP 31 S Km 37","Avellaneda","03482-1564244",,"No","Municipal","Provincial- Decreto Nacional 939",0091,"Avellaneda","General Obligado","Reconquista","-28.79705","-59.69138"
651,"08404321","CS El Gaucho","Nicolás Avellaneda 5625","Rosario","0341-4809779","anibalfc@hotmail.com","No","Municipal","Municipal/Comunal",0210,"Rosario","Rosario","Rosario","-33.00347","-60.6888"
246,"09100551","CS El Lucero","Zona Suburbana","El Lucero",,,"No","Provincial","Provincial- Decreto Nacional 939",0231,"San Cristóbal","San Cristóbal","Rafaela","-29.90534","-60.84347"
648,"08404356","CS El Mangrullo","El Mangrullo 5150","Rosario","0341-4809773",,"No","Municipal","Municipal/Comunal",0210,"Rosario","Rosario","Rosario","-32.998916666667","-60.615111111111"
153,"07700011","CS El Nochero","Santa Fe s/n","Gregoria Pérez De Denis (Est. El Nochero)",,,"No","Municipal","SAMCo. Ley Provincial 63/12",3295,"Gregoria Pérez de Denis (Est. El Nochero)","9 De Julio","Rafaela","-28.22839","-61.52503"
557,"04900133","CS El Rabón","RN 11 Km 905","El Rabón","(03482) 451003","capselrabon@hotmail.com","No","Provincial","Provincial- Decreto Nacional 939",2784,"El Rabón","General Obligado","Reconquista","-28.22738","-59.26346"
558,"04900141","CS El Sombrerito","Zona urbana","El Sombrerito",,"caps_elsombrerito@hotmail.com","No","Provincial","Provincial- Decreto Nacional 939",2791,"El Sombrerito","General Obligado","Reconquista","-28.65579","-59.42753"
15,"04900397","CS El Yaguareté","RN 11 - Km 899","Yaguareté",,,"No","Provincial","Provincial- Decreto Nacional 939",0098,"Las Toscas","General Obligado","Reconquista","-28.35","-59.2833"
639,"08403347","CS Elena Bazet (Ex San Fco Solano)","Madre Cabrini 2717","Rosario","0341-4809197",,"No","Municipal","Municipal/Comunal",0210,"Rosario","Rosario","Rosario","-33.00573","-60.67139"
625,"08403274","CS Emaus","Urdinarrain 7900","Rosario","0341/4807804",,"No","Municipal","Municipal/Comunal",0210,"Rosario","Rosario","Rosario","-32.917027777778","-60.73275"
114,"06301971","CS Emaus","Zavalía 342","Santa Fe","(0342) 4572524 ctx 2524",,"No","Provincial","Provincial- Decreto Nacional 939",0147,"Santa Fe","La Capital","Santa Fe","-31.668623646962","-60.726337141145"
60,"06300079","CS Emilia","Zona urbana","Emilia","03497-493033 ctx 1296",,"No","Municipal","Dep. de SAMCo.",2987,"Emilia","La Capital","Santa Fe","-31.056716667","-60.743916667"
391,"07000931","CS Empalme San Carlos","Zona urbana","Empalme San Carlos",,,"No","Provincial","Provincial- Decreto Nacional 939",3064,"Empalme San Carlos","Las Colonias","Santa Fe","-31.54764","-60.81302"
504,"02800280","CS Empalme Villa Constitución","Rivadavia 179","Empalme Villa Constitución","03400/493123","sabrinadiaz234@gmail.com","No","Provincial","SAMCo. Ley Provincial 63/12",2441,"Empalme Villa Constitución","Constitución","Rosario","-33.26123","-60.37901"
471,"02100768","CS Esmeralda","Avda. Centenario 387","Esmeralda","03492-498110","comunadeesmeralda@mmcdigital.com.ar","No","Provincial","Provincial- Decreto Nacional 939",2217,"Esmeralda","Castellanos","Rafaela","-31.61621","-61.93077"
358,"13300262","CS Espin","a 15Km. de Hosp. Vera por Ruta 11","Espin",,,"No","Provincial","Provincial- Decreto Nacional 939",0336,"Vera","Vera","Reconquista","-29.53885","-60.22197"
472,"02100776","CS Estación Clucellas","Presidente Perón s/n entre Paraná y 9 de Julio","Estación Clucellas","03492/495374",,"No","Municipal","SAMCo. Ley Provincial 63/12",2224,"Estación Clucellas","Castellanos","Rafaela","-31.52413","-61.71778"
101,"06301725","CS Estanislao López","Piedrabuena 6066","Santa Fe","0342-4579288 centrex 9288",,"No","Provincial","Provincial- Decreto Nacional 939",0147,"Santa Fe","La Capital","Santa Fe","-31.577308394353","-60.73444456484"
154,"07700020","CS Esteban Rams","John Kennedy s/n","Esteban Rams",,,"No","Municipal","SAMCo. Ley Provincial 63/12",3281,"Esteban Rams","9 De Julio","Rafaela","-29.77106","-61.48883"
458,"02100547","CS Eusebia Dr. Saúl Gómez","Sáenz Peña 238","Eusebia","03493/493430 (Comuna.)","samcoeusebia@hotmail.com.ar","No","Municipal","SAMCo. Ley Provincial 63/12",2231,"Eusebia","Castellanos","Rafaela","-30.9477","-61.85576"
653,"08404305","CS Eva Duarte","Alfredo Rovillon 2095","Rosario","0341- 4807844",,"No","Municipal","Municipal/Comunal",0210,"Rosario","Rosario","Rosario","-32.953","-60.701722"
423,"06301831","CS Eva Duarte de Perón","Córdoba y Necochea Bo El Chaparral","Santo Tomé","0342 4753464",,"No","Municipal","Provincial- Decreto Nacional 939",0154,"Santo Tomé","La Capital","Santa Fe","-31.659133333","-60.766666667"
575,"08404569","CS Eva Perón","Arnoldo Calvo 2095","Funes","4936011",,"No","Municipal","Dep. de SAMCo.",0189,"Funes","Rosario","Rosario","-32.91001","-60.81463"
401,"10500481","CS Eva Perón","La Pampa s/n","Maciel",,,"No","Municipal","Municipal/Comunal",3820,"Maciel","San Jerónimo","Rosario","-32.45711","-60.89048"
570,"02800344","CS Eva Perón","J. J. Valle 735","Villa Constitución","03461-15354696",,"No","Municipal","Municipal/Comunal",0056,"Villa Constitución","Constitución","Rosario","-33.219673772198","-60.343582394668"
368,"10500457","CS Eva Perón","Sgto. Cabral y 9 de Julio 689","Gálvez","03404/431001","csevaperon@hotmail.com","No","Provincial","Dep. de SAMCo.",0252,"Gálvez","San Jerónimo","Santa Fe","-32.03137","-61.22953"
580,"08403401","CS Evita","Chubut 1512","Villa Gobernador Gálvez","0341-4928803",,"No","Municipal","Municipal/Comunal",0217,"Villa Gobernador Gálvez","Rosario","Rosario","-33.033861","-60.63175"
105,"06301768","CS Evita Barrio La Florida","R. S. Peña 2022","Santa Fe","4572525 ctx 2525",,"No","Provincial","Provincial- Decreto Nacional 939",0147,"Santa Fe","La Capital","Santa Fe","-31.648825050174","-60.726635663483"
363,"08401689","CS Fighiera","Moreno 1040","Fighiera","03402/470746","centrodesalud_fighiera@hotmail.com","No","Provincial","Provincial- Decreto Nacional 939",3400,"Fighiera","Rosario","Rosario","-33.19343","-60.47071"
23,"04900541","CS Flor De Oro","Flor de Oro","Flor De Oro",,,"No","Provincial","Provincial- Decreto Nacional 939",2826,"Lanteri","General Obligado","Reconquista","-28.92482","-59.6556"
102,"06301733","CS Fonavi Barrio Centenario","Libertad 3730- Frente a Mza. 12","Santa Fe","4572523 ctx 2523",,"No","Provincial","Provincial- Decreto Nacional 939",0147,"Santa Fe","La Capital","Santa Fe","-31.663442893574","-60.7262862841"
50,"05600303","CS Fonavi Barrio Estanislao López","Pasas 352 Bo Fonavi","Cañada De Gómez","03471-420060",,"No","Provincial","Provincial- Decreto Nacional 939",0126,"Cañada de Gómez","Iriondo","Rosario","-32.81966","-61.38038"
103,"06301741","CS Fonavi Barrio Las Flores II","Lamadrid 7689","Santa Fe","0342-4579278 ctx 9278",,"No","Provincial","Provincial- Decreto Nacional 939",0147,"Santa Fe","La Capital","Santa Fe","-31.592518852346","-60.712971643893"
417,"04201375","CS Fonavi Bº Malvinas Argentinas","Valdez 555","Venado Tuerto","03462/427747",,"No","Municipal","Municipal/Comunal",0077,"Venado Tuerto","General López","Venado Tuerto","-33.726944360429","-61.97811296254"
604,"11900629","CS Fonavi Sagrado Corazón","J. Ingenieros 1890 y F. García","San Lorenzo",,,"No","Municipal","Municipal/Comunal",0301,"San Lorenzo","San Lorenzo","Rosario","-32.739828516393","-60.747764748723"
348,"13300157","CS Fortín Charrúa","Fortín Charrúa","Fortin Charrua",,,"No","Provincial","Provincial- Decreto Nacional 939",4149,"Fortín Olmos","Vera","Reconquista","-29.12842","-60.9343"
316,"11900297","CS Fray Luis Beltrán","Presidente Perón 400","Fray Luis Beltrán","0341/4916581","accionsocial@frayluisbeltran.gov.ar","Si","Municipal","Municipal/Comunal",0280,"Fray Luis Beltrán","San Lorenzo","Rosario","-32.79419","-60.72931"
455,"02100512","CS Frontera","Cullen 450 (Castellanos)","Frontera","03564 311888",,"No","Municipal","SAMCo. Ley Provincial 63/12",0035,"Frontera","Castellanos","Rafaela","-31.43905","-62.06273"
474,"02100792","CS Garibaldi","Principal s/n - Al lado de la comuna","Garibaldi",,,"No","Municipal","Dep. de SAMCo.",2259,"Garibaldi","Castellanos","Rafaela","-31.65017","-61.80667"
492,"02800051","CS General Gelly","Belgrano y Dr. Alem","General Gelly","02477/490004","samcogralgelly@gmail.com","No","Municipal","SAMCo. Ley Provincial 63/12",2448,"General Gelly","Constitución","Rosario","-33.60074","-60.59846"
162,"07700135","CS General Güemes","Querandíes y Matacos","Tostado",,,"No","Provincial","Provincial- Decreto Nacional 939",0175,"Tostado","9 De Julio","Rafaela","-29.22629","-61.77634"
186,"08402448","CS General Lagos","Lisandro de la Torre 1191","General Lagos","03402/490306","samcograllagos@hotmail.com","No","Provincial","SAMCo. Ley Provincial 63/12",3407,"General Lagos","Rosario","Rosario","-33.11173","-60.56112"
400,"10500503","CS General Urquiza Barrio Basualdo","Zona Suburbana","Coronda",,,"No","Municipal","Municipal/Comunal",0245,"Coronda","San Jerónimo","Santa Fe","-31.99909","-60.92321"
687,"08400666","CS Gerontocomio Municipal","Grandoli 3450","Rosario","0341-4809774","hogarmayores@rosario.gov.ar","Si","Municipal","Municipal/Comunal",0210,"Rosario","Rosario","Rosario","-32.887138888889","-60.733194444444"
280,"10500261","CS Géssler","Risso Patrón 1140","Gessler","03404/497062 ctx 6200",,"No","Municipal","SAMCo. Ley Provincial 63/12",3785,"Gessler","San Jerónimo","Santa Fe","-31.87666","-61.12769"
493,"02800069","CS Godoy","Sáenz Peña 275","Godoy","03460/497037","comunadegodoy@ri.com.ar","No","Municipal","SAMCo. Ley Provincial 63/12",2455,"Godoy","Constitución","Rosario","-33.36853","-60.50579"
350,"13300181","CS Golondrina","Zona urbana","Golondrina",,,"No","Provincial","Provincial- Decreto Nacional 939",4163,"Golondrina","Vera","Reconquista","-28.55722","-60.0226"
409,"01400326","CS Granaderos a caballo","San Lorenzo 1215","Casilda","03464-427806",,"No","Municipal","Municipal/Comunal",0028,"Casilda","Caseros","Rosario","-33.049735097741","-61.155770008172"
142,"07000532","CS Grutly Norte","Zona urbana","Grutly","03496/492558","samco_grutly@hotmail.com","No","Provincial","SAMCo. Ley Provincial 63/12",3085,"Grutly","Las Colonias","Santa Fe","-31.21797","-61.10345"
125,"07000311","CS Grutly Sur Prudencio Díaz","E. Vollenweider s/n","Grutly","03496/492580","samco_grutly@hotmail.com","No","Municipal","Provincial- Decreto Nacional 939",3085,"Grutly","Las Colonias","Santa Fe","-31.26992","-61.07175"
688,"06309397","CS Guadalupe Central Padre Trucco","Javier de La Rosa 1055","Santa Fe","0342- 4578924 ctx 8924",,"No","Provincial","SAMCo. Ley Provincial 63/12",0147,"Santa Fe","La Capital","Santa Fe","-31.602856219158","-60.675418067038"
27,"04900591","CS Guadalupe Norte","Zona urbana","Guadalupe Norte","03482-498052",,"No","Provincial","Provincial- Decreto Nacional 939",2805,"Guadalupe Norte","General Obligado","Reconquista","-28.93815","-59.56232"
881,"04203361","CS Güemes","Giacaglia 150","Venado Tuerto","03462-15310354",,"No","Municipal","Municipal/Comunal",0077,"Venado Tuerto","General López","Venado Tuerto","-33.740271759332","-61.942876848658"
98,"06301695","CS Gutiérrez Este","Avellaneda 4800","Santa Fe"," 0342-4574829 ctx 4829","csgutierrezeste@santafe.gov.ar","No","Provincial","Provincial- Decreto Nacional 939",0147,"Santa Fe","La Capital","Santa Fe","-31.626904632276","-60.684512679501"
143,"07000541","CS Hipatia","San Martín s/n","Hipatia",,,"No","Provincial","Dep. de SAMCo.",3092,"Hipatia","Las Colonias","Santa Fe","-31.12547","-61.03167"
424,"06301849","CS Hipólito Irigoyen","Lubary y M. Candioti 4800 S. T.","Santo Tomé","0342-4753466",,"No","Provincial","Provincial- Decreto Nacional 939",0154,"Santo Tomé","La Capital","Santa Fe","-31.697350000","-60.760816667"
412,"04201031","CS Horacio Fredriksson","Florida 1198","Firmat","03465-421751",,"No","Municipal","Municipal/Comunal",0063,"Firmat","General López","Venado Tuerto","-33.4459","-61.47964"
144,"07000559","CS Humboldt","Av. Santos Pedro Viani 1543","Humboldt","03496/480016, centrex: 1284","samcohumboldt@hotmail.com","No","Provincial","SAMCo. Ley Provincial 63/12",3099,"Humboldt","Las Colonias","Santa Fe","-31.40119","-61.08651"
174,"08400500","CS Ibarlucea","Corrientes 127","Ibarlucea","0341-4904082 ctx 4666","samcoybarlucea@hotmail.com","No","Provincial","SAMCo. Ley Provincial 63/12",3414,"Ibarlucea","Rosario","Rosario","-32.8518","-60.78718"
561,"04900176","CS Ingeniero Chanourdie","San Martín s/n","Ingeniero Chanourdie","03482/490924",,"No","Provincial","Provincial- Decreto Nacional 939",2812,"Ingeniero Chanourdie","General Obligado","Reconquista","-28.76077","-59.57626"
1249,"08423145","CS Ingeniero Mosconi","Ingeniero Mosconi y 9 de Julio","Villa Gobernador Gálvez","0341-4921874",,"No","Provincial","Provincial- Decreto Nacional 939",0217,"Villa Gobernador Gálvez","Rosario","Rosario","-33.02998","-60.648045"
585,"08403660","CS Intendente Andreu","Comandante Espora 488","Villa Gobernador Gálvez","0341-4983414",,"No","Municipal","Municipal/Comunal",0217,"Villa Gobernador Gálvez","Rosario","Rosario","-33.023778","-60.612972"
405,"06309368","CS Intercultural Natarentaca Com Nalequetegueta","A. Lincoln 1509","Recreo","0342-4967197",,"No","Municipal","Municipal/Comunal",0144,"Recreo","La Capital","Santa Fe","-31.497566667","-60.724300000"
573,"08404585","CS Isabel D. Maleandi","Avenida Pellegrini 2064","Alvear","0341-4921371","comunadealvear@hotmail.com","No","Municipal","Municipal/Comunal",3372,"Alvear","Rosario","Rosario","-33.059028285585","-60.615939474919"
1310,"04902369","CS Isla Guaycurú","Costa Río Paraná","Las Garzas",,,"No","Provincial","Provincial- Decreto Nacional 939",2833,"Las Garzas","General Obligado","Reconquista","-28.85344","-59.46785"
893,"08418267","CS Itatí","José Garibaldi 2502","Rosario","0341-4805879",,"No","Municipal","Municipal/Comunal",0210,"Rosario","Rosario","Rosario","-32.9825","-60.667389"
211,"08403371","CS Itatí","Marco Paz y García González","Villa Gobernador Gálvez","0341-4920343",,"No","Provincial","Provincial- Decreto Nacional 939",0217,"Villa Gobernador Gálvez","Rosario","Rosario","-33.033139","-60.6465"
110,"04201456","CS Iturbide","Caparrós 350","Venado Tuerto",,,"No","Municipal","Municipal/Comunal",0077,"Venado Tuerto","General López","Venado Tuerto","-33.76103748709","-61.950155565088"
378,"07000877","CS Jacinto L Arauz","Zona urbana","Jacinto L. Aráuz","03497-495994 comuna-cs",,"No","Provincial","Provincial- Decreto Nacional 939",3113,"Jacinto L. Aráuz","Las Colonias","Santa Fe","-30.73422","-60.97444"
394,"07700232","CS Jaime J Culler","Mariano Moreno s/n","Villa Minetti","03491-496512",,"No","Provincial","Provincial- Decreto Nacional 939",3344,"Villa Minetti","9 De Julio","Rafaela","-28.62251","-61.62863"
623,"08402031","CS Jean Henry Dunnant","Tte. Agneta 1535","Rosario","0341/4807808",,"No","Municipal","Municipal/Comunal",0210,"Rosario","Rosario","Rosario","-32.945667","-60.699639"
362,"06301539","CS Jorge Newbery","Sauces 1497","Sauce Viejo","0342-156120003","csnewbery@hotamil.com.ar","No","Municipal","Municipal/Comunal",3029,"Sauce Viejo","La Capital","Santa Fe","-31.718583333","-60.799450000"
732,"09100704","CS José Dho","Chacabuco 1970","San Cristóbal",,,"No","Provincial","Provincial- Decreto Nacional 939",0231,"San Cristóbal","San Cristóbal","Rafaela","-30.301346787093","-61.228564921018"
598,"11900548","CS José Hernández (Mun)","Misiones 721","San Lorenzo","03476-432916",,"No","Municipal","Municipal/Comunal",0301,"San Lorenzo","San Lorenzo","Rosario","-32.75708851864","-60.736881090052"
849,"11901548","CS José Hernández (Prov)","Batería Libertad 1100","San Lorenzo","03476-448232","capsjh@hotmail.com","No","Provincial","Provincial- Decreto Nacional 939",0301,"San Lorenzo","San Lorenzo","Rosario","-32.759351318049","-60.741170558637"
830,"08417493","CS José Raúl Ugarte","Suinda 980 (Mendoza 9500)","Rosario","0341-4807689",,"No","Municipal","Municipal/Comunal",0210,"Rosario","Rosario","Rosario","-32.94065","-60.75996"
468,"02100733","CS Josefina","Corrientes s/n","Josefina","03492-15599315","samcojosefina@hotmail.com","No","Provincial","SAMCo. Ley Provincial 63/12",2280,"Josefina","Castellanos","Rafaela","-31.40556","-61.99059"
654,"08405000","CS Juan B. Justo","J. B. Justo 2083","Rosario","0341/4804657",,"No","Municipal","Municipal/Comunal",0210,"Rosario","Rosario","Rosario","-32.914333333333","-60.693527777778"
422,"06301822","CS Juan Domingo Perón","7 de Marzo y J.J. Paso","Santo Tomé","0342-4753465",,"No","Provincial","Provincial- Decreto Nacional 939",0154,"Santo Tomé","La Capital","Santa Fe","-31.664866667","-60.776466667"
630,"08402782","CS Juan Pablo II","Cnel. Rosendo Fraga 2308","Rosario","(0341) 155114934",,"No","Municipal","Municipal/Comunal",0210,"Rosario","Rosario","Rosario","-32.95575","-60.709639"
690,"04201472","CS Juan XXIII","Sáenz Pena 1991","Venado Tuerto","03462-435744",,"No","Municipal","Municipal/Comunal",0077,"Venado Tuerto","General López","Venado Tuerto","-33.744064396864","-61.985692100542"
652,"08404313","CS Juana Azurduy","Fraga 1087 bis.","Rosario","0341-4804815",,"No","Municipal","Municipal/Comunal",0210,"Rosario","Rosario","Rosario","-32.916111111111","-60.711611111111"
28,"04900605","CS Julia Capozzolo Barrio Carmen Luisa","Barrio Carmen Luisa - Calle 12 y 83","Reconquista","(03482) 15614243",,"No","Provincial","Provincial- Decreto Nacional 939",0112,"Reconquista","General Obligado","Reconquista","-29.17592","-59.64467"
834,"08417529","CS Julio Maiztegui (Ex San Roque)","5 de Agosto 1523","Rosario","0341-4809760",,"No","Municipal","Municipal/Comunal",0210,"Rosario","Rosario","Rosario","-33.01687","-60.65024"
495,"02800085","CS Juncal","Mitre 190","Juncal","02473/492200/392","josevillata@live.com.ar","No","Municipal","SAMCo. Ley Provincial 63/12",2469,"Juncal","Constitución","Rosario","-33.71532","-61.04455"
215,"08403479","CS Juntos Podemos Kolping","Nocetto 593","Rosario","0341/4807544",,"No","Provincial","Provincial- Decreto Nacional 939",0210,"Rosario","Rosario","Rosario","-32.95667","-60.70342"
359,"13300271","CS Km 115","RP 83 S Km 115","La Gallareta",,,"No","Provincial","Provincial- Decreto Nacional 939",4177,"La Gallareta","Vera","Reconquista","-29.47787","-60.5571"
88,"06301431","CS La Boca - Ramón Rivero","Manzana 10- Alto Verde","Santa Fe","0342-156152067","cslaboca@santafe.gov.ar","No","Provincial","Provincial- Decreto Nacional 939",0147,"Santa Fe","La Capital","Santa Fe","-31.66352","-60.70081"
249,"09800030","CS La Brava","Zona rural","La Brava","0342-154064661",,"No","Provincial","Dep. de SAMCo.",3708,"La Brava","San Javier","Santa Fe","-30.44644","-60.14008"
242,"09100496","CS La Cabral","Zona urbana","La Cabral"," 03408-423450 Comuna",,"No","Municipal","Provincial- Decreto Nacional 939",3561,"La Cabral","San Cristóbal","Rafaela","-30.08739","-61.1779"
302,"11200333","CS La Camila","RP 56 S","La Camila","03498-472000",,"No","Provincial","Dep. de SAMCo.",3897,"La Camila","San Justo","Santa Fe","-30.08025","-60.56284"
525,"04200174","CS La Chispa","Zona Suburbana","La Chispa","03462/487042",,"No","Provincial","Provincial- Decreto Nacional 939",2658,"La Chispa","General López","Venado Tuerto","-33.543","-61.97231"
287,"11200040","CS La Criolla","Misiones s/n","La Criolla (Est. Cañadita)","03498/49483(comuna)",,"No","Municipal","SAMCo. Ley Provincial 63/12",3904,"La Criolla (Est. Cañadita)","San Justo","Santa Fe","-30.22545","-60.36127"
618,"08402570","CS La Florida","Braile 1205","Rosario","0341-4806637",,"No","Municipal","Municipal/Comunal",0210,"Rosario","Rosario","Rosario","-32.883","-60.700555555556"
58,"06300052","CS La Guardia","Km 0 Ruta Provincial 1","La Guardia","0342 4577013 ctx 7013",,"No","Provincial","Provincial- Decreto Nacional 939",0147,"Santa Fe","La Capital","Santa Fe","-31.638283333","-60.626300000"
706,"04901801","CS La Lola","Asentamiento Aborigen La Lola","La Lola","03482 15551108",,"No","Provincial","Provincial- Decreto Nacional 939",0112,"Reconquista","General Obligado","Reconquista","-29.19616","-59.74108"
243,"09100500","CS La Lucila","Zona urbana","La Lucila","03408/424873",,"No","Municipal","SAMCo. Ley Provincial 63/12",3575,"La Lucila","San Cristóbal","Rafaela","-30.4191","-61.00401"
299,"11200261","CS La Penca Y Caraguata","Zona urbana","La Penca Y Caraguatá","03498-491056",,"No","Provincial","Provincial- Decreto Nacional 939",3911,"La Penca y Caraguatá","San Justo","Santa Fe","-30.34662","-60.52179"
206,"08403223","CS La Posta","Nicolás Avellaneda 330","Rosario","0341/4724658",,"No","Provincial","Provincial- Decreto Nacional 939",0210,"Rosario","Rosario","Rosario","-32.933833333333","-60.677972222222"
10,"04900346","CS La Reserva","la reserva","La Reserva",,,"No","Provincial","Provincial- Decreto Nacional 939",2868,"Villa Ana","General Obligado","Reconquista","-28.49994","-59.51559"
53,"05600427","CS La Rivera","Bo. La Ribera Villa La Ribera","Oliveros",,,"No","Provincial","Dep. de SAMCo.",2917,"Oliveros","Iriondo","Rosario","-32.643","-60.83589"
232,"09100348","CS La Rubia","Rivadavia s/n","La Rubia"," 03491-495866 Comuna loc.",,"No","Municipal","SAMCo. Ley Provincial 63/12",3582,"La Rubia","San Cristóbal","Rafaela","-30.11047","-61.79294"
563,"04900192","CS La Sarita","La Sarita","La Sarita","03482-15614250","lasarita@hotmail.com","No","Municipal","SAMCo. Ley Provincial 63/12",2819,"La Sarita","General Obligado","Reconquista","-28.97272","-59.84905"
502,"02800166","CS La Vanguardia","Rosario y San Lorenzo","La Vanguardia","03469 - 493020","comuna@comunalavanguardia.com.ar","No","Municipal","SAMCo. Ley Provincial 63/12",2476,"La Vanguardia","Constitución","Rosario","-33.35827","-60.65897"
523,"04200115","CS Labordeboy","Congreso 108","Labordeboy","03465/495278","samcolabordeboy@hotmail.com","No","Municipal","SAMCo. Ley Provincial 63/12",2665,"Labordeboy","General López","Venado Tuerto","-33.71768","-61.315"
279,"10500252","CS Larrechea","Zona urbana","Larrechea","03404/499033",,"No","Municipal","SAMCo. Ley Provincial 63/12",3799,"Larrechea","San Jerónimo","Santa Fe","-31.93565","-61.04598"
371,"06309388","CS Las Delicias","Alfonsina Storni 3100","Santa Fe","0342-4579277 ctx 9277",,"No","Provincial","Provincial- Decreto Nacional 939",0147,"Santa Fe","La Capital","Santa Fe","-31.583087905911","-60.695087776606"
633,"08402791","CS Las Flores","Flor de Nácar 6983","Rosario","0341-4809772",,"No","Municipal","Municipal/Comunal",0210,"Rosario","Rosario","Rosario","-33.018666666667","-60.660527777778"
645,"08404381","CS Las Flores Este","Khantuta 1397","Rosario","0341-4809767",,"No","Municipal","Municipal/Comunal",0210,"Rosario","Rosario","Rosario","-33.012","-60.652666666667"
360,"13300297","CS Las Gamas","Las Gamas","Las Gamas",,,"No","Provincial","Provincial- Decreto Nacional 939",0336,"Vera","Vera","Reconquista","-29.40296","-60.38634"
564,"04900206","CS Las Garzas","San Martín s/n","Las Garzas","03482 493209",,"No","Provincial","Provincial- Decreto Nacional 939",2833,"Las Garzas","General Obligado","Reconquista","-28.84757","-59.50054"
885,"06309290","CS Las Lomas","Camino Viejo Esperanza 7000","Santa Fe",,,"No","Provincial","Provincial- Decreto Nacional 939",0147,"Santa Fe","La Capital","Santa Fe","-31.596266670","-60.735450000"
244,"09100518","CS Las Palmeras","Av. República Argentina","Las Palmeras","0349-491007",,"No","Provincial","Provincial- Decreto Nacional 939",3596,"Las Palmeras","San Cristóbal","Rafaela","-30.62984","-61.62595"
392,"07000923","CS Las Tunas","San Martín s/n","Las Tunas","0342 4992002 ctx 5442",,"No","Provincial","Provincial- Decreto Nacional 939",3127,"Las Tunas","Las Colonias","Santa Fe","-31.57153","-60.99609"
526,"04200182","CS Lazzarino","Manz 8 s/n entre manz 7 y 9","Lazzarino","03382-492614 ctx 7564",,"No","Provincial","Provincial- Decreto Nacional 939",2672,"Lazzarino","General López","Venado Tuerto","-34.16586","-62.42868"
447,"02100270","CS Lehmann","Güemes y Almafuerte","Lehmann"," 03492-480400-407400",,"No","Municipal","SAMCo. Ley Provincial 63/12",2287,"Lehmann","Castellanos","Rafaela","-31.12639","-61.45138"
896,"08418645","CS Libertad (Ex Aborígenes Argentinos)","Calle 1816 Nº 4496","Rosario","0341-4347575",,"No","Provincial","Provincial- Decreto Nacional 939",0210,"Rosario","Rosario","Rosario","-32.983","-60.707"
119,"06302390","CS Lisandro De La Torre","Agustín Delgado y Alberdi","Santo Tomé","0342-4753467",,"No","Provincial","Provincial- Decreto Nacional 939",0154,"Santo Tomé","La Capital","Santa Fe","-31.676733333","-60.797316667"
92,"06301491","CS Llambi Campbell","Laprida 331","Llambi Campbell","03497-421020",,"No","Provincial","SAMCo. Ley Provincial 63/12",2994,"Llambi Campbell","La Capital","Santa Fe","-31.185983333","-60.748133333"
283,"10500465","CS Loma Alta","Mayor Gainza s/n","Loma Alta","03404/457020",,"No","Municipal","SAMCo. Ley Provincial 63/12",3806,"Loma Alta","San Jerónimo","Santa Fe","-31.96082","-61.17627"
680,"06309384","CS Los Hornos Norte","Libertad y Calle 110","Laguna Paiva",,,"No","Municipal","Municipal/Comunal",0140,"Laguna Paiva","La Capital","Santa Fe","-31.274533333","-60.662616667"
259,"09800161","CS Los Jacintos","Zona rural","Los Jacintos",,,"No","Provincial","Provincial- Decreto Nacional 939",3687,"Alejandra","San Javier","Reconquista","-29.85798","-59.81908"
25,"04900575","CS Los Lapachos","Zona rural","Los Lapachos","(03482) -474101",,"No","Provincial","Provincial- Decreto Nacional 939",2812,"Ingeniero Chanourdie","General Obligado","Reconquista","-28.7451","-59.66789"
12,"04900362","CS Los Laureles","Zona rural","Los Laureles",,,"No","Municipal","SAMCo. Ley Provincial 63/12",2840,"Los Laureles","General Obligado","Reconquista","-29.36892","-59.73795"
437,"01400105","CS Los Molinos","Martín Fierro 164","Los Molinos","03464/495145","samcolosmolinos@hotmail.com.ar","No","Municipal","SAMCo. Ley Provincial 63/12",2077,"Los Molinos","Caseros","Rosario","-33.10518","-61.33006"
1326,"08423163","CS Los Pinos","RP 18 S Paraje El Carmelo","Villa Amelia","(03402) 492961 km 10-5 Zona Ru",,"No","Provincial","Provincial- Decreto Nacional 939",3456,"Villa Amelia","Rosario","Rosario","-33.148056","-60.716944"
300,"11200279","CS Los Saladillos","Zona rural","Los Saladillos","Samco San Javier",,"No","Provincial","Provincial- Decreto Nacional 939",0259,"San Justo","San Justo","Santa Fe","-30.72888","-60.2775"
357,"13300246","CS Los Tábanos","Zona urbana","Los Tabanos (K.366)",,,"No","Provincial","Provincial- Decreto Nacional 939",4163,"Golondrina","Vera","Reconquista","-28.45809","-59.98245"
693,"00700679","CS Los Ucles","Calle 9 Nº 1187","Las Parejas",,,"No","Municipal","Municipal/Comunal",0014,"Las Parejas","Belgrano","Rosario","-32.68418","-61.51343"
513,"03500077","CS Los Zapallos","Zona rural","Los Zapallos",,"capsloszapallos@hotmail.com","No","Provincial","Provincial- Decreto Nacional 939",2567,"Santa Rosa de Calchines","Garay","Santa Fe","-31.49164","-60.42787"
833,"08417520","CS Luchemos por la vida","Juan Francisco Seguí 6552","Rosario","0341/4807697",,"No","Municipal","Municipal/Comunal",0210,"Rosario","Rosario","Rosario","-32.970889","-60.709861"
41,"05600117","CS Lucio V. López","San Martín 339","Lucio V. López","03476/491089","comunavlopez@yahoo.com.ar","No","Municipal","SAMCo. Ley Provincial 63/12",2910,"Lucio V. López","Iriondo","Rosario","-32.71199","-61.02277"
616,"08402561","CS Ludueña Norte Y Moreno","Junín 5236","Rosario","0341/4351530",,"No","Municipal","Municipal/Comunal",0210,"Rosario","Rosario","Rosario","-32.927111111111","-60.695666666667"
591,"11900351","CS Luis Cristallini","C. Colon 1560","Capitán Bermúdez","0341-4917353",,"No","Municipal","Municipal/Comunal",0266,"Capitán Bermúdez","San Lorenzo","Rosario","-32.807475119647","-60.720476372544"
632,"08401999","CS Luis Pasteur","Ayolas 270","Rosario","0341/4809778",,"No","Municipal","Municipal/Comunal",0210,"Rosario","Rosario","Rosario","-32.978861111111","-60.634083333333"
675,"02800484","CS Luzuriaga","Bo. Luzuriaga","Villa Constitución","03461-15354691",,"No","Municipal","Municipal/Comunal",0056,"Villa Constitución","Constitución","Rosario","-33.25967","-60.30595"
59,"06300061","CS Mabel Montes Bo Guadalupe Oeste","Risso 1745 - Bo. Guadalupe Oeste","Santa Fe","0342/4579209, centrex: 9209",,"No","Provincial","Provincial- Decreto Nacional 939",0147,"Santa Fe","La Capital","Santa Fe","-31.602939337627","-60.683664836752"
353,"07700208","CS Madre Teresa De Calcuta","Santo Domingo y Perezlindo","Tostado",,,"No","Municipal","Municipal/Comunal",0175,"Tostado","9 De Julio","Rafaela","-29.23988","-61.77475"
902,"04203991","CS Maggiolo","Carreras Entre Genova y Garibaldi","Maggiolo","03462-492261","capsmaggiolo@hotmail.com.ar","No","Municipal","Municipal/Comunal",2679,"Maggiolo","General López","Venado Tuerto","-33.72717","-62.25109"
634,"08403240","CS Marcelino Champagnat","Aarón Castellanos 3935","Rosario","0341-4805648",,"No","Municipal","Municipal/Comunal",0210,"Rosario","Rosario","Rosario","-32.976305555556","-60.684277777778"
288,"11200058","CS Marcelino Escalada","Romeo Rizzatti 410","Marcelino Escalada","03498/493000, centrex: 2031",,"No","Municipal","SAMCo. Ley Provincial 63/12",3918,"Marcelino Escalada","San Justo","Santa Fe","-30.58143","-60.4692"
1248,"13300939","CS Margarita","San Martín y Moreno","Margarita","03483-498422",,"No","Provincial","Dep. de SAMCo.",4191,"Margarita","Vera","Reconquista","-29.68272","-60.25168"
584,"08403651","CS María Auxiliadora","Suarez 480","Villa Gobernador Gálvez","0341-4928801",,"No","Municipal","Municipal/Comunal",0217,"Villa Gobernador Gálvez","Rosario","Rosario","-33.03446","-60.60725"
448,"02100288","CS María Juana","Belgrano 252","María Juana","03406/471795",,"No","Municipal","SAMCo. Ley Provincial 63/12",2294,"María Juana","Castellanos","Rafaela","-31.67738","-61.75473"
139,"07000494","CS María Luisa","Malvinas Argentina s/n","María Luisa","03497/496123","samco_marialuisa@hotmail.com","No","Municipal","SAMCo. Ley Provincial 63/12",3134,"María Luisa","Las Colonias","Santa Fe","-31.01134","-60.91028"
837,"08417565","CS Martin","Mariano Moreno 950","Rosario","0341 - 4802303",,"No","Municipal","Municipal/Comunal",0210,"Rosario","Rosario","Rosario","-32.946083333333","-60.651027777778"
261,"04201804","CS Materno Infantil","Agüero 423","Venado Tuerto",,,"No","Municipal","Municipal/Comunal",0077,"Venado Tuerto","General López","Venado Tuerto","-33.736091153999","-61.96897867704"
128,"07000354","CS Matilde","Santa Fe 632","Matilde","0342-4993139","samcomatilde@gmail.com","No","Municipal","SAMCo. Ley Provincial 63/12",3141,"Matilde","Las Colonias","Santa Fe","-31.79325","-60.98298"
624,"08402995","CS Mauricio Casals","Juan Francisco Seguí 5305","Rosario","0341-4805625",,"No","Municipal","Municipal/Comunal",0210,"Rosario","Rosario","Rosario","-32.970556","-60.694889"
543,"04200522","CS Melincué","San Martín 85","Melincué","03465/499804","samcodemelincue@hotmail.com","No","Municipal","Provincial- Decreto Nacional 939",2693,"Melincué","General López","Venado Tuerto","-33.657167440358","-61.453830097083"
684,"08403321","CS Melvin Jones","Estac. Terminal de Ómnibus","Rosario",,,"No","Municipal","Municipal/Comunal",0210,"Rosario","Rosario","Rosario","-32.939167","-60.670722"
506,"02800301","CS Miguel Rueda","E. López 684","Rueda","03400/496020","comunarueda@arnet.com.ar","No","Provincial","SAMCo. Ley Provincial 63/12",2511,"Rueda","Constitución","Rosario","-33.35095","-60.459817"
540,"04200484","CS Miguel Torres","San Miguel s/n","Miguel Torres","03465/422110",,"No","Municipal","SAMCo. Ley Provincial 63/12",2700,"Miguel Torres","General López","Venado Tuerto","-33.52733","-61.46597"
900,"07700640","CS Mocoví","Chaco s/n","Tostado","03491-474130",,"No","Municipal","Municipal/Comunal",0175,"Tostado","9 De Julio","Rafaela","-29.21564","-61.76795"
272,"10500163","CS Monje","Córdoba y Ruta 65","Monje","03466/498188","samcomonje@hotmail.com.ar","No","Municipal","SAMCo. Ley Provincial 63/12",3827,"Monje","San Jerónimo","Rosario","-32.35519","-60.94691"
83,"06300559","CS Monte Vera","General López 5718","Monte Vera","0342/4904033 centrex9246","samcomontevera@yahoo.com.ar","No","Provincial","SAMCo. Ley Provincial 63/12",3001,"Monte Vera","La Capital","Santa Fe","-31.518583333","-60.679250000"
157,"07700054","CS Montefiore","Dr. Luis Drunge s/n","Montefiore",,,"No","Provincial","Provincial- Decreto Nacional 939",3316,"Montefiore","9 De Julio","Rafaela","-29.666778","-61.866564"
555,"04900052","CS Moussy","Zona urbana","Moussy","03482/15614241- 481344",,"No","Provincial","Provincial- Decreto Nacional 939",0091,"Avellaneda","General Obligado","Reconquista","-29.01717","-59.68741"
289,"11200066","CS Nare","Zona urbana","Naré","03498-494012",,"No","Provincial","Provincial- Decreto Nacional 939",3925,"Naré","San Justo","Santa Fe","-30.94932","-60.46723"
2,"04900231","CS Nicanor Molina","N. E. Molinas 405 Km. 19","Nicanor Molinas","03482-420026",,"No","Provincial","Provincial- Decreto Nacional 939",2847,"Nicanor Molinas","General Obligado","Reconquista","-29.13","-59.83275"
579,"08403398","CS Niño Jesús","Rivadavia 1250","Villa Gobernador Gálvez","0341-928804",,"No","Municipal","Municipal/Comunal",0217,"Villa Gobernador Gálvez","Rosario","Rosario","-33.016806","-60.626972"
418,"04201383","CS Nro. 1","Castelli y España","Elortondo","03462-471274","comunaelortondo@lg.com.ar","No","Municipal","Municipal/Comunal",2644,"Elortondo","General López","Venado Tuerto","-33.69475","-61.61837"
460,"02100563","CS Nro. 1","Francia y Zalletti","Rafaela","03492/452849","samco1rafaela@gmail.com","No","Provincial","Provincial- Decreto Nacional 939",0042,"Rafaela","Castellanos","Rafaela","-31.23198","-61.47058"
487,"02101268","CS Nro. 1 Mariano Moreno","C. Gardel 550","Sunchales","03493-421626",,"No","Provincial","Provincial- Decreto Nacional 939",0049,"Sunchales","Castellanos","Rafaela","-31.23638","-61.48153"
182,"08401981","CS Nro. 10 Villa Manuelita","Ricardo Guiraldes 298 bis.","Rosario","0341/4809434",,"No","Provincial","Provincial- Decreto Nacional 939",0210,"Rosario","Rosario","Rosario","-32.986611111111","-60.627805555556"
170,"08400135","CS Nro. 11 Pueblo Nuevo","Buenamesson 580","Villa Gobernador Gálvez","0341/4922777",,"No","Provincial","Provincial- Decreto Nacional 939",0217,"Villa Gobernador Gálvez","Rosario","Rosario","-33.009056","-60.615972"
213,"08403452","CS Nro. 11 Villa Corrientes","José de Amenábar 1329","Rosario","0341/4808420",,"No","Provincial","Provincial- Decreto Nacional 939",0210,"Rosario","Rosario","Rosario","-32.971611","-60.647833"
201,"08403169","CS Nro. 12 Dr. García Piatti","Balcarce 3850","Rosario","0341/4809431",,"No","Provincial","Provincial- Decreto Nacional 939",0210,"Rosario","Rosario","Rosario","-32.979472222222","-60.660888888889"
202,"08403177","CS Nro. 13  Fonavi","Alfredo Rovillon 3671","Rosario","0341/4805411",,"No","Provincial","Provincial- Decreto Nacional 939",0210,"Rosario","Rosario","Rosario","-32.971667","-60.701"
191,"08402987","CS Nro. 14  Avellaneda Oeste","José de Amenábar 4122","Rosario","0341/4805414",,"No","Provincial","Provincial- Decreto Nacional 939",0210,"Rosario","Rosario","Rosario","-32.964778","-60.686028"
203,"08403185","CS Nro. 15 Juan Domingo Perón","Estrella Federal 1789","Rosario","0341/4809435","caps15lasflores@hotmail.com","No","Provincial","Provincial- Decreto Nacional 939",0210,"Rosario","Rosario","Rosario","-33.020416666667","-60.657527777778"
172,"08400411","CS Nro. 16 Pablo Vi","Genova 7257","Rosario","0341/4807542",,"No","Provincial","Provincial- Decreto Nacional 939",0210,"Rosario","Rosario","Rosario","-32.916194444444","-60.72"
173,"08400445","CS Nro. 17 Caritas Guadalupe","Domingo French 5496","Rosario","0341/480-9434",,"No","Provincial","Provincial- Decreto Nacional 939",0210,"Rosario","Rosario","Rosario","-32.921388888889","-60.699222222222"
187,"08402464","CS Nro. 18 San Fernando","Las Verbenas 3260","Granadero Baigorria","0341-4710369",,"No","Provincial","Provincial- Decreto Nacional 939",0196,"Granadero Baigorria","Rosario","Rosario","-32.83893","-60.71579"
194,"08403096","CS Nro. 19 La Cerámica","Ongamira 2889","Rosario","0341-4549434",,"No","Provincial","Provincial- Decreto Nacional 939",0210,"Rosario","Rosario","Rosario","-32.886972222222","-60.706861111111"
419,"04201391","CS Nro. 2 - Elortondo","Entre Ríos y General López","Elortondo","03462-471433-4751130",,"No","Municipal","Municipal/Comunal",2644,"Elortondo","General López","Venado Tuerto","-33.70552","-61.62317"
698,"02101946","CS Nro. 2 Ena Richiger- Bº 9 De Julio","Rotania 1336","Sunchales","03493-426732","caps2sunchalez.pnacer@hotmail.com","No","Municipal","Municipal/Comunal",0049,"Sunchales","Castellanos","Rafaela","-30.94666","-61.55073"
196,"08403118","CS Nro. 2 Fonavi Súper Cemento","A. J. Donado 911 Bis","Rosario","0341/4807540",,"No","Provincial","Provincial- Decreto Nacional 939",0210,"Rosario","Rosario","Rosario","-32.938555555556","-60.727055555556"
461,"02100571","CS Nro. 2 Materno Infantil","Ciudad de esperanza 1550","Rafaela","03492/441085"," caps2@samcorafaela.com.ar","No","Provincial","Provincial- Decreto Nacional 939",0042,"Rafaela","Castellanos","Rafaela","-31.27357","-61.47046"
195,"08403100","CS Nro. 20 La Esperanza","Pablo A. Pizzurno 1930","Rosario","0341/4549442",,"No","Provincial","Provincial- Decreto Nacional 939",0210,"Rosario","Rosario","Rosario","-32.897472222222","-60.7115"
171,"08400356","CS Nro. 21 Gabin 9","Aguaribay y Hudson","Pérez","0341/4956306",,"No","Provincial","Provincial- Decreto Nacional 939",0203,"Pérez","Rosario","Rosario","-32.96991","-60.7415"
204,"08403207","CS Nro. 22 González Loza","Bolognia 4787","Rosario","0341/4809430",,"No","Provincial","Provincial- Decreto Nacional 939",0210,"Rosario","Rosario","Rosario","-32.993416666667","-60.668805555556"
212,"08403436","CS Nro. 23 San Miguel","Eva Perón 634","Granadero Baigorria","0341-4714509",,"No","Provincial","Provincial- Decreto Nacional 939",0196,"Granadero Baigorria","Rosario","Rosario","-32.86306","-60.71083"
207,"08403291","CS Nro. 25 Fonavi","Calle 1110 Nº 2877","Rosario","0341/4805410",,"No","Provincial","Provincial- Decreto Nacional 939",0210,"Rosario","Rosario","Rosario","-32.967","-60.665861"
208,"08403304","CS Nro. 26 De La Comunidad Organizada","Tucumán 7363","Rosario","0341/4575665",,"No","Provincial","Provincial- Decreto Nacional 939",0210,"Rosario","Rosario","Rosario","-32.93275","-60.720666666667"
209,"08403312","CS Nro. 27 Ramón Carrillo","Tupac amaru 5515","Rosario","0341/4807543",,"No","Provincial","Provincial- Decreto Nacional 939",0210,"Rosario","Rosario","Rosario","-32.930638888889","-60.699111111111"
384,"08403444","CS Nro. 28 Sargento Cabral","Punta del Indio 8428","Rosario","0341/4809436",,"No","Provincial","Provincial- Decreto Nacional 939",0210,"Rosario","Rosario","Rosario","-33.03221","-60.68752"
217,"08403686","CS Nro. 29 Araoz De La Madrid","Laferrere 4629","Rosario","0341/4809437",,"No","Provincial","Provincial- Decreto Nacional 939",0210,"Rosario","Rosario","Rosario","-32.991638888889","-60.626388888889"
197,"08403126","CS Nro. 3 -  7 De Setiembre","Martín Estrada 8150","Rosario","0341/4807541",,"No","Provincial","Provincial- Decreto Nacional 939",0210,"Rosario","Rosario","Rosario","-32.912527777778","-60.73425"
550,"04201235","CS Nro. 3 Barrio Santa Rosa","Balcarce 4193","Venado Tuerto","03462-439952",,"No","Municipal","Municipal/Comunal",0077,"Venado Tuerto","General López","Venado Tuerto","-33.71224497231","-61.98379074199"
457,"02100539","CS Nro. 3 Santa Rosa De Lima","Santa Rosa 727","Rafaela","03492/453123"," caps3@samcorafaela.com.ar","No","Provincial","Provincial- Decreto Nacional 939",0042,"Rafaela","Castellanos","Rafaela","-31.250425214602","-61.468969298578"
219,"08404551","CS Nro. 30 Santa Rita","Chaco 422","Granadero Baigorria","0341/4714535",,"No","Provincial","Provincial- Decreto Nacional 939",0196,"Granadero Baigorria","Rosario","Rosario","-32.86746","-60.70006"
462,"02100598","CS Nro. 4 Virgen De Fátima","José Beltramino y Edu Libert","Rafaela","03492/426430"," caps4@samcorafaela.com.ar","No","Provincial","Provincial- Decreto Nacional 939",0042,"Rafaela","Castellanos","Rafaela","-31.2612","-61.48201"
216,"08403487","CS Nro. 47 Barrio Toba","J. J. Paso 5132","Rosario","0341/4804535",,"No","Provincial","Provincial- Decreto Nacional 939",0210,"Rosario","Rosario","Rosario","-32.919666666667","-60.694472222222"
449,"02100318","CS Nro. 5 Martin M Güemes","Luis Maggi 2040","Rafaela","03492/440199","caps5@samcorafaela.com.ar","No","Provincial","Provincial- Decreto Nacional 939",0042,"Rafaela","Castellanos","Rafaela","-31.235121054498","-61.509192471496"
199,"08403142","CS Nro. 5 Pedro Fiorina","Francia 3104","Rosario","0341/4805413","ibvenegas@hotmail.com","No","Provincial","Provincial- Decreto Nacional 939",0210,"Rosario","Rosario","Rosario","-32.968472222222","-60.672444444444"
188,"08402472","CS Nro. 54 Remanso Valerio","Barrio Remanso Valerio","Granadero Baigorria","0341/4714561",,"No","Provincial","Provincial- Decreto Nacional 939",0196,"Granadero Baigorria","Rosario","Rosario","-32.86745","-60.69052"
477,"02100849","CS Nro. 6 Barrio Amancay","Martín Oliber 1206","Rafaela","03492-431888"," caps6@samcorafaela.com.ar","No","Provincial","Provincial- Decreto Nacional 939",0042,"Rafaela","Castellanos","Rafaela","-31.261084833056","-61.508816847311"
79,"06300508","CS Nro. 6 Barrio Los Hornos","Facundo Zuviria 5859","Santa Fe","0342/4579241, Centrex: 9241","csloshornos@santafe.gov.ar","No","Provincial","Provincial- Decreto Nacional 939",0147,"Santa Fe","La Capital","Santa Fe","-31.612267920101","-60.705043580766"
192,"08403045","CS Nro. 6 Eva Perón- Rosario","Antonio Luis Beruti 2928","Rosario","0341/4808421",,"No","Provincial","Provincial- Decreto Nacional 939",0210,"Rosario","Rosario","Rosario","-32.974583","-60.626333"
193,"08403088","CS Nro. 7 - 12 De Octubre","Maestro Massa 470","Rosario","0341/4549422",,"No","Provincial","Provincial- Decreto Nacional 939",0210,"Rosario","Rosario","Rosario","-32.873638888889","-60.693805555556"
476,"02100831","CS Nro. 7 - 17 De Octubre","Monseñor Zaspe 1899","Rafaela","03492-453124"," caps7@samcorafaela.com.ar","No","Provincial","Provincial- Decreto Nacional 939",0042,"Rafaela","Castellanos","Rafaela","-31.268234395285","-61.506998287961"
485,"02100962","CS Nro. 8 Barrio Italia","C Bolliger 165","Rafaela","03492/423332","caps8@samcorafaela.com.ar","No","Provincial","Provincial- Decreto Nacional 939",0042,"Rafaela","Castellanos","Rafaela","-31.2439395808","-61.477100351077"
78,"06300486","CS Nro. 8 Barrio San Martin","Estrada Esq. Alberti","Santa Fe","0342-4579234 - Centrex:9234",,"No","Provincial","Provincial- Decreto Nacional 939",0147,"Santa Fe","La Capital","Santa Fe","-31.596933330","-60.716816670"
190,"08402715","CS Nro. 8 Independencia","Casiano Casas 1801","Rosario","0341-5252818",,"No","Provincial","Provincial- Decreto Nacional 939",0210,"Rosario","Rosario","Rosario","-32.898666666667","-60.713694444444"
486,"02100971","CS Nro. 9 Barrio Jardín","Brasca s/n","Rafaela","03492-453103","caps9@samcorafaela.com.ar","No","Provincial","Provincial- Decreto Nacional 939",0042,"Rafaela","Castellanos","Rafaela","-31.25503","-61.51495"
85,"06300583","CS Nro. 9 Barrio Nueva Pompeya","Av. Vera Peñaloza 8230","Santa Fe","0342- 4579293 ctx 9293",,"No","Provincial","Provincial- Decreto Nacional 939",0147,"Santa Fe","La Capital","Santa Fe","-31.587849351543","-60.711695126524"
200,"08403151","CS Nro. 9 San Francisquito","Gálvez 3501","Rosario","0341/4805412",,"No","Provincial","Provincial- Decreto Nacional 939",0210,"Rosario","Rosario","Rosario","-32.962861111111","-60.676611111111"
606,"11900301","CS Nuestra Señora De Fátima- Vecinal Bella Vista","Brasil 915 Bº Esther","Puerto General San Martín","03476-429082",,"No","Municipal","Municipal/Comunal",0287,"Puerto General San Martín","San Lorenzo","Rosario","-32.7008","-60.73345"
408,"01400181","CS Nueva Roma 1","Chile 2421","Casilda",,,"No","Municipal","Municipal/Comunal",0028,"Casilda","Caseros","Rosario","-33.047180215053","-61.178597714094"
668,"01400415","CS Nueva Roma 2","Hipólito Yrigoyen y Alvear","Casilda"," 03464-425600",,"No","Provincial","Provincial- Decreto Nacional 939",0028,"Casilda","Caseros","Rosario","-33.054086559957","-61.190596047104"
1247,"06309793","CS Nuevo Horizonte","Carranza y Monseñor Rodríguez","Santa Fe","0342-4832022","salud@santafeciudad.gov.ar","No","Municipal","Municipal/Comunal",0147,"Santa Fe","La Capital","Santa Fe","-31.561016670","-60.732416670"
145,"07000567","CS Nuevo Torino","Belgrano 293","Nuevo Torino","03496 494601",,"No","Provincial","Provincial- Decreto Nacional 939",3148,"Nuevo Torino","Las Colonias","Santa Fe","-31.3465","-61.23698"
666,"09100691","CS Ñanducita","Zona urbana","Ñanducita",,,"No","Provincial","Dep. de SAMCo.",3624,"Ñanducita","San Cristóbal","Rafaela","-30.36992","-61.13306"
361,"13300319","CS Ogilvie","Zona urbana","Ogilvie",,,"No","Provincial","Provincial- Decreto Nacional 939",0336,"Vera","Vera","Reconquista","-29.35946","-60.18854"
42,"05600125","CS Oliveros","Entre Ríos 464","Oliveros","03476/498598",,"No","Municipal","Dep. de SAMCo.",2917,"Oliveros","Iriondo","Rosario","-32.57543","-60.84886"
722,"08400739","CS Oral Nro 4-Escuela Nro 615","Alem 3089","Rosario","0341-4728663",,"No","Provincial","Provincial- Decreto Nacional 939",0210,"Rosario","Rosario","Rosario","-32.974972222222","-60.635055555556"
69,"06300231","CS Oratorio San Lorenzo Padre Gasparotto","Amenábar 4000","Santa Fe","0342-4573369 Centrex 3369",,"No","Provincial","Provincial- Decreto Nacional 939",0147,"Santa Fe","La Capital","Santa Fe","-31.655954276699","-60.728962910532"
104,"06301750","CS Padre Cobo","P. de Vega 3800","Santa Fe","0342-4579244 Centrex 9244","capspadrecobo@hotmail.com","No","Provincial","Provincial- Decreto Nacional 939",0147,"Santa Fe","La Capital","Santa Fe","-31.607510040313","-60.711811117468"
224,"09100054","CS Palacios","Zona urbana","Palacios","  03409-492010 Comuna",,"No","Provincial","Provincial- Decreto Nacional 939",3631,"Palacios","San Cristóbal","Rafaela","-30.70756","-61.62141"
345,"13300122","CS Paraje 17","Paraje km 17","Toba",,,"No","Provincial","Provincial- Decreto Nacional 939",4205,"Toba","Vera","Reconquista","-29.19978","-60.28268"
343,"13300106","CS Paraje 29","Paraje El 29","Paraje 29",,,"No","Provincial","Provincial- Decreto Nacional 939",4149,"Fortín Olmos","Vera","Reconquista","-29.10804","-60.23803"
380,"10500597","CS Paraje La Boca","Paraje La Boca","Monje",,,"No","Provincial","Dep. de SAMCo.",3827,"Monje","San Jerónimo","Rosario","-32.33244","-60.87677"
20,"04900516","CS Paraje Las Claritas","Las Claritas","Arroyo Ceibal",,,"No","Provincial","Provincial- Decreto Nacional 939",2763,"Arroyo Ceibal","General Obligado","Reconquista","-28.57229","-59.52744"
31,"04900648","CS Paraje San Juan","Zona rural a 15 km de Villa Ana","Paraje San Juan",,,"No","Provincial","Provincial- Decreto Nacional 939",2875,"Villa Guillermina","General Obligado","Reconquista","-28.23932","-59.53588"
703,"04901202","CS Parque Industrial","Calle 40 N 1116 Entre Gral. López y Pje 2","Reconquista",,,"No","Provincial","Provincial- Decreto Nacional 939",0112,"Reconquista","General Obligado","Reconquista","-29.147168697543","-59.661797375051"
642,"08404411","CS Parque Sur","Bolonia 5350","Rosario","0341-4809196",,"No","Municipal","Municipal/Comunal",0210,"Rosario","Rosario","Rosario","-33.","-60.6685"
505,"02800298","CS Pavón","Mitre 2538","Pavón","03400-490221","comunadepavon@hotmail.com","No","Provincial","Provincial- Decreto Nacional 939",2490,"Pavón","Constitución","Rosario","-33.24234","-60.40559"
497,"02800107","CS Pavón Arriba","Bs. Aires 814","Pavón Arriba","03469/491541 ctx 9741",,"No","Municipal","SAMCo. Ley Provincial 63/12",2497,"Pavón Arriba","Constitución","Rosario","-33.3098","-60.82317"
90,"06301474","CS Pbro Germán Yossen","Bo. Los Hornos Laguna Paiva","Laguna Paiva",,,"No","Provincial","Dep. de SAMCo.",0140,"Laguna Paiva","La Capital","Santa Fe","-31.284183333","-60.657433333"
290,"11200074","CS Pedro Gómez Cello","Zona urbana","Pedro Gómez Cello","03498-491015","samcopgc187@hotmail.com","No","Municipal","SAMCo. Ley Provincial 63/12",3932,"Pedro Gómez Cello","San Justo","Santa Fe","-30.03587","-60.3125"
402,"12600394","CS Pedro Manasseri","J. Hernández y Rivadavia Bº San Pedro","Cañada Rosquín","03401-470263/470188","ccrosquin@volosat.com.ar","No","Municipal","Municipal/Comunal",4044,"Cañada Rosquín","San Martín","Rosario","-32.04778","-61.60755"
21,"04900524","CS Pedro Vicentin","Calle 307 N 1303","Avellaneda","03482-483029",,"No","Provincial","Dep. de SAMCo.",0091,"Avellaneda","General Obligado","Reconquista","-29.10993","-59.64721"
498,"02800115","CS Peyrano","Tucumán 162","Peyrano","03460/470466/101","samcopeyrano@hotmail.com","No","Municipal","SAMCo. Ley Provincial 63/12",2504,"Peyrano","Constitución","Rosario","-33.538354","-60.799745"
466,"02100709","CS Plaza Clucellas","Av. Buenos Aires 235","Estación Clucellas"," 03492-499337","ricardogonzalez58@hotmail.com","No","Municipal","SAMCo. Ley Provincial 63/12",2224,"Estación Clucellas","Castellanos","Rafaela","-31.45424","-61.70451"
835,"08417538","CS Pocho Lepratti","Caña de Ámbar 1667","Rosario","0341/4809529",,"No","Municipal","Municipal/Comunal",0210,"Rosario","Rosario","Rosario","-33.015027777778","-60.656361111111"
68,"06300222","CS Policlínico Centenario","Pietrabuena 3164","Santa Fe","0342-4573368","scpoliclinicocentenario@santafe.gov.ar","No","Provincial","Provincial- Decreto Nacional 939",0147,"Santa Fe","La Capital","Santa Fe","-31.663280354872","-60.719408011553"
75,"06300371","CS Policlínico Vecinal","Salvador del Carril 2240","Santa Fe","0342/4579206-4579208 ctx 9208","cssalvadordelcarril@santafe.gov.ar","No","Provincial","Provincial- Decreto Nacional 939",0147,"Santa Fe","La Capital","Santa Fe","-31.619106723466","-60.693998957395"
876,"08418294","CS Posta Sanitaria  El Triangulo","Chubut e Iriondo","Villa Gobernador Gálvez",,,"No","Municipal","Municipal/Comunal",0217,"Villa Gobernador Gálvez","Rosario","Rosario","-33.033972","-60.635472"
887,"04902036","CS Posta Sanitaria Don Carlos","Calle 127 Esq. Calle 72 Bo Don Carlos","Reconquista","(03482) - 15551412","postadoncarlos@hotmail.com.ar","No","Provincial","Provincial- Decreto Nacional 939",0112,"Reconquista","General Obligado","Reconquista","-29.18843397672","-59.683791976976"
161,"07700119","CS Pozo Borrado","Bv. La Reconquista s/n","Pozo Borrado",,,"No","Municipal","SAMCo. Ley Provincial 63/12",3323,"Pozo Borrado","9 De Julio","Rafaela","-28.93632","-61.7032"
346,"13300131","CS Pozo De Los Indios","RP 83 S - Km 101","Pozos De Los Indios","03482-490215",,"No","Municipal","Provincial- Decreto Nacional 939",4156,"Garabato","Vera","Reconquista","-28.95636","-60.24945"
897,"06309129","CS Presidente Raúl R Alfonsín","Roverano y Batalla de San Lorenzo","Santo Tomé","0342-4544522",,"No","Provincial","Dep. de SAMCo.",0154,"Santo Tomé","La Capital","Santa Fe","-31.676733333","-60.797316667"
475,"02100806","CS Presidente Roca","P. Pedro Torres 59","Presidente Roca","03492-482310",,"No","Municipal","SAMCo. Ley Provincial 63/12",2315,"Presidente Roca","Castellanos","Rafaela","-31.21288","-61.61265"
612,"08402634","CS Primero De Mayo","Juan de Dios Menna 2221","Rosario","0341-4558239",,"No","Municipal","Municipal/Comunal",0210,"Rosario","Rosario","Rosario","-32.887916666667","-60.711916666667"
146,"07000575","CS Progreso","J. M. Estrada 241","Progreso","03497-488448","samcoprogreso@hotmail.com","No","Municipal","Dep. de SAMCo.",3162,"Progreso","Las Colonias","Santa Fe","-31.13925","-60.98815"
147,"07000583","CS Providencia","Corrientes 526","Providencia","(03497) 492130","samcoprovidencia@yahoo.com","No","Provincial","SAMCo. Ley Provincial 63/12",3169,"Providencia","Las Colonias","Santa Fe","-30.98383","-61.02109"
189,"08402499","CS Pueblo Esther","J. D. Perón 1835","Pueblo Esther","03402/499678","cpesthersocial@gmail.com.ar","No","Provincial","SAMCo. Ley Provincial 63/12",3428,"Pueblo Esther","Rosario","Rosario","-33.07269","-60.57604"
180,"08401751","CS Pueblo Muñoz","Belgrano 310","Pueblo Muñoz (Est. Bernard)","03469-492025 ctx 6374","comunapueblomunoz@ri.com.ar","No","Provincial","SAMCo. Ley Provincial 63/12",3435,"Pueblo Muñoz (Est. Bernard)","Rosario","Rosario","-33.1716","-60.89666"
364,"10500236","CS Puerto Aragón","Germán Guena s/n","Puerto Aragon",,,"No","Municipal","Provincial- Decreto Nacional 939",3729,"Barrancas","San Jerónimo","Santa Fe","-32.24298","-60.92297"
94,"06301512","CS Puesto Sanitario Aeropuerto","Aeropuerto Sauce Viejo","Sauce Viejo","0342-4740064/6",,"No","Provincial","Provincial- Decreto Nacional 939",3029,"Sauce Viejo","La Capital","Santa Fe","-31.709300000","-60.805033333"
84,"06300567","CS Quilmes","Francia 4020 esquina Domingo Silva","Santa Fe","0342-4573799 Centrex 3799","capsquilmes@hotmail.com","No","Provincial","Provincial- Decreto Nacional 939",0147,"Santa Fe","La Capital","Santa Fe","-31.62756176352","-60.719039074824"
291,"11200082","CS Ramayón","Bvard. Estanislao López s/n","Ramayón","03498-497084-centex 2030",,"No","Municipal","SAMCo. Ley Provincial 63/12",3939,"Ramayón","San Justo","Santa Fe","-30.67381","-60.49995"
586,"08403678","CS Ramón Carrillo","Independencia y Juan B. Justo","Arroyo Seco","03400-430010","empleo@arroyoseco.gov.ar","No","Municipal","Municipal/Comunal",0182,"Arroyo Seco","Rosario","Rosario","-33.15088","-60.51473"
336,"12600386","CS Ramón Carrillo","Alte. Brown y Pte. Perón","San Jorge","(03406) 444299",,"No","Provincial","Provincial- Decreto Nacional 939",0315,"San Jorge","San Martín","Rosario","-31.89007","-61.86796"
459,"02100555","CS Ramona","Moreno 016","Ramona","03492/496442(com.)",,"No","Provincial","SAMCo. Ley Provincial 63/12",2329,"Ramona","Castellanos","Rafaela","-31.09196","-61.90112"
483,"02100938","CS Raquel","René Favaloro s/n","Colonia Raquel","03493-496002",,"No","Provincial","Provincial- Decreto Nacional 939",2196,"Colonia Raquel","Castellanos","Rafaela","-30.83625","-61.48903"
77,"06300478","CS Recreo","Av. Mitre y Cafferata","Recreo","0342-4960450 centrex 7015","samcorecreo@hotmail.com","No","Municipal","SAMCo. Ley Provincial 63/12",0144,"Recreo","La Capital","Santa Fe","-31.491700000","-60.736333333"
406,"06309369","CS Recreo Sur","Juan de Garay 5200","Recreo","0342-4905063-155134529",,"No","Municipal","Municipal/Comunal",0144,"Recreo","La Capital","Santa Fe","-31.533916667","-60.712683333"
596,"11900521","CS Remedios De Escalada","Pte. Roca 1621","San Lorenzo","03476-15637037",,"No","Municipal","Municipal/Comunal",0301,"San Lorenzo","San Lorenzo","Rosario","-32.74576","-60.73941"
65,"06300150","CS Rincón Norte N 13","RP 1 S Km. 12,5","Arroyo Leyes","342-4972411 Centrex 7811",,"No","Provincial","Provincial- Decreto Nacional 939",2959,"Arroyo Leyes","La Capital","Santa Fe","-31.564000000","-60.533300000"
1269,"06309838","CS Rincón Potreros","RP 1 S Km. 19 - Calle 112 B","Arroyo Leyes","0342-154065106-154795172",,"No","Provincial","Provincial- Decreto Nacional 939",2959,"Arroyo Leyes","La Capital","Santa Fe","-31.527516667","-60.481283333"
610,"11900688","CS Rómulo Zavalla","Laprida 268","Capitán Bermúdez","0341-4782129",,"No","Municipal","Municipal/Comunal",0266,"Capitán Bermúdez","San Lorenzo","Rosario","-32.802438935521","-60.724715548059"
613,"08403258","CS Roque Coulin","Humberto Primo 2033","Rosario","0341-4804819",,"No","Municipal","Municipal/Comunal",0210,"Rosario","Rosario","Rosario","-32.929916666667","-60.691805555556"
636,"08402553","CS Rubén Naranjo (Ex Las Heras)","Sánchez de Thompson 9 bis","Rosario","0341-4809190",,"No","Municipal","Municipal/Comunal",0210,"Rosario","Rosario","Rosario","-32.992555555556","-60.629555555556"
137,"07000478","CS Sa Pereira","9 de Julio 254","Sa Pereira","03404/494018, centrex: 6195","samcosapereira@hotmail.com","No","Municipal","SAMCo. Ley Provincial 63/12",3190,"Sa Pereira","Las Colonias","Santa Fe","-31.57127","-61.37682"
478,"02100857","CS Saguier","Buenos Aires y Santa Fe","Estación Saguier","03492/486038",,"No","Municipal","SAMCo. Ley Provincial 63/12",2336,"Estación Saguier","Castellanos","Rafaela","-31.32515","-61.66695"
514,"03500085","CS Saladero Cabal","Zona urbana","Saladero Mariano Cabal","03405-497706",,"No","Provincial","Provincial- Decreto Nacional 939",2560,"Saladero Mariano Cabal","Garay","Santa Fe","-30.8815","-60.04127"
694,"00700687","CS Salbor","Calle 28 1230","Las Parejas",,,"No","Municipal","Municipal/Comunal",0014,"Las Parejas","Belgrano","Rosario","-32.67527","-61.51497"
454,"02100504","CS Samco Zenón Pereyra","25 de Mayo 842","Zenón Pereyra","03564/492390",,"No","Municipal","SAMCo. Ley Provincial 63/12",2406,"Zenón Pereyra","Castellanos","Rafaela","-31.56016","-61.89508"
87,"06301351","CS San Agustín - La Capital","Teniente Loza 7100","Santa Fe","0342-4579299 centrex 9299","cssanagustin@santafe.gov.ar","No","Provincial","Provincial- Decreto Nacional 939",0147,"Santa Fe","La Capital","Santa Fe","-31.564728584618","-60.74367914694"
132,"07000427","CS San Agustín - Las Colonias","Santa Fe 1250","San Agustín","0342/4907431 centrex 2048","samcosanagustin@hotmail.com","No","Provincial","SAMCo. Ley Provincial 63/12",3197,"San Agustín","Las Colonias","Santa Fe","-31.68266","-60.9417"
479,"02100865","CS San Antonio","San Juan y San Martín","San Antonio","03492/491136",,"No","Provincial","SAMCo. Ley Provincial 63/12",2343,"San Antonio","Castellanos","Rafaela","-31.21179","-61.72516"
9,"04900338","CS San Antonio De Obligado","Zona urbana","San Antonio De Obligado","03482- 593100","caps_sanantonio@hotmail.com.ar","No","Provincial","Provincial- Decreto Nacional 939",2854,"San Antonio de Obligado","General Obligado","Reconquista","-28.38468","-59.26349"
388,"07700216","CS San Bernardo","RN 95 - Km 844","San Bernardo","(03491) 49-6180","saidaasan@hotmail.com","No","Provincial","Provincial- Decreto Nacional 939",3330,"San Bernardo","9 De Julio","Rafaela","-28.667867","-61.52962"
140,"07000508","CS San Carlos Norte","Carlos Bernard 431","San Carlos Norte","03404/456095","samco_scnorte@hotmail.com.ar","No","Municipal","SAMCo. Ley Provincial 63/12",3204,"San Carlos Norte","Las Colonias","Santa Fe","-31.673029879723","-61.074928481232"
141,"07000516","CS San Carlos Sur","9 de Julio 631","San Carlos Sud","03404 -  423046","samcosancarlossud@hotmail.com","No","Municipal","SAMCo. Ley Provincial 63/12",3211,"San Carlos Sud","Las Colonias","Santa Fe","-31.76174","-61.1023"
385,"06309401","CS San Cayetano","Pasaje 16 entre 27 y 29","Sauce Viejo","0342 155119936",,"No","Municipal","Municipal/Comunal",3029,"Sauce Viejo","La Capital","Santa Fe","-31.703483333","-60.786333333"
531,"04200280","CS San Eduardo","Urquiza 542","San Eduardo","03462/482093 - 441277","samcosaneduardo@hotmail.com","No","Provincial","SAMCo. Ley Provincial 63/12",2714,"San Eduardo","General López","Venado Tuerto","-33.87308","-62.09149"
582,"08403428","CS San Enrique","Rosario y Pasaje 4","Villa Gobernador Gálvez","0341-4920345",,"No","Municipal","Municipal/Comunal",0217,"Villa Gobernador Gálvez","Rosario","Rosario","-33.02874","-60.64243"
284,"10500562","CS San Eugenio","Zona urbana","San Eugenio","03404 - 486202","samcosaneugenio@hotmail.com				","No","Provincial","SAMCo. Ley Provincial 63/12",3834,"San Eugenio","San Jerónimo","Santa Fe","-32.07564","-61.11604"
275,"10500198","CS San Fabián","9 de Julio 359","San Fabián","03466/492129 centrex 6362",,"No","Municipal","SAMCo. Ley Provincial 63/12",3841,"San Fabián","San Jerónimo","Santa Fe","-32.13624","-60.98261"
541,"04200506","CS San Francisco De Santa Fe","Calle 5 Nº 346","San Francisco De Santa Fe","03462/481125","cssanfrancisco@outlook.com","No","Provincial","SAMCo. Ley Provincial 63/12",2721,"San Francisco de Santa Fe","General López","Venado Tuerto","-33.58863","-62.12333"
277,"10500228","CS San Genaro Norte","Santa Fe 435","San Genaro Norte","03401/493280","samcosangenaro@redcrs.com.ar","No","Municipal","SAMCo. Ley Provincial 63/12",0256,"San Genaro","San Jerónimo","Rosario","-32.36375","-61.33754"
129,"07000397","CS San Jerónimo Del Sauce","San José 725","San Jerónimo Del Sauce","03404- 495015","samcosjs@hotmail.com","No","Municipal","SAMCo. Ley Provincial 63/12",3218,"San Jerónimo del Sauce","Las Colonias","Santa Fe","-31.60821","-61.14303"
130,"07000401","CS San Jerónimo Norte","9 de Julio 702","San Jerónimo Norte","03404 - 460054","samcosjn@yahoo.com.ar","No","Municipal","SAMCo. Ley Provincial 63/12",3225,"San Jerónimo Norte","Las Colonias","Santa Fe","-31.55488","-61.08231"
312,"11900131","CS San Jerónimo Sur","Juan XXIII","San Jerónimo Sud","0341/4909519","loregilardoni@hotmail.es","No","Municipal","SAMCo. Ley Provincial 63/12",4023,"San Jerónimo Sud","San Lorenzo","Rosario","-32.87977","-61.02777"
66,"06300168","CS San José Del Rincón","Busaniche y San Martín","San José Del Rincón","(0342) 457-7713 ctrex 7713","samcodelrincon@hotmail.com","No","Municipal","Dep. de SAMCo.",3022,"San José del Rincón","La Capital","Santa Fe","-31.605483333","-60.572033333"
301,"11200309","CS San José Obrero","San Roque 2351","San Justo","03498-15460745","dispensario_sjobrero@hotmail.com","No","Provincial","SAMCo. Ley Provincial 63/12",0259,"San Justo","San Justo","Santa Fe","-30.7832487094","-60.589144419377"
548,"04201146","CS San José Obrero","Edison 2052","Venado Tuerto",,,"No","Municipal","Municipal/Comunal",0077,"Venado Tuerto","General López","Venado Tuerto","-33.74008439825","-61.984355638829"
554,"04201448","CS San José Urbano","Aldao s/n","Melincué",,,"No","Provincial","Provincial- Decreto Nacional 939",2693,"Melincué","General López","Venado Tuerto","-33.65078","-61.44449"
317,"11900360","CS San Juan Bautista","San Martín 1183","Ricardone","03476/492027",,"No","Provincial","Provincial- Decreto Nacional 939",4016,"Ricardone","San Lorenzo","Rosario","-32.77408","-60.78722"
24,"04900559","CS San Manuel","Zona urbana","La Sarita","03482-499024 ctx 8494","sanmanuel@hotmail.com","No","Provincial","SAMCo. Ley Provincial 63/12",2819,"La Sarita","General Obligado","Reconquista","-28.97054","-59.84867"
138,"07000486","CS San Mariano","Brigadier E. López s/n","San Mariano","03404/452023",,"No","Municipal","SAMCo. Ley Provincial 63/12",3232,"San Mariano","Las Colonias","Santa Fe","-31.66865","-61.34869"
836,"08417547","CS San Martin - Rosario","Chubut 7145","Rosario","0341/4807800",,"No","Municipal","Municipal/Comunal",0210,"Rosario","Rosario","Rosario","-32.945777777778","-60.717583333333"
100,"06301717","CS San Martin De Porres","Fdo. Zuviria 8002","Santa Fe","0342/4579214 Centrex:9214-",,"No","Provincial","Provincial- Decreto Nacional 939",0147,"Santa Fe","La Capital","Santa Fe","-31.592765574372","-60.699185693979"
1251,"13300947","CS San Martin De Porres","La Rioja 2455","Vera",,,"No","Provincial","Provincial- Decreto Nacional 939",0336,"Vera","Vera","Reconquista","-29.470732088578","-60.222223296513"
293,"11200121","CS San Martin Norte","Zona urbana","San Martín Norte","03498-154744473 (medica)",,"No","Municipal","Provincial- Decreto Nacional 939",3953,"San Martín Norte","San Justo","Santa Fe","-30.3463","-60.30312"
578,"08403380","CS San Martin- Vgg","Suipacha 3000","Villa Gobernador Gálvez","03414920344",,"No","Municipal","Municipal/Comunal",0217,"Villa Gobernador Gálvez","Rosario","Rosario","-33.03664","-60.65282"
399,"10500431","CS San Pantaleón","Güemes s/n","Coronda","0342-4910315",,"No","Municipal","Municipal/Comunal",0245,"Coronda","San Jerónimo","Santa Fe","-31.968263999675","-60.922667787207"
257,"09800145","CS San Roque","Zona rural","Colonia Durán",,,"No","Provincial","Provincial- Decreto Nacional 939",3701,"Colonia Durán","San Javier","Reconquista","-29.5493","-59.92638"
608,"11900335","CS San Sebastián","RP 18 S y Vías Ferrocarril","Puerto General San Martín","03476-429023",,"No","Municipal","Municipal/Comunal",0287,"Puerto General San Martín","San Lorenzo","Rosario","-32.71147","-60.76586"
415,"04201197","CS San Vicente","Goumond 1495","Venado Tuerto","03462-438432",,"No","Municipal","Municipal/Comunal",0077,"Venado Tuerto","General López","Venado Tuerto","-33.734036710053","-61.986408280256"
638,"08402600","CS San Vicente De Paul","Punta de Indio 7760","Rosario","0341-4809765",,"No","Municipal","Municipal/Comunal",0210,"Rosario","Rosario","Rosario","-33.028","-60.687277777778"
442,"01400156","CS Sanford","España 544","Sanford","03464/496295","samcosanford@hotmail.com","No","Municipal","SAMCo. Ley Provincial 63/12",2098,"Sanford","Caseros","Rosario","-33.14341","-61.2791"
34,"04900729","CS Santa Ana","RP 31 S Km. 14","Santa Ana",,,"No","Provincial","Provincial- Decreto Nacional 939",0091,"Avellaneda","General Obligado","Reconquista","-28.96876","-59.64261"
347,"13300149","CS Santa Lucia","Zona rural","Santa Lucía",,,"No","Provincial","Provincial- Decreto Nacional 939",0336,"Vera","Vera","Reconquista","-29.24554","-60.30338"
655,"08405107","CS Santa Lucia - Rosario","Calle 1739 7691","Rosario","0341/4807841",,"No","Municipal","Municipal/Comunal",0210,"Rosario","Rosario","Rosario","-32.955333","-60.726917"
158,"07700062","CS Santa Margarita","Fray Esquiú s/n","Santa Margarita",,,"No","Municipal","SAMCo. Ley Provincial 63/12",3337,"Santa Margarita","9 De Julio","Rafaela","-28.31399","-61.54828"
629,"08402596","CS Santa María Josefa Rosello","Dr. Rodolfo Rivarola 7100","Rosario","0341/4807845",,"No","Municipal","Municipal/Comunal",0210,"Rosario","Rosario","Rosario","-32.965916666667","-60.716555555556"
254,"09800111","CS Santa Rosa (Barrio Pizarro)","Cacique Aletín s/n Barrio Pizzarro","San Javier",,,"No","Provincial","Provincial- Decreto Nacional 939",0238,"San Javier","San Javier","Santa Fe","-30.5725","-59.9378"
884,"13300874","CS Santa Rosa De Lima","Juana Azurduy 3490","Vera",,,"No","Provincial","Provincial- Decreto Nacional 939",0336,"Vera","Vera","Reconquista","-29.445959267258","-60.210441152019"
499,"02800123","CS Santa Teresa","San Martín 575","Santa Teresa","03460-420153","samcosantateresa@gmail.com","No","Municipal","SAMCo. Ley Provincial 63/12",2518,"Santa Teresa","Constitución","Rosario","-33.436648","-60.790384"
650,"08402618","CS Santa Teresita","Calle 1218 4740","Rosario","0341-4809195",,"No","Municipal","Municipal/Comunal",0210,"Rosario","Rosario","Rosario","-32.983306","-60.676333"
383,"03500115","CS Santa Teresita","Bs. As. Esq. Conquista del Desierto","Helvecia",,,"No","Provincial","Provincial- Decreto Nacional 939",2553,"Helvecia","Garay","Santa Fe","-31.10517","-60.09534"
367,"09100542","CS Santurce","Zona urbana","Santurce","03408-427100 (comuna)",,"No","Provincial","Provincial- Decreto Nacional 939",3652,"Santurce","San Cristóbal","Rafaela","-30.18665","-61.18157"
501,"02800158","CS Sargento Cabral","San Nicolás 346","Sargento Cabral","03460/491306","comunasgtocabral@ri.com.ar","No","Municipal","SAMCo. Ley Provincial 63/12",2525,"Sargento Cabral","Constitución","Rosario","-33.43067","-60.62943"
97,"06301636","CS Sarmiento Juventud Unidad Del Norte","Gdor. R. Lehman 7695 Bº Sarmiento","Santa Fe","0342-4579290 ctx 9290",,"No","Provincial","Provincial- Decreto Nacional 939",0147,"Santa Fe","La Capital","Santa Fe","-31.589801684018","-60.729955247743"
46,"05600150","CS Serodino","Acerecho 902","Serodino","03476/490700","comunadeserodino@arnet.com.ar","No","Municipal","SAMCo. Ley Provincial 63/12",2938,"Serodino","Iriondo","Rosario","-32.60991","-60.94517"
117,"06302365","CS Setúbal","Rio Bamba y French","Santa Fe","0342-4579038 ctx 9038","cssetubal@santafe.gov.ar","No","Provincial","Provincial- Decreto Nacional 939",0147,"Santa Fe","La Capital","Santa Fe","-31.598233330","-60.664616670"
13,"04900371","CS Siete Provincias","Paraje Siete Provincias","Lanteri","(03482) 15614238",,"No","Provincial","Provincial- Decreto Nacional 939",2826,"Lanteri","General Obligado","Reconquista","-28.83555","-59.6592"
588,"08403708","CS Soldini","San Martín 1256","Soldini","0341-4901663","comunadesoldini@yahoo.com.ar","No","Municipal","Municipal/Comunal",3442,"Soldini","Rosario","Rosario","-33.02344","-60.75538"
220,"09100011","CS Soledad","Bv. Eva Perón s/n","Soledad","(03498) 498104",,"No","Municipal","Provincial- Decreto Nacional 939",3659,"Soledad","San Cristóbal","Santa Fe","-30.6193","-60.9158"
641,"08404429","CS Sur- Rosario","Batalla de Ayacucho 6300","Rosario","0341-4809771",,"No","Municipal","Municipal/Comunal",0210,"Rosario","Rosario","Rosario","-33.00954","-60.63578"
366,"02100881","CS Susana","Cabildo y San Martín","Susana"," 03492-482310",,"No","Provincial","Provincial- Decreto Nacional 939",2364,"Susana","Castellanos","Rafaela","-31.35597","-61.51449"
403,"07000133","CS Telmo Emilio Albrecht (Ex Nro 6)","9 de Julio 8076","Franck",,,"No","Municipal","Municipal/Comunal",3078,"Franck","Las Colonias","Santa Fe","-31.57891","-60.93837"
503,"02800174","CS Theobald","Av. Rosario s/n","Theobald","03400-491819","comunatheobald@intercom.com.ar","No","Provincial","Provincial- Decreto Nacional 939",2532,"Theobald","Constitución","Rosario","-33.31091","-60.31164"
656,"08405182","CS Tío Rolo","Nicolás Avellaneda 6935","Rosario","0341-4809524",,"No","Municipal","Municipal/Comunal",0210,"Rosario","Rosario","Rosario","-33.01905","-60.68912"
414,"04201138","CS Tiro Federal","Chile 1350","Venado Tuerto","03462-433680",,"No","Municipal","Municipal/Comunal",0077,"Venado Tuerto","General López","Venado Tuerto","-33.762979871225","-61.966919394602"
338,"13300033","CS Toba","Zona urbana","Toba",,,"No","Provincial","Provincial- Decreto Nacional 939",4205,"Toba","Vera","Reconquista","-29.26529","-60.17095"
590,"08404593","CS Uranga","San Luís 240","Uranga","03469-490248","comdeuranga@ri.com.ar","No","Municipal","Municipal/Comunal",3449,"Uranga","Rosario","Rosario","-33.26419","-60.70849"
640,"08404437","CS Vecinal 20 De Junio (Ex Tiro Suizo)","Marguis 5115","Rosario","0341/4809766",,"No","Municipal","Municipal/Comunal",0210,"Rosario","Rosario","Rosario","-32.997528","-60.657861"
829,"08417484","CS Vecinal Amor Al Estudio","Junín 1684","Rosario","0341-4393937",,"No","Municipal","Municipal/Comunal",0210,"Rosario","Rosario","Rosario","-32.926833333333","-60.686583333333"
831,"08417502","CS Vecinal Ángel Invaldi","Ecuador 645 Bis","Rosario",,,"No","Municipal","Municipal/Comunal",0210,"Rosario","Rosario","Rosario","-32.921194444444","-60.715805555556"
627,"08402723","CS Vecinal Antonio Paravano","Burucuya 929 bis","Rosario",,,"No","Municipal","Municipal/Comunal",0210,"Rosario","Rosario","Rosario","-32.917638888889","-60.71475"
150,"07000753","CS Vecinal Barrio Norte","Sarmiento 3446","Esperanza","03496-422189 centrex 7148",,"No","Provincial","Provincial- Decreto Nacional 939",0161,"Esperanza","Las Colonias","Santa Fe","-31.437254815143","-60.927851337457"
635,"08404267","CS Vecinal Barrio Plata","La Madrid 3311","Rosario","0341-4809768",,"No","Municipal","Municipal/Comunal",0210,"Rosario","Rosario","Rosario","-32.998028","-60.680889"
637,"08403029","CS Vecinal Domingo Matheu","Corrientes 3880","Rosario","0341/4809769",,"No","Municipal","Municipal/Comunal",0210,"Rosario","Rosario","Rosario","-32.981638888889","-60.651416666667"
626,"08402774","CS Vecinal Julio A Roca","V. Deliot 5323","Rosario","0341/4805859",,"No","Municipal","Municipal/Comunal",0210,"Rosario","Rosario","Rosario","-32.974944444444","-60.694944444444"
643,"08404402","CS Vecinal San Martin A","Piedras 1469","Rosario","0341-4809521",,"No","Municipal","Municipal/Comunal",0210,"Rosario","Rosario","Rosario","-33.007138888889","-60.654111111111"
51,"05600397","CS Víctor Rossi","J. B. Justo 331","Cañada De Gómez",,,"No","Provincial","Provincial- Decreto Nacional 939",0126,"Cañada de Gómez","Iriondo","Rosario","-32.824139575589","-61.407683370833"
295,"11200147","CS Videla","San Martín 437","Videla","03498/490289",,"No","Municipal","SAMCo. Ley Provincial 63/12",3974,"Videla","San Justo","Santa Fe","-30.94598","-60.65171"
481,"02100903","CS Vila","Dr. Romero Acuña 155","Vila","03492/493350",,"No","Provincial","SAMCo. Ley Provincial 63/12",2385,"Vila","Castellanos","Rafaela","-31.18891","-61.83245"
569,"04201464","CS Villa Casey","Mariano López 1300","Venado Tuerto",,,"No","Municipal","Municipal/Comunal",0077,"Venado Tuerto","General López","Venado Tuerto","-33.710659810756","-61.962146656372"
599,"11900556","CS Villa Felisa","Ing. White y Pje","San Lorenzo",,,"No","Municipal","Municipal/Comunal",0301,"San Lorenzo","San Lorenzo","Rosario","-32.76396","-60.73886"
607,"11900327","CS Villa Flores","Av. Central y Larrea","Roldán","0341-4960202",,"No","Municipal","Municipal/Comunal",0294,"Roldán","San Lorenzo","Rosario","-32.90982","-60.89565"
681,"06309385","CS Villa Obrero","Villa Obrera","Laguna Paiva",,,"No","Municipal","Municipal/Comunal",0140,"Laguna Paiva","La Capital","Santa Fe","-31.30254","-60.6538"
223,"09100046","CS Villa Saralegui","Zona urbana","Villa Saralegui","03498-427911 (comuna)","leonardoortiz17@hotmail.com","No","Provincial","Provincial- Decreto Nacional 939",3673,"Villa Saralegui","San Cristóbal","Santa Fe","-30.53938","-60.74824"
628,"08403011","CS Villa Urquiza","Ocampo 5579","Rosario","(0341) 155115168",,"No","Municipal","Municipal/Comunal",0210,"Rosario","Rosario","Rosario","-32.957722222222","-60.701361111111"
875,"11901556","CS Virgen De Itatí- San Lorenzo","Belgrano y J. Valle","San Lorenzo","03476-422812",,"No","Municipal","Municipal/Comunal",0301,"San Lorenzo","San Lorenzo","Rosario","-32.74685","-60.74658"
482,"02100920","CS Virginia","Valentina Maldonado s/n","Virginia","03493/492604",,"No","Municipal","SAMCo. Ley Provincial 63/12",2399,"Virginia","Castellanos","Rafaela","-30.7396","-61.33946"
725,"08401581","Destacamento II Gendarmería Nacional","San Martín 2851","Rosario","0341-4820993",,"No","FFAA","No definido",0210,"Rosario","Rosario","Rosario","-32.97075","-60.642805555556"
1330,"06309865","División De Asuntos Juveniles","Entre Ríos 2610","Santa Fe","(0342) 4506600 int 1392",,"No","Provincial","Provincial- Decreto Nacional 939",0147,"Santa Fe","La Capital","Santa Fe","-31.66011","-60.71062"
802,"08403541","Escuela Nro 1078 J Kennedy","Abanderado Grandoli y Gutierrez","Rosario","0341-4729682 Ctrex: 9682",,"No","Provincial","Provincial- Decreto Nacional 939",0210,"Rosario","Rosario","Rosario","-32.993389","-60.62875"
803,"08403550","Escuela Nro 109 Chassaing Juan","Sucre 1459","Rosario","0341-4724510 Ctrex: 4510",,"No","Provincial","Provincial- Decreto Nacional 939",0210,"Rosario","Rosario","Rosario","-32.94525","-60.692055555556"
810,"08403622","Escuela Nro 1275 Fray Luis Beltrán-Cs Nro 3 - 7 De Septiembre","A. Gauna 7951","Rosario","0341-4807541",,"No","Provincial","Provincial- Decreto Nacional 939",0210,"Rosario","Rosario","Rosario","-32.912527777778","-60.734138888889"
801,"08403533","Escuela Nro 2050 Diferencial.","Montevideo 6500","Rosario","0341-4727598 Ctrex: 7598",,"No","Provincial","Provincial- Decreto Nacional 939",0210,"Rosario","Rosario","Rosario","-32.947361111111","-60.709916666667"
823,"11900378","Escuela Nro 223 Tte. Gral. Richieri","Presidente Perón 179","Capitán Bermúdez","0341-4913258",,"No","Provincial","Dep. de SAMCo.",0266,"Capitán Bermúdez","San Lorenzo","Rosario","-32.82226921682","-60.717313546941"
787,"08401051","Escuela Nro 616 República De Venezuela","Pedro Linos Funes 1462","Rosario","0341-4566250",,"No","Provincial","Provincial- Decreto Nacional 939",0210,"Rosario","Rosario","Rosario","-32.944917","-60.701"
804,"08403568","Escuela Nro 91 EE.UU. Del Brasil","Pcias. Unidas 1269","Rosario","0341-4566250 Ctrex:7575",,"No","Provincial","Provincial- Decreto Nacional 939",0210,"Rosario","Rosario","Rosario","-32.943194444444","-60.712611111111"
168,"08400101","Hospital Anselmo Gamen","Balcarce 1355","Villa Gobernador Gálvez","0341-4921222-4921874","hospitalgamen@yahoo.com.ar","Si","Provincial","SAMCo. Ley Provincial 63/12",0217,"Villa Gobernador Gálvez","Rosario","Rosario","-33.023417","-60.631194"
304,"11900041","Hospital Carlos Goytia","Av. J. B. Alberdi 1949","Carcarañá","0341/4941104 centrex 4669","samcocarca@lq.com.ar","Si","Municipal","SAMCo. Ley Provincial 63/12",0273,"Carcarañá","San Lorenzo","Rosario","-32.86387","-61.14317"
318,"12600033","Hospital Carlos Pellegrini Dr. Julio Cortes Belascuen","San Martín 721","Carlos Pellegrini","03401- 480217 ctx 6147","samcocp@carpell.com.ar","Si","Municipal","SAMCo. Ley Provincial 63/12",4051,"Carlos Pellegrini","San Martín","Rosario","-32.04742","-61.78458"
658,"08402065","Hospital De Emergencias Dr. Clemente Álvarez","Pellegrini Carlos 3205","Rosario","0341-4808111",,"Si","Municipal","Municipal/Comunal",0210,"Rosario","Rosario","Rosario","-32.952027777778","-60.669694444444"
121,"06309362","Hospital De Niños Dr. Orlando Alassia","Mendoza 4151-4562224","Santa Fe","4505900/63/12/49","hospitalalassiareemplazo@yahoo.com.ar","Si","Provincial","Descentralizado - Ley Prov. 10608",0147,"Santa Fe","La Capital","Santa Fe","-31.64399787905","-60.727398178814"
657,"08402057","Hospital De Niños Vilela","Virasoro 1855","Rosario","0341-4808133 / 4808125",,"Si","Municipal","Municipal/Comunal",0210,"Rosario","Rosario","Rosario","-32.968","-60.654527777778"
181,"08401824","Hospital De Niños Zona Norte","A. de los Trabajadores 1331","Rosario","0341-4724661/4648/4659","hospitalzonanorte@cablenet.com.ar","Si","Provincial","Descentralizado - Ley Prov. 10608",0210,"Rosario","Rosario","Rosario","-32.912138888889","-60.681805555556"
74,"06300311","Hospital De Rehabilitación Dr. Vera Candioti","Monseñor Zaspe 3738","Santa Fe","4573500-4573940","hospitalveracandioti@cuidad.com.ar","Si","Provincial","Descentralizado - Ley Prov. 10608",0147,"Santa Fe","La Capital","Santa Fe","-31.653473548016","-60.724346935912"
72,"06300281","Hospital Dr. J B Iturraspe","Bv. Pellegrini 3551","Santa Fe","0342-4575712/13/17","personal_iturraspe@yahoo.com.ar","Si","Provincial","Descentralizado - Ley Prov. 10608",0147,"Santa Fe","La Capital","Santa Fe","-31.632912401342","-60.715659342317"
71,"06300273","Hospital Dr. José María Cullen","Av. Freyre 2150","Santa Fe","4573357/51/66/45","direccion@hospitalcullen.org.ar","Si","Provincial","Descentralizado - Ley Prov. 10608",0147,"Santa Fe","La Capital","Santa Fe","-31.648532823241","-60.719606015019"
663,"08402278","Hospital Dr. Juan Bautista Alberdi","Av. Puccio575","Rosario",,,"Si","Municipal","Municipal/Comunal",0210,"Rosario","Rosario","Rosario","-32.894472","-60.690639"
5,"04900273","Hospital Dra. Olga Stucky","Hipólito Irigoyen 1580","Reconquista","03482/420012/42-429017","centralturnos@hotmail.com","Si","Provincial","Descentralizado - Ley Prov. 10608",0112,"Reconquista","General Obligado","Reconquista","-29.15253","-59.65736"
167,"08400097","Hospital Eva Perón","RP 11 S y Eva Perón","Granadero Baigorria","0341/4710962/940 4711881",,"Si","Provincial","Descentralizado - Ley Prov. 10608",0196,"Granadero Baigorria","Rosario","Rosario","-32.85644","-60.70468"
271,"10500147","Hospital Federico Meroi","Bv. Sarmiento 84","Maciel","03476/470240 centrex 6407","samcomaciel@yahoo.com.ar","Si","Municipal","SAMCo. Ley Provincial 63/12",3820,"Maciel","San Jerónimo","Rosario","-32.46265","-60.88821"
73,"06300303","Hospital General Polivalente Dr. Mira y López","Blas Parera 8430","Santa Fe","4579224/25/29/36/39/61",,"Si","Provincial","Descentralizado - Ley Prov. 10608",0147,"Santa Fe","La Capital","Santa Fe","-31.582613868889","-60.72651102558"
175,"08400747","Hospital Geriátrico","Ayolas 141","Rosario","0341/4729182/83/84"," hgprosario@yahoo.com.ar","Si","Provincial","Descentralizado - Ley Prov. 10608",0210,"Rosario","Rosario","Rosario","-32.979166666667","-60.632388888889"
659,"08402090","Hospital Intendente Gabriel Carrasco","Nicolás Avellaneda 1402","Rosario","0341-4804155",,"Si","Municipal","Municipal/Comunal",0210,"Rosario","Rosario","Rosario","-32.9465","-60.681138888889"
533,"04200310","Hospital Miguel Rueda","Misiones 1349","Santa Isabel","03462/490150, centrex: 6298",,"Si","Provincial","No definido",2742,"Santa Isabel","General López","Venado Tuerto","-33.88729","-61.68704"
149,"07000630","Hospital Pedro Suchon","P. Suchón 2351","San Carlos Centro","03404/420018, centrex: 6175","hospitalsuchon@santafe.gov.ar","Si","Municipal","SAMCo. Ley Provincial 63/12",0168,"San Carlos Centro","Las Colonias","Santa Fe","-31.74628","-61.09055"
63,"06300133","Hospital Protomédico Manuel Rodríguez","RP 5 S","Campo Crespo","0342/4574921/2/5/6 Cetrex 4921","estadistica_protomedico@yahoo.com.ar","Si","Provincial","Descentralizado - Ley Prov. 10608",0144,"Recreo","La Capital","Santa Fe","-31.545333333","-60.724583333"
184,"08402120","Hospital Provincial","Leandro Alem 1450","Rosario","(0341)4721111/1114/1501/1533","direccion@hosprovros.org.ar","Si","Provincial","Descentralizado - Ley Prov. 10608",0210,"Rosario","Rosario","Rosario","-32.956277777778","-60.630361111111"
183,"08402111","Hospital Provincial Centenario","Urquiza 3101","Rosario","0341-4724691-53-49-472","direccionhpc@santafe.gov.ar","Si","Provincial","Provincial- Decreto Nacional 939",0210,"Rosario","Rosario","Rosario","-32.938055555556","-60.66475"
354,"13300211","Hospital Rural Dr. Sergio Ros Del Wueski","Zona urbana","Los Amores","03482-490447 ctx 5047","slpdn2010@hotmail.com","Si","Municipal","SAMCo. Ley Provincial 63/12",4184,"Los Amores","Vera","Reconquista","-28.10195","-59.97696"
434,"01400041","Hospital San Carlos","Boulevard 9 de Julio 2351","Casilda","03464/422107-422382","sancarlos@dat1.net.ar","Si","Provincial","Descentralizado - Ley Prov. 10608",0028,"Casilda","Caseros","Rosario","-33.036407533965","-61.157442069237"
64,"06300141","Hospital Sayago","Blas Parera 8262","Santa Fe","0342-4579226-37",,"Si","Provincial","Descentralizado - Ley Prov. 10608",0147,"Santa Fe","La Capital","Santa Fe","-31.58521485233","-60.726032730331"
899,"08422857","Hospital Eva Perón","Av. San Martín 1645","Granadero Baigorria","0341-4710940 Int. 263",,"No","Provincial","Provincial- Decreto Nacional 939",0196,"Granadero Baigorria","Rosario","Rosario","-32.85648","-60.70446"
660,"08402286","Hospital Roque Sáenz Peña","Laprida 5350","Rosario","0341-4809144",,"Si","Municipal","Municipal/Comunal",0210,"Rosario","Rosario","Rosario","-32.999277777778","-60.647111111111"
38,"05600079","Hospital San José","Urquiza 750","Cañada De Gómez","03471/422014 centrex 6377","hospitalsjcgomez@gmail.com","Si","Provincial","Descentralizado - Ley Prov. 10608",0126,"Cañada de Gómez","Iriondo","Rosario","-32.829621432244","-61.394877838419"
661,"08402154","Instituto De Lucha Antipoliomielitica Y Rehabilitación Del Lisiado (Ilar)","Ocampo 1498","Rosario","0341-4815540/85",,"Si","Municipal","Municipal/Comunal",0210,"Rosario","Rosario","Rosario","-32.965444444444","-60.64875"
878,"06307743","Laboratorio Central De Detección De Enfermedades C","Bv. Gálvez 1553 Planta Baja","Santa Fe","0342-4573524","pesneostf@gmail.com","No","Provincial","Provincial- Decreto Nacional 939",0147,"Santa Fe","La Capital","Santa Fe","-31.638084896112","-60.691761974791"
1250,"06309802","Laboratorio Central De Procesamiento De Papanicolaou Dr. Daniel Rocco","Bv. Zavalla 3361 2do Piso ala sur","Santa Fe","0342-4572476-78 int 201",,"No","Provincial","Provincial- Decreto Nacional 939",0147,"Santa Fe","La Capital","Santa Fe","-31.634324155344","-60.716824473747"
760,"06300796","Laboratorio Industrial Farmacéutico","Blas Parera 8260","Santa Fe",,,"No","Provincial","Provincial- Decreto Nacional 939",0147,"Santa Fe","La Capital","Santa Fe","-31.58521485233","-60.726032730331"
662,"08402235","Maternidad Martín","Moreno 950","Rosario",,"cberton0@rosario.com.ar","Si","Municipal","Municipal/Comunal",0210,"Rosario","Rosario","Rosario","-32.946083333333","-60.651027777778"
1338,"06309883","Pabellón Juvenil Cárcel De Las Flores","Blas Parera 8800","Santa Fe",,"vanesa.amarilla@hotmail.com","No","Provincial","Provincial- Decreto Nacional 939",0147,"Santa Fe","La Capital","Santa Fe","-31.57833","-60.7303"
682,"08402626","Rosario, Centro De Salud Hogar Del Huérfano.","Laprida 2300","Rosario",,,"No","Municipal","Municipal/Comunal",0210,"Rosario","Rosario","Rosario","-32.964861","-60.638694"
431,"01400016","SAMCo  Geriátrico Arequito","Dr. J. Manino 2080","Arequito","03464/471184 centrex 6310","samco@godata.com.ar","Si","Municipal","SAMCo. Ley Provincial 63/12",2028,"Arequito","Caseros","Rosario","-33.15043","-61.47712"
530,"04200255","SAMCo  Hospital Rufino","Alem Vieyra 1261,","Rufino","03382/428408-","dariozapata114@hotmail.com","Si","Municipal","SAMCo. Ley Provincial 63/12",0070,"Rufino","General López","Venado Tuerto","-34.27416","-62.71605"
163,"08400011","SAMCo Acebal María Saa Pereyra","A. del Valle 303","Acebal","03469/420160centrex: 6367","samcoacebal@hotmail.com","Si","Municipal","SAMCo. Ley Provincial 63/12",3351,"Acebal","Rosario","Rosario","-33.24017","-60.82988"
488,"02800018","SAMCo Alcorta Dr. J. J . Maiztegui","9 de Julio 1078","Alcorta","03465/470257 centrex 6322","samcoalcorta@dat1.net.ar","Si","Municipal","SAMCo. Ley Provincial 63/12",2413,"Alcorta","Constitución","Rosario","-33.54073","-61.11729"
247,"09800013","SAMCo Alejandra","9 de Julio 1260","Alejandra","03405/492063,centrex: 6223","samcoalejandra@gmail.com","Si","Municipal","SAMCo. Ley Provincial 63/12",3687,"Alejandra","San Javier","Reconquista","-29.91079","-59.82654"
164,"08400020","SAMCo Álvarez","Salta 880","Álvarez","03402/461030 centrex 6166","samcoalvarez@yahoo.com.ar","Si","Municipal","SAMCo. Ley Provincial 63/12",3365,"Álvarez","Rosario","Rosario","-33.13226","-60.80557"
227,"09100178","SAMCo Ambrosetti","Doctor Oscar Ramírez 292","Ambrosetti","03491/492019, centrex 6494",,"No","Municipal","SAMCo. Ley Provincial 63/12",3484,"Ambrosetti","San Cristóbal","Rafaela","-30.013146791732","-61.577441251569"
425,"00700016","SAMCo Armstrong","Pje. Pedro Rolando 1602","Armstrong","03471/461342 centrex 6389","samcoarmstrong@yahoo.com.ar","Si","Municipal","SAMCo. Ley Provincial 63/12",0007,"Armstrong","Belgrano","Rosario","-32.78819","-61.60404"
225,"09100119","SAMCo Arrufo","Dr. Iglesias 323","Arrufó","03491/493321","hospitalarrufo@hotmail.com","Si","Municipal","SAMCo. Ley Provincial 63/12",3491,"Arrufó","San Cristóbal","Rafaela","-30.2309","-61.7293"
443,"01400288","SAMCo Arteaga Dr. Adolfo Mario Vittori","Belgrano 387","Arteaga","03467/450369 centrex 6351","samcoarteaga@hotmail.com.ar","Si","Municipal","SAMCo. Ley Provincial 63/12",2035,"Arteaga","Caseros","Rosario","-33.09204","-61.79418"
233,"09100364","SAMCo Barón Hirsch","Zona urbana","Moisés Ville","03409/420011- Centrex 6245",,"Si","Municipal","Descentralizado - Ley Prov. 10608",3603,"Moisés Ville","San Cristóbal","Rafaela","-30.71348","-61.47782"
264,"10500023","SAMCo Barrancas","Dr. Agote 132","Barrancas","03466/420217 - 420220","samcobarrancas@cosmol.com.ar","Si","Municipal","SAMCo. Ley Provincial 63/12",3729,"Barrancas","San Jerónimo","Santa Fe","-32.22897","-60.98232"
432,"01400024","SAMCo Berabevu","E. Ganavelli 215","Berabevú","03465/494105, centrex: 6330","samcoberabevu@hotmail.com","Si","Municipal","SAMCo. Ley Provincial 63/12",2042,"Berabevú","Caseros","Venado Tuerto","-33.33655","-61.86155"
433,"01400032","SAMCo Bigand Alfredo Berraz","San Martín 1088","Bigand","03464/461028 centrex 6307","samcobigand@hotmail.com","Si","Municipal","SAMCo. Ley Provincial 63/12",2049,"Bigand","Caseros","Rosario","-33.37475","-61.18022"
489,"02800026","SAMCo Bombal","Altamirano 567","Bombal","03465/497039","samcobombal@gmail.com","Si","Municipal","SAMCo. Ley Provincial 63/12",2420,"Bombal","Constitución","Venado Tuerto","-33.42923","-61.32023"
426,"00700041","SAMCo Bouquet","3 de Febrero 210","Bouquet","03471/496376","samcobouquet@hotmail.com","Si","Municipal","SAMCo. Ley Provincial 63/12",2007,"Bouquet","Belgrano","Rosario","-32.425139526649","-61.886840440109"
35,"05600036","SAMCo Bustinza","Camino de La Posta 365","Bustinza","03471/497176","samcodebustinza@hotmail.com","No","Municipal","SAMCo. Ley Provincial 63/12",2882,"Bustinza","Iriondo","Rosario","-32.73813","-61.28883"
322,"12600076","SAMCo Cañada Rosquín","Sarmiento 150","Cañada Rosquín","03401/470275 centrex 6144","hospital@velosat.com.ar","Si","Municipal","SAMCo. Ley Provincial 63/12",4044,"Cañada Rosquín","San Martín","Rosario","-32.049761197637","-61.596173367513"
560,"04900168","SAMCo Carlos Harteneck","Estanislao López 500","Villa Guillermina","03482/475000","samcovgna@hotmail.com","Si","Municipal","SAMCo. Ley Provincial 63/12",2875,"Villa Guillermina","General Obligado","Reconquista","-28.24052","-59.44903"
319,"12600041","SAMCo Casas","General López 340","Casas","03401/494024","samcocasas@gmail.com","No","Municipal","SAMCo. Ley Provincial 63/12",4058,"Casas","San Martín","Rosario","-32.1248","-61.54204"
320,"12600050","SAMCo Castelar","Belgrano s/n","Castelar","03564/497028 (Comuna)","comunadecastelar@yahoo.com.ar","No","Municipal","SAMCo. Ley Provincial 63/12",4065,"Castelar","San Martín","Rosario","-31.66674","-62.0891"
507,"03500018","SAMCo Cayasta","Álvaro Gil s/n","Cayastá","03405/493011, centrex: 6226","samcocayasta09@yahoo.com.ar","Si","Provincial","SAMCo. Ley Provincial 63/12",2539,"Cayastá","Garay","Santa Fe","-31.20171","-60.16384"
226,"09100135","SAMCo Ceres","Av. Bernardo de Irigoyen y Alem","Ceres","03491/420039/260 Centre6474","samcoceres@hotmail.com","Si","Municipal","SAMCo. Ley Provincial 63/12",0224,"Ceres","San Cristóbal","Rafaela","-29.87764","-61.94551"
436,"01400091","SAMCo Chañar Ladeado","Santa Fe 268","Chañar Ladeado","03468/481216 ctx 6360","samcochl@futurnet.com.ar","Si","Municipal","SAMCo. Ley Provincial 63/12",2063,"Chañar Ladeado","Caseros","Venado Tuerto","-33.32198","-62.04102"
321,"12600068","SAMCo Colonia Belgrano","Belgrano 1145","Colonia Belgrano","03404/496173","samc@setelbel.com.ar","No","Municipal","SAMCo. Ley Provincial 63/12",4072,"Colonia Belgrano","San Martín","Rosario","-31.90893","-61.40064"
267,"10500074","SAMCo Coronda","España 2307","Coronda","0342/49100307-1807-1807-2430","samcocoronda@yahoo.com.ar","Si","Municipal","SAMCo. Ley Provincial 63/12",0245,"Coronda","San Jerónimo","Santa Fe","-31.979743187232","-60.915695638044"
305,"11900050","SAMCo Coronel Arnold","Sarmiento 601","Coronel Arnold","0341/4902337-4902389"," samcocoronelarnold@dat1.net.ar","No","Provincial","SAMCo. Ley Provincial 63/12",3988,"Coronel Arnold","San Lorenzo","Rosario","-33.1052","-60.96683"
169,"08400127","SAMCo Coronel Bogado","9 de Julio y Moreno","Coronel Bogado","03402/491200","samco_cnelbogado@hotmail.com","No","Municipal","SAMCo. Ley Provincial 63/12",3393,"Coronel Bogado","Rosario","Rosario","-33.31452","-60.60415"
335,"12600211","SAMCo Crispi","Garoni y Lombardía","Crispi","03406/493010 Cabina Publica","comunacrispi@trynet.com.ar","No","Municipal","SAMCo. Ley Provincial 63/12",4079,"Crispi","San Martín","Rosario","-31.74045","-62.03666"
241,"09100488","SAMCo Curupaity","Av. San Martín y Mondragón","Curupaytí","03491/493611",,"No","Municipal","SAMCo. Ley Provincial 63/12",3533,"Curupaytí","San Cristóbal","Rafaela","-30.39563","-61.65083"
268,"10500104","SAMCo Díaz","Sunchales 384","Díaz","03466/496113","samcodiaz@coopdiaz.com.ar","Si","Municipal","SAMCo. Ley Provincial 63/12",3771,"Díaz","San Jerónimo","Rosario","-32.3748","-61.09403"
536,"04200387","SAMCo Dr. A Gutiérrez","Av. Gutiérrez 55","Venado Tuerto","03462/421115-439121-439099","hospitalsamcovt@hotmail.com","Si","Municipal","SAMCo. Ley Provincial 63/12",0077,"Venado Tuerto","General López","Venado Tuerto","-33.751809736163","-61.950092009645"
453,"02100466","SAMCo Dr. Amílcar Gorosito","Avda. Belgrano y Dentesano","Sunchales","03493/420173-099Centre1271","samcosunchales@soon.com.ar","Si","Municipal","SAMCo. Ley Provincial 63/12",0049,"Sunchales","Castellanos","Rafaela","-30.94213","-61.56131"
7,"04900303","SAMCo Dr. Bartolomé B Parma","25 de Mayo s/n","Villa Ana","03482/494033","samcovillaana@gmail.com","Si","Municipal","SAMCo. Ley Provincial 63/12",2868,"Villa Ana","General Obligado","Reconquista","-28.49761","-59.61276"
508,"03500026","SAMCo Dr. Eladio Antonucci","RP 1 S Km 123","Colonia Mascías","03405/424525- centrex 6214","samcomas@yahoo.com.ar","No","Municipal","Dep. de SAMCo.",2546,"Colonia Mascías","Garay","Santa Fe","-30.80408","-60.00522"
450,"02100351","SAMCo Dr. Jaime Ferre","Lisandro de La Torre 737","Rafaela","03492/421621Ctrex 6520-6521","direccion@samcorafaela.com.ar","Si","Municipal","SAMCo. Ley Provincial 63/12",0042,"Rafaela","Castellanos","Rafaela","-31.244208931398","-61.500758616716"
86,"06300818","SAMCo Dr. Nanzer","12 de Septiembre y Azcuénaga","Santo Tomé","0342/4743444, centrex: 4915",,"Si","Municipal","SAMCo. Ley Provincial 63/12",0154,"Santo Tomé","La Capital","Santa Fe","-31.678650000","-60.777483333"
303,"11900017","SAMCo Dr. R Barrionuevo","R. de Escalada y Jujuy","Capitán Bermúdez","0341-4912388 Ctrex 2702","samcocb@netcoop.com.ar","Si","Municipal","SAMCo. Ley Provincial 63/12",0266,"Capitán Bermúdez","San Lorenzo","Rosario","-32.8196","-60.71796"
323,"12600084","SAMCo El Trébol","Dorrego 549","El Trébol","03401/422324","samcoeltrebol@hotmail.com","Si","Municipal","Dep. de SAMCo.",0308,"El Trébol","San Martín","Rosario","-32.19028","-61.70576"
521,"04200077","SAMCo Elortondo","San Martín 156","Elortondo","03462 470056","samcoelortondo@hotmail.com.ar","Si","Municipal","SAMCo. Ley Provincial 63/12",2644,"Elortondo","General López","Venado Tuerto","-33.69724","-61.60609"
123,"07000281","SAMCo Esperanza Dr. Daniel A Criado","Rdo. P. A. Jansen 2693","Esperanza","03496-420027/0263/0317- 6883","samcoesperanza@esperanza.gov.ar","Si","Municipal","SAMCo. Ley Provincial 63/12",0161,"Esperanza","Las Colonias","Santa Fe","-31.442134924537","-60.93605484547"
124,"07000303","SAMCo Felicia","Rivadavia 759","Felicia","03496/491147 centrex 1287","samcofelicia@hotmail.com","Si","Municipal","SAMCo. Ley Provincial 63/12",3071,"Felicia","Las Colonias","Santa Fe","-31.2443","-61.21044"
559,"04900150","SAMCo Florencia","Estanislao López 651","Florencia","03482/491104, ctx: 6473","samcoflorencia@ltnt.com.ar","Si","Municipal","SAMCo. Ley Provincial 63/12",2798,"Florencia","General Obligado","Reconquista","-28.0457","-59.21936"
339,"13300041","SAMCo Fortín Olmos","Juan M. de Rosas s/n","Fortín Olmos","03483/492018-492050(Com.)",,"Si","Provincial","SAMCo. Ley Provincial 63/12",4149,"Fortín Olmos","Vera","Reconquista","-29.05054","-60.41163"
306,"11900076","SAMCo Fuentes","Simón de Iriondo 325","Fuentes","03464/493517","samcofuentes@Hotmail.com","No","Municipal","SAMCo. Ley Provincial 63/12",3995,"Fuentes","San Lorenzo","Rosario","-33.17412","-61.07383"
270,"10500121","SAMCo Gálvez Hospital Alfredo Baetti","Bartolomé Mitre 1551","Gálvez","03404-480391","contaduriasamcogalvez@cegnet.com.ar","Si","Municipal","SAMCo. Ley Provincial 63/12",0252,"Gálvez","San Jerónimo","Santa Fe","-32.018485640655","-61.227328425871"
349,"13300173","SAMCo Garabato","Zona urbana","Garabato","03482/493085 (Cab. Púb.)",,"Si","Provincial","SAMCo. Ley Provincial 63/12",4156,"Garabato","Vera","Reconquista","-28.95316","-60.1385"
166,"08400054","SAMCo General San Martin - Arroyo Seco","J. Salk y Ruta 21","Arroyo Seco","03402/426628, centrex: 6160","samcoarroyoseco@arnetbiz.com.ar","Si","Municipal","SAMCo. Ley Provincial 63/12",0182,"Arroyo Seco","Rosario","Rosario","-33.15998","-60.49982"
522,"04200107","SAMCo General San Martin - Firmat","Santa Fe 1860","Firmat","03465/423528, centrex: 6320",,"Si","Municipal","SAMCo. Ley Provincial 63/12",0063,"Firmat","General López","Venado Tuerto","-33.45809","-61.49488"
127,"07000346","SAMCo Geriátrico J Vionet","Benefactores 1159","Pilar","03404/470061-470361","samcopilar@santafe.gov.ar","Si","Municipal","SAMCo. Ley Provincial 63/12",3155,"Pilar","Las Colonias","Santa Fe","-31.44152","-61.26692"
286,"11200023","SAMCo Gobernador Crespo","Comb. de S. Lorenzo 453","Gobernador Crespo","03498/480025, centrex: 2028",,"Si","Municipal","SAMCo. Ley Provincial 63/12",3890,"Gobernador Crespo","San Justo","Santa Fe","-30.36227","-60.40029"
313,"11900157","SAMCo Granaderos A Caballo","Richeri 347","San Lorenzo","03476/422404 centrex 6402","samcosanlorenzo@yahoo.com.ar","Si","Provincial","SAMCo. Ley Provincial 63/12",0301,"San Lorenzo","San Lorenzo","Rosario","-32.748817366249","-60.729906147113"
509,"03500034","SAMCo Helvecia","Vélez Sarsfield 830","Helvecia","03405 470164 - 292 - 018","hospitalhelvecia@yahoo.com.ar","Si","Municipal","SAMCo. Ley Provincial 63/12",2553,"Helvecia","Garay","Santa Fe","-31.099721890785","-60.091322717389"
230,"09100321","SAMCo Hersilia","Dorrego 124","Hersilia","03491/494120","samco-hersilia@inthersil.com.ar","Si","Municipal","SAMCo. Ley Provincial 63/12",3547,"Hersilia","San Cristóbal","Rafaela","-30.00036","-61.83972"
231,"09100330","SAMCo Huanqueros","La Rioja y San Lorenzo","Huanqueros","03408-425711","samcohuanqueros@live.com.ar","No","Municipal","SAMCo. Ley Provincial 63/12",3554,"Huanqueros","San Cristóbal","Rafaela","-30.01395","-61.21703"
524,"04200158","SAMCo Hughes","Rivadavia y Laprida 2725","Hughes","02473 49-1520-491175",,"Si","Municipal","SAMCo. Ley Provincial 63/12",2651,"Hughes","General López","Venado Tuerto","-33.80508","-61.33487"
446,"02100253","SAMCo Humberto Primo","San Martín 844","Humberto Primo","03493/480150, centrex:1276","samcohumberto@cisc.net.ar","Si","Municipal","SAMCo. Ley Provincial 63/12",2273,"Humberto Primo","Castellanos","Rafaela","-30.86642","-61.35855"
352,"13300203","SAMCo Intiyaco","E. López S/N","Intiyaco","03482/490315, centrex: 6449","hospitaldrluisbentos@hotmail.com","Si","Municipal","SAMCo. Ley Provincial 63/12",4170,"Intiyaco","Vera","Reconquista","-28.67564","-60.07152"
440,"01400130","SAMCo Islas Malvinas","Calle 20 Nº 415","Gödeken","03465/498145, centrex: 6339","samco.godoken@hotmail.com","Si","Municipal","SAMCo. Ley Provincial 63/12",2070,"Gödeken","Caseros","Venado Tuerto","-33.40045","-61.841"
494,"02800077","SAMCo Juan B Molina","Moreno 64","Juan B. Molina","03460/498202","samcojbm@coopjbmolina.com.ar","Si","Municipal","SAMCo. Ley Provincial 63/12",2462,"Juan B. Molina","Constitución","Rosario","-33.49626","-60.50648"
341,"13300084","SAMCo La Gallareta","Alberdi s/n","La Gallareta","03483-496127 ctx 5053",,"Si","Municipal","SAMCo. Ley Provincial 63/12",4177,"La Gallareta","Vera","Reconquista","-29.58037","-60.37916"
126,"07000338","SAMCo La Pelada","Colonizadores s/n","La Pelada","03497/495038,centrex:1298","samcolapelada@hotmail.com","Si","Municipal","SAMCo. Ley Provincial 63/12",3120,"La Pelada","Las Colonias","Santa Fe","-30.86416","-60.96607"
324,"12600106","SAMCo Landeta","Lisandro de la Torre 802","Landeta","03406/497212",,"No","Municipal","SAMCo. Ley Provincial 63/12",4086,"Landeta","San Martín","Rosario","-32.01373","-62.0631"
562,"04900184","SAMCo Lanteri","Bartolomé Mitre S/N","Lanteri","03482/474006, centrex: 6443",,"Si","Municipal","SAMCo. Ley Provincial 63/12",2826,"Lanteri","General Obligado","Reconquista","-28.84212","-59.63613"
325,"12600114","SAMCo Las Bandurrias","San Martín s/n","Las Bandurrias","03401/422759",,"No","Municipal","SAMCo. Ley Provincial 63/12",4093,"Las Bandurrias","San Martín","Rosario","-32.19743","-61.49228"
427,"00700067","SAMCo Las Parejas Dr. Juan M Valdano","Avda. 17 Nº 669","Las Parejas","03471/471200 centrex 6391","hospitallasparejas@yahoo.com.ar","Si","Municipal","SAMCo. Ley Provincial 63/12",0014,"Las Parejas","Belgrano","Rosario","-32.68252","-61.52255"
326,"12600122","SAMCo Las Petacas","Calle 11 535","Las Petacas","03406/494101","samcolaspetacas@hotmail.com","No","Municipal","SAMCo. Ley Provincial 63/12",4100,"Las Petacas","San Martín","Rosario","-31.82239","-62.10648"
428,"00700075","SAMCo Las Rosas","Calle Paso de los Andes 419","Las Rosas","03471/451205-451004","samcolasrosas@hotmail.com","Si","Municipal","SAMCo. Ley Provincial 63/12",0021,"Las Rosas","Belgrano","Rosario","-32.480369150487","-61.58148865414"
565,"04900214","SAMCo Las Toscas","Calle 29 Nº 451","Las Toscas","03482/492134","samcolastoscas@hotmail.com","Si","Municipal","SAMCo. Ley Provincial 63/12",0098,"Las Toscas","General Obligado","Reconquista","-28.34876","-59.25849"
156,"07700046","SAMCo Logroño","Buenos Aires s/n","Logroño","03491/490050, centrex:6487","samcolog@hotmail.com.ar","Si","Municipal","SAMCo. Ley Provincial 63/12",3309,"Logroño","9 De Julio","Rafaela","-29.50147","-61.69688"
266,"10500066","SAMCo López","Aurelia 1677","López","03404/498135,centrex:6202","samcolopez@yahoo.com.ar","No","Municipal","SAMCo. Ley Provincial 63/12",3813,"López","San Jerónimo","Santa Fe","-31.906824720676","-61.278415305123"
328,"12600131","SAMCo Los Cardos","L. de la Torre 388","Los Cardos","03401/497000","samcoloscardos@gmail.com","No","Municipal","SAMCo. Ley Provincial 63/12",4107,"Los Cardos","San Martín","Rosario","-32.32357","-61.63139"
438,"01400113","SAMCo Los Quirquinchos","Mitre y Belgrano","Los Quirquinchos","03465 - 496170","samcolosquirquinchos@microrred.com.ar","Si","Municipal","SAMCo. Ley Provincial 63/12",2084,"Los Quirquinchos","Caseros","Venado Tuerto","-33.37919","-61.71469"
308,"11900092","SAMCo Luis Palacios","Quiroga 441","Luis Palacios","03476/499178 ctx 6416","samcoluispalacios@yahoo.com.ar","No","Municipal","SAMCo. Ley Provincial 63/12",4002,"Luis Palacios","San Lorenzo","Rosario","-32.7849","-60.9055"
527,"04200191","SAMCo Maggiolo","Mariano Castex 411","Maggiolo","03462-492038",,"Si","Municipal","SAMCo. Ley Provincial 63/12",2679,"Maggiolo","General López","Venado Tuerto","-33.72035","-62.24639"
1,"04900222","SAMCo Malabrigo","2 de Julio 864","Malabrigo","03482/454001, centrex: 6440",,"Si","Municipal","SAMCo. Ley Provincial 63/12",0105,"Malabrigo","General Obligado","Reconquista","-29.34947","-59.96898"
342,"13300092","SAMCo Margarita","Luciano Leiva 1470","Margarita","03483/498213","hospitalmargarita@gmail.com","Si","Municipal","SAMCo. Ley Provincial 63/12",4191,"Margarita","Vera","Reconquista","-29.69023","-60.25353"
435,"01400075","SAMCo María Eva Duarte De Perón","Bv. Roque Sáenz Peña 1296","Chabás","03464/480211 centrex 6312","samcochabas@hotmail.com.ar","Si","Municipal","SAMCo. Ley Provincial 63/12",2056,"Chabás","Caseros","Rosario","-33.2478","-61.36109"
329,"12600149","SAMCo María Susana","Santiago del Estero 657","María Susana","03401/466296","samcomsusana@redcrs.com.ar","Si","Municipal","SAMCo. Ley Provincial 63/12",4114,"María Susana","San Martín","Rosario","-32.26032","-61.90367"
528,"04200204","SAMCo María Teresa","E. Bosch y San Martín","María Teresa","03462/480026, centrex: 6292","samcomt@soon.com.ar","Si","Municipal","SAMCo. Ley Provincial 63/12",2686,"María Teresa","General López","Venado Tuerto","-34.00998","-61.91101"
496,"02800093","SAMCo Máximo Paz","Ituzaingó 72","Máximo Paz (Est. Paz)","03460/496038","samcopaz@hotmail.com.ar","Si","Municipal","SAMCo. Ley Provincial 63/12",2483,"Máximo Paz (Est. Paz)","Constitución","Rosario","-33.48107","-60.95067"
234,"09100372","SAMCo Monigotes","Zona urbana","Monigotes",,,"No","Municipal","SAMCo. Ley Provincial 63/12",3610,"Monigotes","San Cristóbal","Rafaela","-30.48792","-61.63367"
429,"00700083","SAMCo Montes De Oca","Sarmiento 543","Montes De Oca","03471/495000","mariagiaveno@hotmail.com","Si","Municipal","SAMCo. Ley Provincial 63/12",2014,"Montes de Oca","Belgrano","Rosario","-32.56628","-61.76924"
81,"06300524","SAMCo Nelson","San Martín 264","Nelson","0342-4572551/4902810","equipodesaludnelson@hotmail.com","No","Provincial","Dep. de SAMCo.",3008,"Nelson","La Capital","Santa Fe","-31.264466667","-60.759733333"
61,"06300087","SAMCo Norberto Trossero","Colono 1344","Laguna Paiva","0342/4579249 centrex: 9249","samcolpaiva@hotmail.com","Si","Municipal","SAMCo. Ley Provincial 63/12",0140,"Laguna Paiva","La Capital","Santa Fe","-31.310600000","-60.662766667"
330,"12600157","SAMCo Piamonte","Rivadavia 801 (Rivadavia y Alberdi)","Piamonte","03401/455138","hospitalpiamonte@redcrs.com","Si","Municipal","SAMCo. Ley Provincial 63/12",4121,"Piamonte","San Martín","Rosario","-32.14381","-61.97849"
273,"10500171","SAMCo Pueblo Irigoyen","Belgrano 450","Irigoyen (Pueblo)","03466/491023, ctx: 6346","samcoirigoyen@gmail.com","No","Municipal","SAMCo. Ley Provincial 63/12",3792,"Irigoyen (Pueblo)","San Jerónimo","Santa Fe","-32.15773","-61.10885"
274,"10500180","SAMCo Puerto Gaboto","Santic Spíritu s/n","Gaboto","03476/488041 centrex 6410","samcopuertogaboto@hotmail.com","No","Municipal","SAMCo. Ley Provincial 63/12",3778,"Gaboto","San Jerónimo","Rosario","-32.43404","-60.81731"
309,"11900106","SAMCo Puerto San Martin","J. B. Alberdi 125","Puerto General San Martín","03476/422068 ctx 6400","samcopgsm@hotmail.com","No","Municipal","SAMCo. Ley Provincial 63/12",0287,"Puerto General San Martín","San Lorenzo","Rosario","-32.7185","-60.73009"
310,"11900114","SAMCo Pujato","Bv. Colón 880","Pujato","03464/494159","samcopujato@dat1.net.ar","No","Municipal","SAMCo. Ley Provincial 63/12",4009,"Pujato","San Lorenzo","Rosario","-33.01574","-61.04367"
337,"13300017","SAMCo Ricardo Aldao","Bv. Estanislao López 951","Calchaquí","03483/470204, ctx: 6469","rofarioli@yahoo.com.ar","Si","Municipal","SAMCo. Ley Provincial 63/12",0329,"Calchaquí","Vera","Reconquista","-29.88621","-60.28094"
311,"11900122","SAMCo Roldan","Bv. Sarmiento 900","Roldán","0341/4961309 ctx 4671","samcoroldan@hotmail.com","Si","Municipal","SAMCo. Ley Provincial 63/12",0294,"Roldán","San Lorenzo","Rosario","-32.90098","-60.91052"
250,"09800048","SAMCo Romang","Dr. Arturo Illia 1168","Romang","03482/496009, centrex: 6456","hospital_jonassalk@hotmail.com","Si","Municipal","SAMCo. Ley Provincial 63/12",3715,"Romang","San Javier","Reconquista","-29.5056","-59.75066"
40,"05600109","SAMCo Salto Grande","Mitre 1097","Salto Grande","03476/494224","samcosaltogrande@hotmail.com","No","Provincial","SAMCo. Ley Provincial 63/12",2931,"Salto Grande","Iriondo","Rosario","-32.67001","-61.08626"
236,"09100411","SAMCo San Cristóbal","Cochabamba 1456","San Cristóbal","03408/422033 - Centrex 8097","personalsamcosancristobal@yahoo.com.ar","Si","Municipal","SAMCo. Ley Provincial 63/12",0231,"San Cristóbal","San Cristóbal","Rafaela","-30.307463715526","-61.228706540489"
276,"10500201","SAMCo San Genaro Jarupkin","Dr. Ricardo Balbi 1697","San Genaro","03401/448756-448659","samco@redcrs.com.ar","Si","Municipal","SAMCo. Ley Provincial 63/12",0256,"San Genaro","San Jerónimo","Rosario","-32.37332","-61.3609"
532,"04200298","SAMCo San Gregorio","Lisandro de la Torre 251","San Gregorio","03382/470041","samco@sangregorio.com.ar","Si","Municipal","SAMCo. Ley Provincial 63/12",2728,"San Gregorio","General López","Venado Tuerto","-34.3258","-62.03254"
237,"09100445","SAMCo San Guillermo","Independencia 50","San Guillermo","03562/466146","samco@sanguillermo.com.ar","No","Municipal","SAMCo. Ley Provincial 63/12",3645,"San Guillermo","San Cristóbal","Rafaela","-30.35857","-61.91624"
251,"09800064","SAMCo San Javier","Av. T. Madrejón 1320","San Javier","03405/424247-424104centrex6203","samcosanjavier@yahoo.com.ar","Si","Provincial","SAMCo. Ley Provincial 63/12",0238,"San Javier","San Javier","Santa Fe","-30.583612263501","-59.934135574804"
331,"12600165","SAMCo San Jorge","Urquiza 1648","San Jorge","03406/441666-441700","samco@samco.arnetbiz.com.ar","Si","Municipal","SAMCo. Ley Provincial 63/12",0315,"San Jorge","San Martín","Rosario","-31.89265","-61.85498"
439,"01400121","SAMCo San José De La Esquina","San Martín 951","San José De La Esquina","03467/461249-462010","hospitalsamco@gobbt.com.ar","Si","Municipal","SAMCo. Ley Provincial 63/12",2091,"San José de la Esquina","Caseros","Rosario","-33.11663","-61.70266"
292,"11200091","SAMCo San Justo","Italia 2865","San Justo","03498/427377-426466-425534-5-6",,"Si","Municipal","SAMCo. Ley Provincial 63/12",0259,"San Justo","San Justo","Santa Fe","-30.791483413249","-60.598742581084"
332,"12600173","SAMCo San Martin De Las Escobas","Alte. Brown 1269","San Martín De Las Escobas","03406/498279","samcosme_@hotmail.com","Si","Municipal","SAMCo. Ley Provincial 63/12",4128,"San Martín de las Escobas","San Martín","Rosario","-31.85415","-61.56798"
451,"02100415","SAMCo San Vicente","Belgrano 565","San Vicente","03492/471262-470262","hospitalsamcosanvicente@hotmail.com","Si","Municipal","SAMCo. Ley Provincial 63/12",2350,"San Vicente","Castellanos","Rafaela","-31.69918","-61.56103"
534,"04200328","SAMCo Sancti Spiritu","Av. La Amistad 529","Sancti Spiritu","03462 - 444045",,"Si","Municipal","SAMCo. Ley Provincial 63/12",2735,"Sancti Spiritu","General López","Venado Tuerto","-34.00822","-62.24693"
131,"07000419","SAMCo Santa Clara De Buena Vista","Cnel. Domínguez 450","Santa Clara De Buena Vista","03404/493114, centrex: 6192","samcosantaclara@hotmail.com","Si","Municipal","SAMCo. Ley Provincial 63/12",3239,"Santa Clara de Buena Vista","Las Colonias","Santa Fe","-31.76311","-61.31671"
452,"02100440","SAMCo Santa Clara De Saguier","Echeverría 58","Santa Clara De Saguier","03492/490019, centrex: 1256",,"Si","Municipal","SAMCo. Ley Provincial 63/12",2357,"Santa Clara de Saguier","Castellanos","Rafaela","-31.33503","-61.82582"
510,"03500042","SAMCo Santa Rosa De Calchines","Córdoba 420","Santa Rosa De Calchines","0342/4908034-Centrex 2550","samco_santarosa@hotmail.com","Si","Municipal","SAMCo. Ley Provincial 63/12",2567,"Santa Rosa de Calchines","Garay","Santa Fe","-31.41877","-60.33431"
133,"07000435","SAMCo Santo Domingo","9 de Julio 479","Santo Domingo","03497/498065 centrex 1241","samcostodomingo@121netwifi.com.ar","Si","Municipal","SAMCo. Ley Provincial 63/12",3260,"Santo Domingo","Las Colonias","Santa Fe","-31.12327","-60.88706"
134,"07000443","SAMCo Sarmiento","25 de Mayo 1449","Sarmiento","03497/497095","samco.sarmiento@hotmail.com","Si","Municipal","SAMCo. Ley Provincial 63/12",3267,"Sarmiento","Las Colonias","Santa Fe","-31.05734","-61.16471"
333,"12600190","SAMCo Sastre","Dr. Hugo Novatti 2175","Sastre","03406/480222-480212","estadisticasastre@gmail.com","Si","Municipal","SAMCo. Ley Provincial 63/12",0322,"Sastre","San Martín","Rosario","-31.771409581607","-61.834035187837"
222,"09100038","SAMCo Suardi","Dr. Fernández 365","Suardi","03562/477379","samcosuardi@suardi.com.ar","Si","Provincial","SAMCo. Ley Provincial 63/12",3666,"Suardi","San Cristóbal","Rafaela","-30.5368","-61.96143"
355,"13300220","SAMCo Tartagal","Zona urbana","Tartagal","03482/490569","samco_tart@hotmail.com","Si","Provincial","SAMCo. Ley Provincial 63/12",4198,"Tartagal","Vera","Reconquista","-28.6702","-59.84716"
535,"04200344","SAMCo Teófilo Puentes","Sarmiento 44","Teodelina","03462/440151, centrex: 6285","samcoteodelina@yahoo.com.ar","Si","Municipal","SAMCo. Ley Provincial 63/12",2749,"Teodelina","General López","Venado Tuerto","-34.19251","-61.52701"
430,"00700091","SAMCo Tortugas","Sarmiento 254","Tortugas","03471-494332/494538","samcotortugas@yahoo.com.ar","Si","Municipal","SAMCo. Ley Provincial 63/12",2021,"Tortugas","Belgrano","Rosario","-32.74636","-61.81804"
159,"07700089","SAMCo Dr. Alfredo Luis Rosetani","Vuelta de Obligado y RP 2 S","Tostado","03491/470373","samco.tostado@gmail.com","Si","Municipal","SAMCo. Ley Provincial 63/12",0175,"Tostado","9 De Julio","Rafaela","-29.235049416123","-61.771187972664"
45,"05600141","SAMCo Totoras","Lavalle 950","Totoras","03476/460222- centrex 6405","hospitaltotoras@yahoo.com.ar","Si","Municipal","SAMCo. Ley Provincial 63/12",0133,"Totoras","Iriondo","Rosario","-32.58253697359","-61.166303280208"
334,"12600203","SAMCo Traill","Zona urbana","Traill","03406/441900(Com.)","lmdallari@hotmail.com","No","Municipal","SAMCo. Ley Provincial 63/12",4135,"Traill","San Martín","Rosario","-31.91969","-61.70172"
340,"13300068","SAMCo Vera","Soldado Gómez 2495","Vera","03483/420105-420146-420166","consejoasesorhospitalvera@hotmail.com","Si","Provincial","Descentralizado - Ley Prov. 10608",0336,"Vera","Vera","Reconquista","-29.454614075909","-60.219515728937"
294,"11200139","SAMCo Vera Y Pintado","Juan de Garay s/n","Vera Y Pintado","03498/496037",,"Si","Municipal","SAMCo. Ley Provincial 63/12",3967,"Vera y Pintado","San Justo","Santa Fe","-30.14291","-60.33807"
176,"08401638","SAMCo Villa Amelia","Mitre 180","Villa Amelia","03402/492327","samcovamelia@hotmail.com","Si","Municipal","SAMCo. Ley Provincial 63/12",3456,"Villa Amelia","Rosario","Rosario","-33.17569","-60.66462"
537,"04200425","SAMCo Villa Cañas","Avda. 59 s/n","Villa Cañás","03462/450245, centrex: 6288","samcovc@intertelsa.com.ar, hospitalsamco","Si","Municipal","SAMCo. Ley Provincial 63/12",0084,"Villa Cañás","General López","Venado Tuerto","-34.00208","-61.61204"
500,"02800131","SAMCo Dr. Juan E. Milich","Bolívar 1600","Villa Constitución","03400/474057-473448","comprashospitalvc@gmail.com","Si","Municipal","Dep. de SAMCo.",0056,"Villa Constitución","Constitución","Rosario","-33.233645488537","-60.33111484904"
47,"05600168","SAMCo Villa Eloísa","Libertad 452","Villa Eloísa","03471/491065","samcovillaeloisa@veloisa.com.ar","Si","Municipal","SAMCo. Ley Provincial 63/12",2945,"Villa Eloísa","Iriondo","Rosario","-32.96144","-61.55062"
160,"07700101","SAMCo Villa Minetti","Solitario Montoto 748","Villa Minetti","03491/496069, centrex: 6503","hospitalvillaminetti@santafe.gov.ar","Si","Municipal","SAMCo. Ley Provincial 63/12",3344,"Villa Minetti","9 De Julio","Rafaela","-28.62124","-61.62648"
314,"11900181","SAMCo Villa Mugueta","Rivadavia 798","Villa Mugueta","03464-497023","samcovillamugueta@yahoo.com.ar","No","Municipal","SAMCo. Ley Provincial 63/12",4037,"Villa Mugueta","San Lorenzo","Rosario","-33.31216","-61.05317"
8,"04900311","SAMCo Villa Ocampo","Doctor Farran 2129","Villa Ocampo","03482/466002-466002","admhospitalsamco@vocampo.com.ar","Si","Municipal","SAMCo. Ley Provincial 63/12",0119,"Villa Ocampo","General Obligado","Reconquista","-28.480386232873","-59.350617609865"
221,"09100020","SAMCo Villa Trinidad","Falucho 572","Villa Trinidad","03491/491058- Centrex 6490","samcovt@vtcc.com.ar","No","Municipal","SAMCo. Ley Provincial 63/12",3680,"Villa Trinidad","San Cristóbal","Rafaela","-30.21519","-61.8774"
538,"04200450","SAMCo Wheelwright","H. Vila 672","Wheelwright","02473-480849","samcowheel@hotmal.com","Si","Municipal","SAMCo. Ley Provincial 63/12",2756,"Wheelwright","General López","Venado Tuerto","-33.79437","-61.21318"
177,"08401654","SAMCo Zavalla","25 de Mayo 2144","Zavalla","0341/4970326 ctx 4449","samcozavalla@yahoo.com.ar","No","Municipal","SAMCo. Ley Provincial 63/12",3463,"Zavalla","Rosario","Rosario","-33.02062","-60.87552"
1305,"06309847","Subsecretaria De Emergencias Y Traslados","Dr. Zavalla 3361","Santa Fe","0342-4573712",,"No","Provincial","Provincial- Decreto Nacional 939",0147,"Santa Fe","La Capital","Santa Fe","-31.63436","-60.71691"
1255,"06309829","UNL Saludable","A. Morau de Justo (Costa Este)","Santa Fe","0342-4571217",,"Si","Universitario","No definido",0147,"Santa Fe","La Capital","Santa Fe","-31.639733330","-60.677650000"
